imno,name,address,city,district,state ,pincode,nominating_authority,na_phone,na_email
A0200002,Kavikulguru Institute of Technology and Science,"K.K. Nagar, Ramtek, ",Nagpur,,Maharashtra,441106,Dr.Bhaskar Patel,99754 13330,principal@kits.edu
A0200003,"Aurora's Scientific, Technological and Research Academy","Bandlaguda, Chandrayan Gutta, ",Hyderabad,,Telangana,500005,Dr.C.Srilatha,98666 66695,deepuaurora@yahoo.com
A0200004,Dr. T. Thimmaiah Institute of Technology,"Oorgaum Post, ",Kolar Gold Fields,,Karnataka,563120,Dr.Syed Ariff,94485 74037,principal@gvet.edu.in
I00039,C.U. Shah College of Engineering and Technology,"Surendranagar-Ahamedabad State Highway,Near Kotharia Village,Wadhwan City",Surendra Nagar,"Dist.Surendranagar,",Gujarat,363030,Dr.K.H.Wandra,,grkulkarni29264@rediffmail.com
I00054,Kumaraguru College of Technology,"Chinnavedampatti Post,",Coimbatore,,Tamilnadu,641049,Dr.R.S.Kumar ,98422 23019,principal@kct.ac.in
I00079,R.M.K. Engineering College,"R.S.M.Nagar, ",Kavaraipettai,"Gummidipoondi TK, Thiruvallur District,",Tamilnadu,601206,Dr.Elwin Chandra Monie ,94436 27226,principal@rmkec.ac.in
I00097,Indian Institute of Technology Guwahati,"Central Library,",Guwahati,,Assam,781039,Gautam Barua,,diroff@iitg.ernet.in
I00102,Syed Ammal Engineering College,Dr.E.M. Abdullah Campus,Ramanathapuram,,Tamilnadu,623502,Dr.P.Marimuthu,94435 93065,principal@syedengg.ac.in
I00117,Government Engineering College,"Barton Hill, Kunnukuzhy, ",Thiruvananthapuram,,Kerala,695035,Dr.B.Anil,93498 37296,principal@gecbh.ac.in
I00119,The Kavery Engineering College,"Mecheri, ",Salem,,Tamilnadu,636453,Dr.V.Venkatachalam,95249 72156,principal804@hotmail.com
I00125,PSGR Krishnammal College for Women,"Peelamedu,",Coimbatore,,Tamilnadu,641004,Dr.S.Nirmala,97896 80808,principal@psgrkc.com
I00135,Sri Krishna College of Engineering and Technology,"Sugunapuram, Kuniamuthur P.O., ",Coimbatore,,Tamilnadu,641008,Dr.J.Janet,74026 01301,jjanet@skcet.ac.in
I00142,M.A.M. College of Engineering,,Trichy,,Tamilnadu,621105,Dr.S.Ravimaran,94430 76222,principal@mamce.org
I00158,Adhiyamaan College of Engineering,"Dr. M.G.R. Nagar, Krishnagiri District,",Hosur,,Tamilnadu,635109,Dr.G.Ranganath,94432 60071,principal@adhiyamaan.ac.in
I00190,Cauvery College for Women,"Annamalai Nagar, ",Tiruchirapalli,,Tamilnadu,620018,Dr.V.Sujatha,94434 95161,cauverycollege_try@rediffmail.com
I00199,Amrita School of Engineering,"(Amrita Vishwa Vidyapeetham University)Ettimadal Post,",Coimbatore,,Tamilnadu,641105,Dr.K.Sankaran,,
I00211,MVJ College of Engineering,"Channasandra, Near ITPB, Whitefield,",Bangalore,,Karnataka,560067,Prof.M.Brindha ,96327 73981,viceprincipal@mvjce.edu.in
I00224,Sri Ramakrishna Engineering College,"Vattamalaipalayam, N.G.G.O. Colony Post, ",Coimbatore,,Tamilnadu,641022,Dr.N.R.Alamelu,97509 52299,principal@sree.ac.in
I00229,Tagore Engineering College,"Rathinamangalam, Vandalur Post,",Chennai,,Tamilnadu,600127,Dr.P.Kasinatha Pandian,78100 10999,principal.tagore@gmail.com
I00231,R.M.D. Engineering College,"R.S.M.Nagar, Kavaraipettai",Chennai,"Gummidipoondi TK, Thiruvallur Dist,",Tamilnadu,601206,Dr.K.Sivaram,94875 67830,rmdecp@gmail.com
I00233,Valliammai Engineering College,"SRM Nagar, Kattankulathur,",Chennai,,Tamilnadu,603203,Dr.B.Chidambara Rajan,94433 04768,"principal@valliammai.co.in, profbcr@yahoo.com"
I00236,Erode Sengunthar Engineering College,"Thudupathi, ",Erode,,Tamilnadu,638057,Dr.V.Venkatachalam,94421 32706 ,principal@erode-sengunthar.ac.in
I00247,National Insurance Academy,"25, Balewadi, Baner Road,NIA P.O.,",Pune,,Maharashtra,411045,Shri Sushobhan Sarker,70301 22110,director@niapune.com
I00252,School of Computer Studies,"AG Teachers College Campus, Navrangpura, ",Ahmedabad,,Gujarat,380009,Mr.Bipin.V.Mehta,98250 63928,"bvmehta@aesics.ac.in, bv.mehta@ahduni.edu.in"
I00256,Narmada College of Computer Application,"Zadeshwar, ",Bharuch,,Gujarat,392011,Dr.Jatinderkumar R. Saini,,
I00258,Institute of Management Education,"Main G.T. Road, Sahibabad, ",Ghaziabad,,Uttar Pradesh,201005,,,
I00267,Easwari Engineering College,"Bharathi Salai, Ramapuram, ",Chennai,,Tamilnadu,600089,Dr.K.Kathiravan,98408 42514,principal@srmeaswari.ac.in
I00271,M.V.S.R. Engineering College,"(Maturi Venkata Subba Rao),Door No.G.P.10-101, Nadergul (P.O), ",Hyderabad,"Saroornagar Madal, Ranga Reddy District,",Andhra Pradesh,501510,Sastry A Pannala,98859 21777,principal.mvsrec@gmail.com
I00275,Pooja Bhagavat Memorial Mahajana Post Graduate Centre,"KRS Road, Metagalli, ",Mysore,,Karnataka,570016,Dr.CK Renukarya,98454 60047,ckrenukarya@hotmail.com
I00287,St.Joseph's College of Engineering,"Jeppiaar Nagar, Old Mamallapuram Road, ",Chennai,,Tamilnadu,600119,Dr.Vaddi Seshagiri Rao,94440 69916,principal@stjosephs.ac.in
I00299,Bharati Vidyapeeth's Institute of Computer Applications and Management,"A-4, Paschim Vihar, Rohtak Road,",New Delhi,,New Delhi,110063,Dr.Mohd Narul Hoda,92120 22066,"mca@bvicam.ac.in, mca.hoda@gmail.com"
I00309,Kanya Maha Vidyalaya,"Vidyalaya Marg,Tanda Road, ",Jalandhar,,Punjab,144004,,,
I00325,Rajalakshmi Engineering College,"Rajalakshmi Nagar, Thandalam, ",Chennai,,Tamilnadu,602105,Dr.G.Thanigaiyarasu,044-37181111,principal@rajalakshmi.edu.in
I00332,Dr.Mahalingam College of Engineering and Technology,"Udumalai Road, ",Pollachi,,Tamilnadu,642003,Dr.M.Ramakrishnan,98423 04203,principal@drmcet.ac.in
I00338,B.S.Abdur Rahman University,"(B.S.Abdur Rahman Institute of Scinece and Technology)Seethakathi Estate, GST Road, Vandalur, ",Chennai,,Tamilnadu,600048,Dr.V.Murugesan,94443 76464,"bsar@bsauniv.ac.in, registrar@bsauniv.ac.in"
I00353,Oriental College of Technology,"Thakral Nagar, Opp Patel Nagar, Raisen Road, ",Bhopal, ,Madhya Pradesh,462021,Mr.Praveen Thakral,94250 13463,oistbpb@oriental.ac.in
I00358,Vasavi College of Engineering,"9-5-81, Ibrahimbagh,",Hyderabad,,Telangana,500031,Dr I.V.Rao,99891 33921 ,principal@vce.ac.in
I00372,M.H. Saboo Siddik College of Engineering,"#8, Saboo Siddik Polytechnic Road,Byculla, P.O.Box 4627,",Mumbai,,Maharashtra,400008,Dr.Mohiuddin Ahmed,022-23082640,mhssce@yahoo.in
I00392,Sree Vidyanikethan Engineering College,"Sree Sainath Nagar,",Tirupati,,Andhra Pradesh,517102,Prof.P.C.Krishnamachary,,
I00412,Rajiv Gandhi College of Engineering Research and Technology,"Ballarpur Road, Babupath, ",Chandrapur,,Maharashtra,442402,Dr.Kirtiwardhan Dixit,98222 23557,principal@rcert.ac.in
I00431,Ponnaiyah Ramajayam Institute of Science and Technology (Prist University),,Thanjavur,,Tamilnadu,613403,Prof. S. Nithyanandam,,
I00432,Siddaganga Institute of Technology,"B.H. Road,",Tumkur,,Karnataka,572103,Dr.Shivakumaraiah,96633 67140,principa@sit.ac.in
I00444,International Institute of Information Technology,"Gachibowli, ",Hyderabad,,Telangana,500032,Prof.P.J.Narayanan,040-6653114,pjn@iiit.ac.in
I00461,Idhaya Engineering College for Women,"Idhaya Nagar, Nainarpalayam Road",Chinnasalem,"Villupuram District,",Tamilnadu,606201,Marynirmalarani,,sir.nirmalarani@gmail.com
I00478,Mar Baselios College of Engineering and Technology,"Mar Ivanios Vidyanagar, Bethany Hills, Nalanchira,",Thiruvananthapuram,,Kerala,695015,Dr.T.M.George,94471 46117,principal@mbcet.org
I00479,Banarsidas Chandiwala Institute of Information Technology,"Chandiwala Estate, Maa Anandmai Marg, Kalkaji, ",New Delhi,,New Delhi,110019,Dr.J.S.Sehra,,director@bciit.ac.in
I00481,Pragati Engineering College,"#1-378, ADB Road, Surampalem, Near Peddapuram, ",East Godavari Dist,,Andhra Pradesh,533437,Dr.S.Sambhu Prasad,78931 03266,principal@pragati.ac.in
I00493,GLA University,,Mathura,,Uttar Pradesh,281406,Prof.Anand Singh Jalal,96900 13698,asjalal@gla.ac.in
I00508,VIT University,,Vellore,,Tamilnadu,632014,Dr.K.Sathiyanarayanan,,registrar@vit.ac.in
I00515,R.V. College of Engineering,"8th Mile Mysore Road, Vidyaniketan, ",Bangalore,,Karnataka,560059,Dr.K.N.Subramanya ,96636 99299,principal@rvce.edu.in
I00522,Panimalar Engineering College,"Bangalore Trunk Road, Varadharajapuram, Nasarathpettai, Poonamallee, ",Chennai,,Tamilnadu,602103,Dr.K.Mani,99941 56513,maniakmani@yahoo.co.in
I00528,Institute of Management Studies (Career Development and Research),"IMS Campus, Station Road, ",Ahmednagar,,Maharashtra,414001,Dr.M.B.Mehta,98220 79675,"director@imscdr.in, inscrd_anr@yahoo.co.in"
I00535,"Bahubali Coll of Engg,Hassan",,Shravanabelagola,,Karnataka,573135,Prof. G.M. Ravanavar,,
I00537,K.J. Somaiya College of Engineering,"VidyaNagar, Vidyavihar (East), ",Mumbai,,Maharashtra,400077,Dr.Shubha Milind Pandit,98205 14966,principal@engg.somaiya.edu
I00538,KIIT College of Engineering,"KIIT Campus, Sohna Road, Near Bhondsi, ",Gurgaon,,Haryana,122001,Dr.S.S.Aggarwal,98101 98642,ss_agrawal@hotmail.com
I00542,Mahendra Engineering College (Autonomous),"Mahendhirapuri, Mallasamundrum, Salem-Tiruchengode High Way, ",Namakkal,,Tamilnadu,637408,Dr.M.Madheswaran,99947 27725,principal@mahendra.org
I00559,G.Pulla Reddy Engineering College,"Nandyal Road,  ",Kurnool,,Andhra Pradesh,518002,Dr.B.Sreenivasa Reddy ,99662 36632,"principalgprec@gmail.com, principal@gprec.ac.in"
I00560,KGISL Institute of Information Management,"KGISL Campus, Saravanampatti, ",Coimbatore,,Tamilnadu,641035,Dr.R.Ravichandran ,93629 28734,rr@kggroup.com
I00564,PVP Siddhartha Institute of Technology,"Kanuru Post,",Vijayawada,,Andhra Pradesh,520007,Dr.S.V.M.Bhuvanaika Rao,94909 58212,principal@pvpsiddhartha.ac.in
I00568,Mar Athanasios College for Advanced Studies,,Tiruvalla,,Kerala,689101,Fr.Pradeep Vazhatharamalayil,,principal@macfast.org
I00572,Vidyalankar Institute of Technology,"Vidyalankar College Marg,Antop Hill Wadala East,",Mumbai,,Maharashtra,400037,Prof.Varsha Bhosale,98205 80658,principal@vit.edu.in
I00573,JSS Academy of Technical Education,"JSS ATE, JSS Campus, Mylasandra,Uttrhalli-Kengeri Main Road,",Bangalore,,Karnataka,560060,Dr.Mrityunjaya V. Latte,96866 77259 ,mvlatte@rediffmail.com
I00583,Institute of Technology and Management,"AL-1, Sector-7, GIDA, ",Gorakhpur, ,Uttar Pradesh,273209,Dr.Gaurav Sinha,76070 01477,director.itm@gmail.com
I00600,CMR College of Engineering and Technology,"Kandlakoya (V), Medchal Road,",Hyderabad,,Telangana,501401,Dr.V.A.Narayana,92487 27200,principal@cmrcet.org
I00604,Laljibhai Chaturbhai Institute of Technology,"Tal: Visnagar, Dist: Mehsana,",Bhandu,,Gujarat,384120,Dr.Dharesh J.Shah,,principal@lcit.org
I00609,Karpagam College of Engineering,"S.F.No. 758, 759, 760, Othakkal Mandapam, ",Coimbatore,,Tamilnadu,641032,Dr.P.Vijayakumar,98949 94643,principal@kce.ac.in
I00612,Ganadipathy Tulsi's Jain Engineering College,"Tiruvannamalai Raod,",Vellore,,Tamilnadu,632102,Dr.R.Varatharajan,80125 70109,principal@gtec.ac.in
 I00615 , APIIT SD India ,"Faridpur Road, G.T. Road, Karnal Side, ",Panipat,,Haryana,132103, Manju Sharma-Chief Librarian ,, info@apiit.edu.in 
I00616,Vel Tech Dr.RR and Dr.SR Technical University,"#42, VelTech-Avadi Road, ",Chennai,,Tamilnadu,600062,Dr.Beela Satyanarayana,87544 16291,vicechancellor@veltechuniv.edu.in
I00623,Velammal Engineering College,"Velammal Nagar, AmbatturRedhills Road, ",Chennai,,Tamilnadu,600066,Dr.N.Duraipandian,99404 44927,principal@velammal.edu.in
I00627,Federal Institute of Science and Technology,"Hormis Nagar, Mookkannoor. P.O, ",Angamaly,"Ernakulam Dist, ",Kerala,683577,Dr.George Isasc,94950 46290,principal@fisat.ac.in
I00629,Gayatri Vidya Parishad College for Degree and P.G. Courses,"(Technical Campus), School of Engineering,Yendada, Rushikonda,",Visakhapatnam,,Andhra Pradesh,530013,Dr.A.Ramakrishna,94406 41164,director@gvptc.edu.in
I00639,Ajay Kumar Garg Engineering College,"27th Km. Stone, Delhi-Hapur Bypass Road, Adhyatmik Nagar,",Ghaziabad,,Uttar Pradesh,201009,Dr.R.K.Agarwal ,93133 21455,r.k.agarwal@akgec.org
I00643,Pillai College of Engineering,"Dr.K.M.Vasudevan Pillai's Campus, 10, Sector 16, New Panvel, ",Navi Mumbai,,Maharashtra,410206,Dr.R.I.K.Moorthy,93237 82828,rikmoorthy@yahoo.com
I00650,New Horizon College of Engineering,"Ring Road, Kadubisanahalli, Bellandur Post, Near Marathalli, ",Bangalore,,Karnataka,560103,Dr.Manjunatha,,principal@newhorizonindia.edu
I00652,"Sam Higginbottom Institute of Agriculture, Technology and Sciences","Shiats Naini, ",Allahabad,,Uttar Pradesh,211007,Dr.W.Jeberson,94522 48375,jeberson_w@shiats.edu.in
I00655,NMAM Institute of Technology,,NITTE,"Karkala Taluk, Udupi District,",Karnataka,574110,Dr.Niranjan N Chiplunkar,96112 66900,"principal_nmamit@nitte.edu.in, niranjanchiplunkar@nitte.edu.in"
I00662,Vivekanandha College of Engineering for Women,,Elayampalayam,"Thiruchengode, Namakkal Dt,",Tamilnadu,637205,Dr.S.Suresh Kumar,94437 34562,vcewprincipal@gmail.com
I00666,The Oxford College of Engineering,"Bommanahalli, Hosur Road, ",Bangalore,,Karnataka,560068,Dr.R.V.Praveena Gowda,98457 88599,engprincipal@theoxford.edu
I00671,M.P.Nachimuthu M.Jaganathan Engineering College,"Sudhanandhen, Kalvi Nagar,Chennimalai, ",Erode,,Tamilnadu,638112,Dr.S.Vasantha Sudhananthen,99430 32727,vasanthasudhaa@gmail.com
I00673,Gudlavalleru Engineering College,Seshadri Rao Knowledge Village ,Gudlavalleru,,Andhra Pradesh,521356,Dr.P.Nageswara Reddy ,98487 79122,"vjwgdivengg@sancharnet.in, principalk@gecgudlavalleru.ac.in"
I00676,Jaypee University of Engineering and Technology,"A-B Road, Raghogarh,",Guna,,Madhya Pradesh,473226,Dr.Shishir Kumar,98267 11482,shishir.kumar@juet.ac.in/dr.shishir@yahoo.com
I00677,Acropolis Institute of Technology and Research,"Indore Bypass Road,  Manglia Square, ",Indore,,Madhya Pradesh,453771,Dr.Kamal Bharani,98270 36720,kamalbharani@acropolis.in
I00687,Sri Krishna College of Technology,"Kovaipudur, ",Coimbatore,,Tamilnadu,641042,Dr.G.Ramesh,74026 00100,principal@skct.edu.in
I00703,K.L.N. College of Engineering,,Pottapalayam,"Sivagangai District, ",Tamilnadu,630612,Dr.A.V.Ram Prasad,99401 25238,principal@klnce.edu
I00705,Hindusthan College of Engineering and Technology,"Othakkalmandapam Post, ",Coimbatore,,Tamilnadu,641032,Dr.T.Kannadasan,98941 00454,hicetprincipal@hindusthan.net
I00707,A.V.C College of Engineering,"Mannampandal, ",Mayiladuthurai,"Nagapattinam District,",Tamilnadu,609305,Dr.S.Balasubramanian ,94421 84362,avcce@avccengg.net / principal@avccengg.net
I00708,Smt.Kashibai Navale College of Engineering,"S. No- 44 /1, Vadgaon Budruk off, Sinhgad Road, ",Pune,,Maharashtra,411041,Deshpande Arvind Vinayak,,
I00710,AISSMS College of Engineering,"(All India Shri Shivaji Memorial Society's College of Engineering), Kennedy Road, Near R.T.O.",Pune,,Maharashtra,411001,Dr.Sanjay P.Danao,95456 48496,"spdanao2yahoo.com, principal@aissmscoe.com"
I00712,All India Council for Prof. Training and Research,"G6, Mirani Nagar, Opp. Sarvodaya Soc, Kopri, ",Thane,,Maharashtra,400603,Rajan R Ghag ,"97693 30707, 98703 40707",rajan@aicptr.net
I00716,KSR College of Engineering,"Ksr Kalvi Nagar, Kuchipalayam, Thokkavadi Post, ",Thiruchengode,,Tamilnadu,637209,,, 
I00718,Shri Angalamman College of Engineering and Technology,"Siruganoor, Mannachanallur Taluk, ",Tiruchirappalli,,Tamilnadu,621105,Dr.W.Christ Raj,94431 87952,principal@sacet.edu.in
I00721,Shri Ramswaroop Memorial College of Engineering and Management,"Tewariganj, Faizabad Road,",Lucknow,,Uttar Pradesh,227105,Er Pankaj Agarwal,,
I00729,G.H. Raisoni College of Engineering,"CRPF Gate No. 3, Hingna Road, Digdoh Hills, ",Nagpur,,Maharashtra,440016,Dr.Preethi Bajaj,98222 20369,principal@ghrce.edu.in
I00734,Chandigarh Engineering College,"Landran,",Mohali,,Punjab,140307,Dr.Birajashis Pattnaik,97819 25256,principal.cecmohali@gmail.com
I00738,Shah and Anchor Kutchhi Engineering College,"Mahavir Education Trust Chowk,Waman Tukaram Patil Marg, Next to Dukes Co, Chembur, ",Mumbai,,Maharashtra,400088,Dr.Bhavesh Patel,98200 21466,principal@shahandanchor.com
I00755,K.L.S Gogte Institute of Technology,"""Jnana Ganga"", Udyambag, ",Belgaum,,Karnataka,590008,Dr.Anand Sharad Deshpande ,94490 65500,principal@git.edu
I00768,Vidya College of Engineering,"Vidya Knowledge Park, Baghpat Road, ",Meerut,,Uttar Pradesh,250005,Saurabh Jain,98979 00000,sjain@vidya.edu.in
I00770,Ethiraj College for Women,"#70, Ethiraj Salai, Egmore, ",Chennai,,Tamilnadu,600008,Dr.A.Nirmala,94446 55304,ethiraj_princy@yahoo.com
I00772,Adhiparasakthi Engineering College,,Melmaruvathur,"Kancheepuram District, ",Tamilnadu,603319,Dr.S.Jayashri,97909 33531,principal@adhiparasakthi.in / sree_j2002@yahoo.com
I00776,Institute of Management Research and Development,"Near Karwand Naka, Dist-Dhule, ",Shirpur,,Maharashtra,425405,Mrs.Vaishali B Patil,99232 99973,"director@rcpimrd.ac.in
rcpimrd@gmail.com, vaishali.imrd@gmail.com"
I00793,ShriRam College of Engineering and Management,"National Expressway, A.B.Road, ",Banmore,,Madhya Pradesh,476444,Dr.Anil Kishore Saxena ,94065 01497,anilkishoresaxena@gmail.com
I00802,Institute of Engineering and Technology,"North Extension, M.I.A,",Alwar,,Rajasthan,301030,Dr.Anil Kumar Sharma,96499 06037,dean@uttaranchaluniversity.ac.in
I00808,Acharya Institute of Technology,"Acharya Dr. Sarvepalli Radhakrishnan Road,Acharya PO, ",Bangalore,,Karnataka,560090,Dr.H.D.Maheshappa,94831 78899,"principalait@acharya.ac.in, maheshappahd@acharya.ac.in"
I00810,Nalla Malla Reddy Engineering College,"7-01, Divya Nagar,Kachvanisingaram, Ghatkesar, ",Ranga Reddy District,,Telangana,501301,Dr.Divya Nalla,93921 84185,principal@nmrec.edu.in
I00820,A.T.S.S. Institute of Industrial and Computer Management and Research,"(A T S S's I I C M R)Plot No.HS 2, Sector 27A, Near Sant Tukaram Garden, Pradhikaran, Nigadi,",Pune,,Maharashtra,411044,Dr.Deepali Sunil Sawai,99210 00870,deepalisawai@yahoo.com
I00821,Channabasaveshwara Institute of Technology,"NH-206, B.H. Road, Gubbi, ",Tumkur, ,Karnataka,572216,Dr.D.S.Suresh,96865 50488,director@cittumkur.org
I00834,Avinashilingam Institute for Home Science and Higher Education for Women,"Faculty of EngineeringAyya Avinashilingam Nagar,Varapalayam, Thadagam Post,",Coimbatore,,Tamilnadu,641043,Dr.Gowri Ramkrishnan,93611 60344,registrar@aviunty.ac.in
I00842,Yeshwantrao Chavan College of Engineering,"Wanadongri Hingna Road, ",Nagpur,,Maharashtra,441110,Dr.Uday Prakashchandra ,97649 96477,udaywaghe@yahoo.com
I00852,M.Kumarasamy College of Engineering,"Thalavapalayam, ",Karur,,Tamilnadu,639113,Dr.V.Kavitha,98652 30477,principal@mkce.ac.in
I00859,Dr.Sivanthi Aditanar College of Engineering,,Tiruchendur,,Tamilnadu,628215,Dr.G.Wiselin Jiji,94430 87064,jijivevin@yahoo.co.in
I00860,Silicon Institute of Technology,"Silicon Hills, Patia, ",Bhubaneswar,,Odisha,751024,Nitai Gaur Dhall,94370 24448,nitai@silicon.ac.in
I00863,MET's Institute of Engineering,"Bhujbal Knowledge City Adgaon,",Nashik,,Maharashtra,422003,Dr.V.P.Wani,92726 70533,vpwani@rediffmail.com
I00878,"C-DAC, Noida","B-30, Sector-62, Institution Area,",Noida,,Uttar Pradesh,201307,,,
I00880,Vidya Academy of Science and Technology,"Kurumal,Thalakottukara P.O., Near Kaiparambu, ",Thrissur,,Kerala,680501,Dr.Sudha Balagopalan,93491 96440,principal@vidyaacademy.ac.in
I00882,GMR Institute of Technology,"GMR Nagar, Rajam",Srikakulam,"Srikakulam (Dist), ",Andhra Pradesh,532127,Dr.C.L.V.R.S.V.Prasad,94414 06014,prasad.clvrsv@gmrgroup.in
I00911,KDK College of Engineering,"Opp. Nandanvan Telephone Exchange Great Nag Road, Nandanvan ",Nagpur,,Maharashtra,440009,,,
I00914,Sona College of Technology,"Thiagarajar Polytechnic College Road, ",Salem,,Tamilnadu,636005,Dr.M.Usha,94433 66495,"ushaanu@yahoo.com, principal@sonatech.ac.in"
I00915,MKSSS's Cummins College of Engineering for Women,"Karvenagar, ",Pune, ,Maharashtra,411052,Dr.Madhuri Bhushan Khambete,,principal@cumminscollege.org
I00922,G.H. Raisoni Institute of Engineering and Technology,,Pune,,Maharashtra,412207,Dr.Ravindra D. Kharadkar,96577 24102,r.kharadkar@raisoni.net
I00923,Oxford Engineering College,"Pirattiyur, Dheeran Nagar, ",Tiruchirapalli,,Tamilnadu,620009,Dr.T.N.Prabakar,94432 19566,tnprabhakar@gmail.com
I00926,Karpaga Vinayaga College of Engineering and Technology,"G.S.T. Road, Chinna Kolambakkam, Palayanoor (Post) Madhuranthagam (TK), ",Kanchipuram,,Tamilnadu,603308,Dr.S.M.Kannan,,"principal@kvcet.in, kvcet@live.com"
I00931,Velammal College of Engineering and Technology,,Madurai,,Tamilnadu,625009,Dr.N.Suresh Kumar,94438 67923,principal@vcet.ac.in
I00936,Ayya Nadar Janaki Ammal College,,Sivakasi,,Tamilnadu,626124,Dr.V.Pandiyarajan,94867 20726,principal@anjaconline.org
I00943,Kongu Engineering College,"Perundurai, ",Erode,,Tamilnadu,638052,Dr.S.Kuppuswami,99428 20583,principal@kongu.ac.in
I00946,RNS Institute of Technology,"Channasandra, Uttarahalli Road, Subramanyapura Post, ",Bangalore,,Karnataka,560098,Dr.M.K.Venkatesha ,98808 67337,"principal_rnsit@yahoo.com, mkvenkatesha@gmail.com"
I00951,Toc H Institute of Science and Technology,"Arakkunnam Post, ",Ernakulam,,Kerala,682314,Dr.D.Vincent H Wilson,99465 09900,principal@tistcochin.edu.in
I00953,Viswajyothi College of Engineering and Technology,"Vazhakulam Post, Muvattupuzha, ",Ernakulam, ,Kerala,686670,Dr.Francis C Peter,82817 12211,principal@vjcet.org
I00954,Vel Tech High Tech Dr.Rangarajan Dr.Sakunthala Engineering College,"#60, Avadi-VelTech Road, ",Chennai,,Tamilnadu,600062,Dr.K.Murugesan,97890 37651,vhprincipal@velhightech.com
I00955,Jyothi Engineering College,"Jyothi Hiils, Panjal Road, Vettikkattiri P.O. Cheruthuruthy, ",Thrissur,,Kerala,679531,Dr.K.K.Babu,04884-308512,principal@jecc.ac.in
I00956,Rajalakshmi Institute of Technology,"Kuthambakkam Post, ",Chennai,,Tamilnadu,600124,Dr.M.Velan,94453 27493,principal@ritchennai.edu.in
I00958,Shridevi Institute of Engineering and Technology,"Maralena Halli, Sira Road, ",Tumkur,,Karnataka,572106,Dr.M.N.Eshwarappa,96861 14899,jenutc@rediffmail.com
I00959,Sri Guru Teg Bahadur Khalsa College,"(SGTB Khalsa)  Anandpur Sahib, ",Ropar,,Punjab,140118,Dr.Kashmir Singh,99157 12370,"kashmir_tera@gmail.com, sgtb321@gmail.com"
I00960,M.B.E. Society's College of Engineering,"Ambajogai,  ",Mumbai,,Maharashtra,431517,B I Khadakbhavi,,
I00971,Padmashri Dr. Vithalrao Vikhe Patil College of Engineering,"Vilad Ghat, Post:M.I.D.C ",Ahmednagar,,Maharashtra,414111,Dr.H.N.Kudal,85549 90210,prin_coca@yahoo.com
I00972,Kamala Institute of Technology and Science,"Singapur, Karimnagar Dist,",Huzurabad,,Telangana,505468,Dr.K.Shanker,90001 81003,"kandukurishanker@yahoo.com, kitssingapuram@yahoo.co.in"
I00975,Rajagiri School of Engineering and Technology,"Rajagiri Valley, Kakkanad,",Cochin, ,Kerala,682039,Dr.A.Unnikrishnan,94464 16148,principal@rajagiritech.ac.in
I00978,Nehru Institute of Technology,"Jawahar Gardens, Kaliapuram, Thirumalampalayam Post, ",Coimbatore, ,Tamilnadu,641105,Dr.J.Brema,90039 36801,principalnit1@gmail.com
I00985,Jerusalem College of Engineering,"Velachery Main Road, Narayanapuram, Pallikkaranai, ",Chennai,,Tamilnadu,600100,Dr.M.Ramalingam,94440 21656,jceprincipal2013@gmail.com
I00986,Patkar Varde College,"Swami Vivekanand Road, Goregaon West, ",Mumbai,,Maharashtra,400062,Dr.Mala Kharkar,98694 87770,mala_kharkar@yahoo.com
I00987,Rural Engineering College,Hulkoti-582205. ,Gadag,,Karnataka,582116,,,
I00995,Integral University,"Dasauli Post, Basha Kursi Road,",Lucknow,,Uttar Pradesh,226026,Irfan Ali Khan,0522-2890812,info@integraluniversity.ac.in
I00997,Thadomal Shahani Engineering College,"P.G.Kher Marg, 32ND Road,T.P.S. III Bandra (West)",Mumbai,,Maharashtra,400050,Dr.G.T.Thampi,95946 96888,gtthampi@yahoo.com
I00998,Mepco Schlenk Engineering College,"Sivakasi, Mepco Engg. College (P.O), ",Virudhunagar Dist,,Tamilnadu,626005,Dr.S.Arivazhagan,94427 75282,sarivu@mepcoeng.ac.in
I01001,National Engineering College,"K.R.Nagar, ",Kovilpatti,"Thoothukudi Dist,",Tamilnadu,628503,Dr.S.Shanmugavel,,principal@nec.du.in
I01002,Anil Neerukonda Institute of Technology and Science,sBhimilli Mandal Sangivalasa,Visakhapatnam,"Visakhapatnam District,",Andhra Pradesh,531162,Dr.VSRK Prasad,94401 120154,principal@anits.edu.in
I01003,Balaji Institute of Technology and Science,"Laknepally, Narsampet, ",Warangal,,Telangana,506331,Dr. P.Nageswara Reddy ,08718232641,bitswagl_nspt@rediffmail.com
I01005,Sarvajanik College of Engineering and Technology,"Dr. R.K. Desai Marg, Opp. Mission Hospital,  Athwa Lines, ",Surat,,Gujarat,395001,Dr.Vaishali Mungurwadi,98255 64126,bintu.kadhiwala@scet.ac.in
I01008,IES Group of Institutions(Infotech Education Society),"IES Campus, Kalkheda, Ratibad Main Road, ",Bhopal,,Madhya Pradesh,462044,Dr.S.Kumar,92292 51477,iesbpl@gmail.com
I01010,I.T.S. Engineering College,"#46, Knowledge Park-III, ",Greater Noida,,Uttar Pradesh,201308,Dr.Vineet Kansal,97119 94485,dir.engg@its.edu.in
I01011,D.E.S's College of Engineering and Technology,"(Dhamangaon Education Society's)Knowledge Hub, Anjansingi Road, Dhamangaon Rly Dist, ",Amravati, ,Maharashtra,444709,Dr.L.P.Dhamande,98222 23246,lpdhamande@rediffmail.com
I01012,Coimbatore Institute of Management and Technology,"Vellimalaipattinam, Narasipuram (Post), Thondamuthur (Via), ",Coimbatore,,Tamilnadu,641109,Dr.K.Ramamurthi,99449 76304,ramamurthiksn@yahoo.com
I01016,Velammal Institute of Technology,,Chennai,"Thiruvallur District, ",Tamilnadu,601204,Dr.T.Chandrashekar,96771 27076 ,chandrashekarthi@yahoo.com
I01018,M.E.S. College of Engineering,,Kuttippuram,,Kerala,679573,Dr. V.H. Abdul Salam,,
I01019,Aditya Institute of Technology and Management,"Kottru, Chakkapalli Post, Tekkali,",Srikakulam,,Andhra Pradesh,532201,Prof.V.V.Nageswara Rao,94401 95534,vvnrao64@gmail.com
I01020,P.A. College of Engineering and Technology,"Palladam Road,  ",Pollachi,"Coimbatore District,",Tamilnadu,642002,Dr.T.Manigandan,98658 99226,manigandan_t@yahoo.com
I01023,St. Ann's College of Engineering and Tech,"Nayunipalli, Vetapalem ",Chirala,,Andhra Pradesh,523187,Dr. Chillara Subba Rao,,
I01026,Aarupadai Veedu Institute of Technology,"Vinayaka Nagar, Old Mahabalipuram Road, Paiyanoor",Chennai,"Kancheepuram District, ",Tamilnadu,603104,Dr.Vemuri Lakshminarayana,75500 13555,principal@avit.ac.in
I01027,Nehru Arts and Science College,"Nehru Gardens, Thirumalayampalayam Post, ",Coimbatore,,Tamilnadu,641105,Dr.B.Anirudhan,90039 36356,nascprincipal@gmail.com
I01028,Gnanamani College of Technology,"NH-7, A.K.Samuthiram, Pachal Post,",Namakkal,,Tamilnadu,637018,Dr.S.Chandrasekar,99444 92300,principal604@gmail.com
I01035,Prathyusha Engineering College,,Tiruvallur,,Tamilnadu,602025,Dr.P.M.Beulah Devamalar,90470 90885,principal@prathyusha.edu.in
I01038,Madhira Institute of Technology and Sciences,"Madhira Nagar, Paleannaram ('v), Chilukur (M), Kodad, ",Nalgonda,,Andhra Pradesh,508238,Dr. Madhusudanannairm,,
I01041,S.A. Engineering College,"Poonamallee-Avadi Road,Veeraraghavapuram,Thiruverkadu Post,",Chennai,,Tamilnadu,600077,Dr.P.K.Nagarajan ,044-26801999,principal@saec.ac.in
I01044,SNS College of Technology,"Sathy Main Road,Vazhiyampalayam,",Coimbatore,,Tamilnadu,641035,Dr.S.Chenthur Pandian,94437 91005,principal@snsct.org
I01047,Shaheed udham Singh Coll of EnggandTech,"Tangori, P.O. Motemajra (Via Manauli) ",Mohali,,Punjab,140306,Dr. D S Hira,,principal@suscet.ac.in
I01048,Jawaharlal Darda Institute of Engineering and Technology,"(Shri Jawaharlal Darda Education Society)M.I.D.C., Lohara, ",Yavatmal,,Maharashtra,445001,Dr.Avinash W. Kolhatkar,90110 73105,"jdiet_yml@sancharnet.in, prin_jdiet@rediffmail.com"
I01052,"Thakur Institute of Management Studies, Career Development and Research","Shyamnarayan Thakur Marg, Thakur Village, Kandivali (East), ",Mumbai,,Maharashtra,400101,Dr.Vinita Gaikwad,99302 35113,vinita.gaikwad@thakureducation.org
I01057,St.Peter's Engg College,"Maisammaguda, Opp. Andhra Pradesh. forest Academy , Dhoolapally (P.O), Medchal (M), R.R. Dist",Hyderabad,,Andhra Pradesh,500014,Dr. K.V.J. Rao  ,,kvjayarao@rediffmail.com
I01060,Sri Vasavi Engineering College,"Pedatadepalli, West Godavari District,",Tadepalligudem,,Andhra Pradesh,534101,Dr.B.Brahmaiah,99492 48607,principal@srivasaviengg.ac.in
I01073,Dr.M.G.R. Educational and Research Institute University,,Chennai,,Tamilnadu,600095,Prof.Dr.C.B.Palanivelu,98400 56785,registrar@drmgrdu.ac.in
I01075,Krishna Engineering College,"#95,Loni Road, Near Hindon Air force Station,   Mohan Nagar,",Ghaziabad,,Uttar Pradesh,201007,Dr.Narendra Kumar,99585 84115,director@krishnacollege.ac.in
I01076,Graphic Era University,"#566/6, Bell Road, Clement Town,",Dehradun,,Uttarakhand,248002,Dr.Kamal Ghanshala,74170 77752,president.office@geu.ac.in
I01077,Vallurupalli Nageshwara Rao Vignan Jyothi Institute of Engineering and Technology,"Vignana Jyothi Nagar, Bachupally, (via), Kukatpally, ",Hyderabad,,Telangana,500072,C.Karanmai,,ckiranmai@vnrvjiet.in
I01084,Kalasalingam University,"Anand Nagar, Krishnan Koil",Virudhunagar Dist,"Srivilliputtur (Via), Virudhunagar Dist,",Tamilnadu,626126,Dr.S.Saravana Sankar,99659 17109,kluve@klu.ac.in
I01087,National Institute of Technology,,Bhopal,,Madhya Pradesh,462003,Dr. K.S. Pandey,,
I01093,Government College of Engineering,"NH 7, Banglore Highways,",Salem,,Tamilnadu,636011,Dr.R.S.D.Wahidabanu,94430 46330,drwahidabanu@gmail.com
I01096,Birla Institute of Technology,,Mesra,"Ranchi, ",Jharkhand,835215,Dr. S.k. Mukherjee,020-64109772,
I01097,Sipna College of Engineering and Technology,"Sipna Campus, Infront of Nemani Godown, Badnera Road, ",Amravati,,Maharashtra,444701,Dr.Siddharth A Ladhake,,principal@sipnaengg.ac.in
I01099,Leelaben Dashrath Bhai RamdasPatel Instit of Tech and Resarch,"Nr. KH.5, Circle, Sector-15, ",Gandhinagar,,Gujarat,382015,H.N. Prajapati  ,,
I01103,Kolhapur Institute of Technology College of Engineering,"(KIT's College of Engineering)Gokul Shirgaon, ",Kolhapur,,Maharashtra,416234,Dr.V.V.Karjinni,94227 47499,karjinni@yahoo.com
I01106,Jawaharlal Nehru Technological University,,Hyderabad,,Telangana,500085,N V Ramana Rao,4032408718,jntuquest09@gmail.com
I01107,ACE Engineering College,"Ankushapur (V), Ghatkesar(M), Ranga Reddy District,",Hyderabad,,Telangana,501301,Dr.V.Buchaiah,94904 91200,"principal@aceec.ac.in, aceenggcollege@gmail.com"
I01117,Shri Datta Meghe Polytechnic,"#248/3 Hingna Road, Wanadongri, ",Nagpur,,Maharashtra,441110,Dr.Manali Kshirsagar,97649 96481,manali_kshirsagar@yahoo.com
I01119,Sakthi mariamman Engg College,"Narayanasamy Nagar, 55, Thandalam, ",Chennai,,Tamilnadu,602105,K Vijayabhaskarraju,,smengc@vsnl.com
I01125,Manipur Institute of Technology,"Takyelpat, ",Imphal,,Manipur,795004,Dr. Th. Kulachandra Singh,,
I01127,Mahendra College of Engineering,,Salem,,Tamilnadu,636106,Dr.R.Asokan,,
I01128,JSPM'S Rajarshi Shahu College of Engineering,,Pune,,Maharashtra,411033,Dr.Dattatray Shankar Bormane ,98502 82286,"bdattatraya@yahoo.com, rscoe@jspm.edu.in"
I01130,G.Narayanamma Institute of Technology and Science,"GNITS, Shaikpet, ",Hyderabad,,Telangana,500008,Dr.K.Venu Gopal Rao,98490 25342,kvgrao1234@gmail.com
I01132,GITAM Institute of Technology,"GITAM UniversityRushikonda, ",Visakhapatnam,,Andhra Pradesh,530045,Prof.K.Lakshmi Prasad,98481 79211,principal_engineering@gitam.edu
I01135,Karunya University,"School of CST,Karunya Nagar, ",Coimbatore,,Tamilnadu,641114,Dr.C.Joseph Kennady,94878 46353,registrar@karunya.edu
I01136,Chandubhai S. Patel Institute of Technology,"Charusat Campus, Changa,",Anand,,Gujarat,388421,Dr.Amit P. Ganatra,94263 50639,amitganatra.ce@charusat.ac.in
I01141,Padmashree Dr. D.Y. Patil Institute of MCA,"Sector-29, Near Akurdi Railway Station, Pradhikaran Akurdi, ",Pune,,Maharashtra,411044,Dr.K.Nirmala,98231 20225,ksita_nirmala@rediffmail.com
I01143,Padmabushan Vasantdada Patil Pratistan Engineering College,"off Eastern Express Way Near Everard Nagar Sion-Chunabhatti, ",Mumbai,,Maharashtra,400022,,,
I01144,Thangal Kunju Musaliar College of Engineering,,Kollam,,Kerala,691005,Dr.S.Ayoob,98470 72024,principal@tkmce.ac.in
I01148,Sudharsan Engineering College,"Sathiyamangalam, ",Pudukkottai Dist,,Tamilnadu,622501,,,
I01152,Kshatriya Coll of Engg,"NH-16, ChepurArmoor,  ",Nizamabad,,Andhra Pradesh,503224,Prof M Venkateshwarlu,,prof_mv119@yahoo.com
I01153,Paavai College of Engineering,"Paavai Nagar, NH-7, Pachal, ",Namakkal,,Tamilnadu,637018,Dr.M.Devi,97153 66888,pceprincipal@paavai.edu.in
I01154,Bapurao Deshmukh College of Engineering,"Sevagram Dist, ",Wardha,,Maharashtra,442102,Dr.M.A.Gaikwad,98227 22881,gaikma@rediffmail.com
I01157,Sri Sai Ram Institute of Technology,"Sai Leo Nagar, West Tambaram, ",Chennai,,Tamilnadu,600044,Dr.K.Palani Kumar,96770 53338,principal@ssit.ac.in
I01159,Infant Jesus College of Engineering,"Kamarajar Nagar, Keelavallanadu, Thoothukudi Dist. ",Tuticorin,,Tamilnadu,628851,,,
I01161,S B S Group of Educational Institution,,Patti,,Punjab,628851,,,
I01162,Manakula Vinayagar Institute of Technology,"Kalitheerthal kuppam, ",Pondicherry,,Puducherry,605107,Dr.S.Malarkkan,94443 48554,malarkkan_s@yahoo.com
I01167,Christ College of Engineering and Technology,"Moolakulam, Pitchaveeranpet, Oulgaret Municipality,",Pondicherry,,Puducherry,605010,Dr.A.Ravi Chandran,97866 55848,ravichandranprof@yahoo.com
I01169,Bundelkhand Institute of Engineering and Technology,"On Kanpur Road, Near Kochhabhanwar, ",Jhansi,,Uttar Pradesh,284128,Prof. V.K. Bhatt,0510-2320349,
I01170,Sant Baba Bhag Singh Institute of Engineering and Technology,"Village:Khiala, P.O. Padhiana, ",Jalandhar,,Punjab,144030,Dr.Ved Raj Sharma,99140 11410,vc@sbbsuniversity.in
I01171,J.J.College of Engineering and Technology,"Ammapettai, Poolangulathupatti(Po), ",Tiruchirapalli,,Tamilnadu,620009,Dr.S.Sathiyamoorthy,94431 13476,principal@jjcet.ac.in
I01173,Sardar Patel Institute of Technology,"Bhavan's Campus, Munshi Nagar,andheri (West), ",Mumbai,,Maharashtra,400058,Dr.Prachi Gharpure,98201 22546,principal@spit.ac.in
I01175,Purushottam Institute of Engineering and Technology,"Purushottam Vihar, 10th KM, Highway 10, Mandiakudar, ",Rourkela,,Odisha,770034,Dr. U C Patra,,
I01177,Nitte Meenakshi Institute of Technology,"Govindapura, Gollahalli, P.B No:6429, Yelahanka,",Bangalore,,Karnataka,560064,,,
I01182,Vivekananda Institute of Tech and Science,"Bye Pass Road, Opp. Housing Board Colony, Bommakal, ",Karimnagar,,Andhra Pradesh,505001,Dr. Zafar Khan,,khanzj1@rediffmail.com
I01183,Mahatma Gandhi Mission's College of Engineering and Technology,"A-09, Sector 62, ",Noida,,Uttar Pradesh,201302,Mr. Sunit Wagh,,
I01184,B.N.M. Institute of Technology,"12th Main Road, Banashankari II Stage,",Bangalore,,Karnataka,560070,Dr.T.J.Ramamurthy ,99453 57134,bnmitdirector@gmail.com
I01185,Visvesvaraya National Institute of Technology,,Nagpur,,Maharashtra,440011,Dr. Sadanand Gokhale ,,cgkakde@cse.unit.ac.in
I01186,Kakatiya Institute of Technology and Science,"Post: Chinthagattu Camp (SRSP),Near Bheemaram, Yerragattu, Hasanparthy,",Warangal,,Telangana,506015,Dr.K.Ashoka Reddy,99592 04320,principal.kitswgl@gmail.com
I01187,K.K. Wagh Institute of Engineering Education and Research,"Hirabai Haridas Vidyanagari,Amrut Dham ,Panchavati,",Nashik,,Maharashtra,422003,Dr.Keshav Nilkanth Nandurkar,98816 99072,knn.prin@gmail.com / knnandurkar@kkwagh.edu.in
I01189,Saranathan College of Engineering,,Trichy,,Tamilnadu,620012,Dr.D.Valavan,84899 15201,principal@saranathan.ac.in
I01193,Royal College of Engineering and Technology,"Chiramanangad P.O., Akkikavu,",Thrissur,,Kerala,680604,Dr.Priestly Shan,85929 53757,principal.royalcet@gmail.com
I01194,Sri Shakthi Institute of Engineering and Technology,"Sri Shakthi Nagar, LandT By-Pass, Civilaerodrome, Venkittapuram Post,",Coimbatore,,Tamilnadu,641062,Dr.Sekar Saya Kannappan ,89400 04465,principal@siet.ac.in
I01196,Hindu College of Engineering,"Industrial Area, ",Sonepat,,Haryana,131001,Dr.Harvir Singh,72068 15333,drharvis@gmail.com
I01202,Mount Zion College of Engineering and Technology,"Pilivalam Post, Lena Vilakku, Thirumayam (TK), ",Pudukkottai,,Tamilnadu,622507,Dr.P.Balamurgan ,99655 20311,"principal@mzcet.in, principal@mountzion.ac.in"
I01203,Scope College of Engineering,"Scope Campus, NH-12, Hoshangabad Road,",Bhopal,,Madhya Pradesh,462047,Dr.D.S.Raghav,99815 04644,dsscope@gmail.com
I01204,Kathir College of Engineering,"“Wisdom Tree”, Avinashi Road,Neelambur, ",Coimbatore,,Tamilnadu,641062,Dr.P.Murthi,96009 15157,principal@kathir.ac.in
I01207,V.R.S College of Engineering and Technology,,Arasur,"Villupuram District,",Tamilnadu,607107,Dr.N.Anbazhaghan,94432 40278,vrscet@yahoo.com
I01208,AISSMS Institute of Information Technology,"Kennedy Road, Near RTO,",Pune, ,Maharashtra,411001,Dr.Pradeep B. Mane,94209 18444,pbmane6829@rediffmail.com
I01225,MGM's Jawaharlal Nehru Engineering College,"(Mahatma Gandhi Mission's)N-6, CIDCO, ",Aurangabad,,Maharashtra,431003,Dr.Sudhir D Deshmukh,96577 15341,principal@jnec.ac.in
I01229,Anand Institute of Information Science,"Shri Ramkrishna Seva Mandal, Opp. Town Hall, ",Anand,,Gujarat,388001,Dr.Chhaya N. Patel,98243 01957,chhayapatel@gmail.com
I01230,Nova College of Engineering and Technology,"Vegavaram, Jangareddigudem (M), ",W.G. Dist,,Andhra Pradesh,534447,M. Vijaya Nirmala,,
I01232,Saveetha School of Engineering,"Saveetha Nagar, Thandalam, ",Chennai,,Tamilnadu,602105,Dr.P.Shankar,98416 52346,principal.sse@saveetha.com
I01234,Pimpri Chinchwad College of Engineering,"Sector No-26, Pradhikaran, Nigdi, ",Pune,,Maharashtra,411044,Dr.A.M.Fulambarkar,98225 67832,pccoeadmin@gmail.com
I01235,Raj Kumar Goel Institute of Technology,"5KM Stone, (Opp.Jain Tube Co.Ltd),Delhi Meerut Road, ",Ghaziabad,,Uttar Pradesh,201003,Dr.D.R.Somashekar,95829 00185,rkgitdir@rkgit.edu.in
I01242,M.A.M. College of Engineering and Technology,,Trichy, ,Tamilnadu,621105,Dr.K.Sridhar,87540 49223,principal@mamcet.com
I01245,Pavendar Bharathidasan College of Engineering and Technology,"Thanjai Natarajan Nagar, Mathur, Pudukkottai Main Road,",Trichirappalli,,Tamilnadu,620024,Dr.Murugu Mohan Kumar ,94875 34674,kmohan2001@hotmail.com
I01248,Sir M. Visvesvaraya Institute of Technology,"Krishnadevarayanagar, Hunasamaranahalli, International Airport Road, ",Bangalore,,Karnataka,562157,Dr.M.S.Indira,,indirams@yahoo.com
I01253,Guru Nanak Institute of Technology,"Campus:Ibrahimpatnam, ",Ranga Reddy Dist,,Andhra Pradesh,501506,C. Venkataramna Reddy,,
I01254,Modern Institute of Technology and Research Centre,,Alwar,,Rajasthan,,Ravindra Gupta,,
I01260,Sri Sivasubramaniya Nadar College of Engineering,"Rajiv Gandhi Salai (OMR),Kalavakkam",Chennai,,Tamilnadu,603110,Dr.S.Salivahanan,94441 89433,salivahanans@ssn.edu.in
I01266,Chameli Devi School of Engineering,"Gram Umarikheda, Khandwa Road, ",Indore,,Madhya Pradesh,452020,Dr.CNS.Murthy,88898 12233,deanse@cdgi.edu.in
I01267,SRR Engineering College,"Old Mamallapuram Road, IT Highway, Padur,",Chennai,,Tamilnadu,603103,Dr.T.Sasikala,94449 63625,sasi_madgu2k2@yahoo.co.in
I01270,Jeppiaar Engineering College,"Jeppiaar Nagar, Rajiv Gandhi Salai,Semmenchery, ",Chennai,,Tamilnadu,600119,Dr.J.Venu Gopala Krishnan,87544 15634,principal@jeppiaarcollege.org
I01272,Sagar Institute of Research and Technology,"Kailod Kartal, Bypass Road, ",Indore,,Madhya Pradesh,452020,Dr.Sudhir Agarwal,95847 03000,sudhiragrawal@trubainstitute.ac.in
I01273,Muthayammal Engineering College,,Rasipuram,"Namakkal District,",Tamilnadu,637408,Dr.S.Nirmala,87540 08537,nirmala.ramkamal@gmail.com
I01274,SIES Graduate School of Technology,"Sri Chandrasekarendra,Saraswathy Vidyapuram, Plot 1-E, Sector-V, Nerul, ",Navi Mumbai, ,Maharashtra,400706,Dr.Alka Anil Mahajan ,98201 89008,principalgst@sies.edu.in
I01275,Anurag Group of Institutions,"Venkatapur(V), Ghatkesar(M), Ranga Reddy District,",Hyderabad,,Telangana,501301,Prof.M.Muthu Reddy ,99633 81014,principal_cvsr@yahoo.com
I01276,R.R. Institute of Technology,"Raja Reddy Layout, Near Chikkabanavara Railway Station, Chikkabanavara, Hesaraghatta Road,",Bangalore,,Karnataka,560090,Dr.M.S.Bhagyashekar,7899 43333,rritprincipal@gmail.com
I01277,Paavai Engineering College,"Paavai Nagar, NH-7, Pachal, ",Namakkal,,Tamilnadu,637018,Dr.M.Prem Kumar,99654 66888,pecprincipal@paavai.edu.in
I01278,CBS College of Engg and Management,"Anjangaon Bari Road, Badnera ",Amravati,,Maharashtra,444727,Dr. G.R. Shekapure,,
I01285,Dharmsinh Desai University,"College Road, ",Nadiad,,Gujarat,387001,Prof.D.G.Panchal ,95868 76500,deantechno@ddu.ac.in
I01287,Saveetha Engineering College,"Saveetha Nagar, Thandalam, ",Chennai,,Tamilnadu,602105,Dr.E.Ganesh,98417 25345,principal@saveetha.ac.in
I01290,Saroj Mohan Institute of Technology,"VillBandagachi P.O. Guptipara, Dist-",Hoogly,,West Bengal,712512,Dr.Bidhan Ghosh,98369 81030,bidhanghosh08@gmail.com
I01300,Dronacharya College of Engineering,"Khentawas, Farrukh Nagar, ",Gurgaon,,Haryana,123506,Dr.Karamjit Singh,99103 80103,principal@ggnindia.dronacharya.info
I01305,Bharati Vidyapeeth Deemed University Institute of Management and Research,"A-4, Paschim Vihar, New Rohtak Road, ",New Delhi,,New Delhi,110063,Dr.Nitin Nayak,,drssvernekar@yahoo.co.in
I01306,Vels University,"Velan Nagar, P.V. Vaithiyalingam Road, Pallavaram, ",Chennai,,Tamilnadu,600117,Dr.P.Mayilvahanan,98407 47925,mayilkadir@yahoo.com
I01307,Rajasthan College of Engineering for Women,"Bhankrota, Ajmer Road, ",Jaipur,,Rajasthan,302026,Dr.Ashok Kumar,90010 10888,rcewjaipur@rediffmail.com
I01310,University of Petroleum and Energy Studies,"Energy Acres, P.O. Bidholi, ViaPrem Nagar, ",Dehradun,,Uttarakhand,248007,Dr.Utpal Kumar Ghosh,98717 97740,pvc@ddn.upes.ac.in
I01321,Raghu Engineering College,"Dakamarri Village, Bheemunipatnam Mandal, ",Visakhapatnam,,Andhra Pradesh,531162,Dr.R.Kameswara Rao,99490 95892,raghuengg98@yahoo.co.in
I01322,Sri Sai Ram Engineering College,"Sai Leo Nagar, West Tambaram, ",Chennai,,Tamilnadu,600044,"Dr.C.V.Jayakumar
",96770 65557,principal@sairam.edu.in
I01334,Kamaraj College of Engineering and Technology,"S.P.G.Chidambara NadarC.Nagammal Campus, S.P.G.C.Nagar, Post Box No:12, ",Virudhunagar,,Tamilnadu,626001,Dr.Anant Achary,94868 23312,principal@kamarajengg.edu.in
I01336,Marwadi Education Foundation's Group of Institution,,Rajkot,,Gujarat,360003,Prof.V.R.Rathod,94269 18396,profvrr@yahoo.com
I01340,Dr.J.J. Magdum College of Engineering,"Gat No:314/330, Shirol-Wadi Road,Agarbhag,",Jaysingpur,,Maharashtra,416101,Prof.D.A.Nikam,97639 98242,d_a_kale@yahoo.co.in
I01342,Santhiram Engineering College,"NH-18, ",Nandyal,,Andhra Pradesh,518501,Dr.M.V.Subramanyam,98663 08475,"principal@srecnandyal.com, principal.srec.x5@gmail.com"
I01343,B.H. Gardi College of Engineering and Technology,"Opp.Shivshakti Hotel,Kalawad Road,Village Anandpar, ",Rajkot,,Gujarat,361162,Dr.Siddharth B Jadeja,98791 32280,sbjadeja@gardvidyapith.ac.in
I01344,Institute of Information Technology and Management,"D-29, Institutional Area,Janakpuri, ",New Delhi,,New Delhi,110058,Dr.Rachita Rana,98911 13744,director@iitmipu.ac.in
I01356,K.L.E. Institute of Technology,"Opposite to Airport, Gokul, ",Hubli,,Karnataka,580030,Dr.Basavaraj S Anami ,98808 02647,anami_basu@hotmail.com
I01358,Godavari Institute of Engineering and Technology,"NH-5, Chaitanya Knowledge City,Rajanagaram, ",Rajahmundry,,Andhra Pradesh,533296,Dr.D.V.Rama Murthy,96760 15566,principal@giet.ac.in
I01369,K. Ramakrishnan College of Engineering,"Samayapuram,Trichy",Tiruchirapalli,,Tamilnadu,621112,Dr.D.Srinivasan,98424 72577,principalkrce@gmail.com
I01374,Sinhgad Institute of Technology and Science,,Pune,,Maharashtra,411041,Dr.S.N.Mali ,80070 22300,snmali@rediffmail.com
I01375,Karpagam University,"Pallachi Main Road,Eachanari Post,",Coimbatore,,Tamilnadu,641021,Dr.S.Subramanian,,vc@karpagam.ac.in
I01376,Dadi Institute of Engineering and Technology,"National Highway -5,  Gavarapalem, ",Anakapalli,,Andhra Pradesh,531002,Dadi Rathnakar,,secretary@dietakp.com
I01378,Swarnandhra College of Engineering and Technology,"Seetharampuram, ",Narsapur,"West Godavari District,",Andhra Pradesh,534280,Dr.J.Anand Chandulal,98481 41652,principal@swarnandhra.ac.in
I01379,Tata Institute of Social Sciences,"PB No:8313, Deonar,",Mumbai,,Maharashtra,400088,Prof.Parasuraman,,sparasuraman@hotmail.com
I01380,PSG College of Techonolgy,"Peelamedu, ",Coimbatore,,Tamilnadu,641004,Dr.R.Rudramoorthy,99524 27224,principal@psgtech.edu
I01381,Maharashtra Institute of TechnologyMIT,"S.No:124, Ex-Servicemen Colony, Paud Road Kothrud,  ",Pune,,Maharashtra,411038,Dr.Lalit K Kshirsagar,,principal@mitpune.edu.in
I01383,G.H. Raisoni Institute of Engineering and Management,"Gat No:57,Shirsoli Road, ",Jalgaon,,Maharashtra,425002,Dr.Prabhakar Bhat,98810 15444,"pbhat@raisoni.com, Prabhakar.bhat@raisoni.net"
I01385,G.Pullaiah College of Engineering and Technology,"Nadikotkur Road, Pasupula Village,",Kurnool, ,Andhra Pradesh,518002,Dr.P.Nageswara Rao,99088 43163,principal@gpcet.ac.in
I01386,Sri Prakash College of Technology,"D.B.V.Raju Township, Diwancheruvu, ",Rajahmundry,,Andhra Pradesh,533296,Mr.Ramachandra Rao Alluri,,sriprakash1977@gmail.com
I01394,Panimalar Institute of Technology,"#391,Bangalore Trunk Road,Varadharajapuram,Nazarethpet, Poonamallee,",Chennai,,Tamilnadu,600123,Dr.T.Jayanthy,91761 76943,jayanthymd@rediffmail.com
I01402,Rukmini Devi institute of Advanced Strudies,"2A and 2B, Madhuban chowk, Outer ring road, Phase- 1, Rohini, ",Delhi,,Delhi,110085,Col(RETD) Mahander Singh ,96508 71981,admin@rdias.ac.in
I01404,Aishwarya Institute of Management and Information Technology,"(Aishwarya College)Adarsh Nagar, University Road,",Udaipur,,Rajasthan,313001,Dr.Archana Golwalkar,97994 96949,director@aimudr.org
I01405,Veermata Jijabai Technological Institute,"Department of Computer Technology,Vjti, Matunga,",Mumbai,,Maharashtra,400019,Prof.Varshapriya Jyotinagar Nagaraja ,98196 90614,varshapriyajn@vjti.org.in
I01408,DIT University,"Mussourie Diversion Road,Makkawala, ",Dehradun,,Uttarakhand,248009,Dr.Krishna Kumar,99271 44300,director@ditddun.org
I01412,K L University,"(Koneru Lakshmaiah Education Foundation)Green Fields, Tadepalli (M), Guntur Dist,",Vaddeswaram,,Andhra Pradesh,522502,Dr.L.S.S.Reddy,91778 08050,drlssreddy@kluniversity.in
I01415,Ramappa Engineering College,"Shyampetjagir, Hunter Road, ",Warangal,,Andhra Pradesh,506001,Dr.V.Janaki ,98856 92640,janakicse@yahoo.com
I01416,Arya College of Engineeing and Information Technology,"SP-40, RIICO Industrial Area, Kukas, ",Jaipur,,Rajasthan,302028,Prof.Dhananjay Gupta,93141 41910,principal@aryacollege.org
I01419,Rajarambapu Institute of Technology,"Rajaramnagar, Dist.Sangli,",Islampur,,Maharashtra,415414,Dr.Mrs.S.S.Kulkarni,99707 00701,sushma.kulkarni@ritindia.edu
I01420,Dr.N.G.P. Institute of Technology,"Dr.N.G.P. Nagar, Kalappatti Road, ",Coimbatore,,Tamilnadu,641048,Dr.K.Porkumaran,98941 01804,principal@drngpit.ac.in
I01429,Sriram Engineering College,"Perumalpattu, Veppampattu R.S,",Thiruvallur Dist,,Tamilnadu,602024,Dr.G.Nalankilli,99429 21948,principalsrec11@gmail.com
I01432,Terna Engineering College,"Plot No:12, Sector-22, Phase-IIOpp. Railway Station, Nerul-West,",Navi Mumbai,,Maharashtra,400706,Dr.Deven Shah,90297 26083,principal@terna.org
I01433,Institute of Engineering and Technology (Devi Ahilya Vishwavidyalaya),"Davv Khandwa Road,",Indore,,Madhya Pradesh,452017,Dr.Sanjiv Tokekar ,94253 22306,sanjivtokekar@yahoo.com
I01434,Kanpur Institute of Technology,"A-1, UPSIDC Industrial Area, Rooma, ",Kanpur,,Uttar Pradesh,208001,Dr.Brajesh Varshney ,93072 04448,bv@kit.ac.in
I01437,D.L Patel Institute of Management and Technology,"Vidhyanagari Campus, Motipura Bypass Road, ",Himatnagar,,Gujarat,383001,Prof.Sudhirkumar J Patel,94277 45635,sudhirkumar.patel@gmail.com
I01438,Sanghvi Institute of Management and Science,"Behind Indian Institute of Management,Pigdamber, Pithampur Bypass Road, IIM, Rau, ",Indore,,Madhya Pradesh,453331,Prof.Aaquil B.Bunglowala,94254 79258,aaquil.bunglowala@sims-indore.com
I01441,Jagan Institute of Management Studies,"3, Institutional Area, Sector-5, Rohini, ",Delhi,,Delhi,110085,Dr.V.B.Aggarwal,98100 23212,vbaggarwa@jimsindia.org
I01446,Avanthi Institute of Enginnering and Technology,"Tamaram, Makavarapalem,Naripatnam Revenue Division, ",Visakhapatnam,,Andhra Pradesh,531113,Prof.C.P.V.N.J. Mohan Rao,98491 47304,"principal_aiet@yahoo.com, mohanrao_c@yahoo.com"
I01447,ABES Engineering College,"19Km Stone, Delhi-Hapur Bypass Road,NH-24, Vijay Nagar, ",Ghaziabad,,Uttar Pradesh,201009,Dr.Surendra Kumar,99998 89341,director@abec.ac.in
I01448,Vidya Pratishthan's Kamalnayan Bajaj Institute of Engineering and Technology,"Vidyanagari, Bhigwan Road,Baramati, Dist ",Pune,,Maharashtra,413133,Prof.Vikas U. Deshmukh,98814 48595,principal@vpcoe.org
I01449,Symbiosis Institute of Technology,"Symbiosis Knowledge Village,Gram: Lavale, Tal: Mulshi, ",Pune,,Maharashtra,412115,Dr.Tejinder Paul Singh ,,director@sitpune.edu.in
I01450,J.B Institute of Engineering and Technology,"Yenkapally Amdapur X Road, Moinabad, ",Rangareddy,,Andhra Pradesh,500075,Dr.Lvar Sarma,80088 84683,principal@jbiet.edu.in
I01454,Nehru College of Management,"Nehru Gardens, Thirumalayampalayam(Post), ",Coimbatore,,Tamilnadu,641105,Dr.S.Franklin John,98946 22327,ncmprincipal@nehrucolleges.com
I01456,Baba Banda Singh Bahadur Engineering College,"Chandigarh Road, Fatehgarh, ",Sahib, ,Punjab,140407,Dr.Gurcharan Singh Lamba,98142 21213,principal@bbsbec.ac.in
I01457,Priyadarshini Institute of Engineering and Technology,"Mouza Shivangaon Khasara #1/1A, 1909/12C,Near CRPF Campus, Hingna Road,",Nagpur,,Maharashtra,440019,Dr.Vivek M. Nanoti,98222 33286,viveknanoti@gmail.com
I01460,Lakshmi Narain College of Technology,"Village Bhawrasla, Sanwer Road, Rewti Range, ",Indore,,Madhya Pradesh,453331,Dr.D.Mitra,73893 56666,dmitra2k@yahoo.com
I01462,V.E.S. Polytechnic,"Sindhi Society, Chembur, ",Mumbai,,Maharashtra,400071,Dr.Vikrant B. Joshi,98203 95101,"vikrantbjoshi@rediffmail.com, vikrant.joshi@ves.ac.in"
I01465,Shri Ram Murti Smarak College of Engineering and Technology,"SRMSCET,Ram Murti Puram, 13Km, Mainital Road, ",Bereilly,,Uttar Pradesh,243202,Subhash Mehra,,
I01468,Lendi Institute of Engineering and Technology,"Jonnada (V), Denkada (M), NH-43, ",Vizianagaram,,Andhra Pradesh,535005,Dr.V. V. Rama Reddy ,94903 04747,siri_venkat@rediffmail.com
I01473,Sphoorthy Engineering College,"Nadargul (Village), Sagar Road,Near Vanasthalipuram, Saroornagar (Mandal), R.R.Dist,",Hyderabad,,Telangana,501510,Dr.Shashidhar K. Kudari,93921 18384,deepthi.janagama@gmail.com
I01475,Acropolis Technical Campus,"Village Tillore, Near Rala Mandal,",Indore,,Madhya Pradesh,452020,Dr.Shashi Chandra Sharma,98260 78714,sharmacsharma@gmail.com
I01480,Geethanjali College of Engineering and Technology,"Cheeryal(V), Keesara(M), Medchal District",Ranga Reddy District,,Telangana,501301,Dr.Udaya Kumar Susarla,98663 08257,info@gcet.edu.in
I01481,Veer Narmad South Gujarat University,"M.Sc. (Information Technology) Programme University Campus, Udhna-Magdalla Road,",Surat,,Gujarat,395007,Dr.Pushpal.Y.Desai,94271 69890,desaipushpal@yahoo.com
I01483,Dronacharya College of Engineering,"B-27, Knowledge Park-III,",Greater Noida,,Uttar Pradesh,201308,Dr.S.K.Bagga,99103 80102,director@gnindia.dronacharya.info
I01486,"Prof. Ramkrishna More Arts, Commerce and Science College","Sec. No.28, Ganganagar, Akurdi, Pradhikaran,",Pune,,Maharashtra,411044,Dr.Nitin Ghorpade,98501 51910,prin.nitin@yahoo.co.in
I01487,Institute of Engineering and Science,"IPS Academy,Knowledge Village, Rajendra Nagar, A.B. Road,",Indore,,Madhya Pradesh,452012,Dr.Archana K Chowdhary ,94240 00460,director.ies@ipsacademy.org
I01490,PSNA College of Engineering and Technology,"Kothandaraman Nagar, ",Dindigul,,Tamilnadu,624622,R.S.K.Raguraam,0451-2554154,raguraam@psnacet.edu.in
I01491,Priyadarshini J. L. College of Engineering,"846, Nandanvan,",Nagpur,,Maharashtra,440009,Dr.Abhay M. Shende ,98223 62306,"principal.jlcce@itjss.net, principaljlcce@gmail.com"
I01492,Shri Vaishnav Institute of Management,"Scheme No:71, Gumasta Nagar,",Indore,,Madhya Pradesh,452009,Dr.Rajeev Shukla,94250 00016,director@svimi.org
I01496,GM Institute of Technology,"Post Box No:4, P.B.Road, NH-4, ",Davangere,,Karnataka,577006,Dr.P.Prakash,94481 33377,principal@gmit.ac.in
I01497,CMR Institute of Technology,"Kandlakoya(V), Medchal Road,Ranga Reddy District,",Hyderabad,,Telangana,501401,Dr.M.Janga Reddy,92479 61234,principalcmrit@gmail.com
I01498,Ranganathan Engineering College,"Viraliyur (Post),Thondamuthur (Via), ",Coimbatore,,Tamilnadu,641109,Dr.C.Radhakrishnan,,sug521@rediffmail.com
I01501,KG Reddy College of Engineering and Technology,"Chilkur, Moinabad Mandal, ",Hyderabad,,Telangana,501501,Dr.Madhusudhanan Nair,89789 91991,principal.kgrcet@gmail.com
I01507,C.V. Raman College of Engineering,"Bidyanagar, Mahura, Janla, ",Bhubaneswar,,Odisha,752054,Dr.Kartik Chandra Patra,,principal@cvraman.org
I01510,Priyadarshini Bhagwati College of Engineering,"Harpur Nagar, Umred Road,",Nagpur,,Maharashtra,440009,Dr.N.K.Choudhari,98232 73864,drnitinchoudhari@gmail.com
I01517,Dr.N.G.P. Arts and Science College,"Dr.N.G.P Nagar, Kalappatti Road, ",Coimbatore,,Tamilnadu,641048,Dr.P.R.Muthuswamy,99525 06698,kmchms@gmail.com
I01522,A.D. Patel Institute of Technology,"P.O.Box No. 52, Vitthal Udyognagar, New Vallabh Vidyanagar,",Anand,,Gujarat,388121,Dr.R.K.Jain ,,principal@adit.ac.in
I01525,Sree Narayana Gurukulam College of Engineering,"Kadayiruppu Post, Kolenchery, ",Ernakulam,,Kerala,682311,Dr.Saji. C.B,99466 69773,principal@sngce.ac.in
I01529,M.E.T. Institute of Computer Science,"MET Complex, Bandra Reclamation, Bandra (West), ",Mumbai,,Maharashtra,400050,Dr.Abhijit Banubakode,,"principal_ics@met.edu, abhijitb_ics@met.edu"
I01534,Kristu Jayanti College,"K. Narayanapura, Kothanur Post,",Bangalore,,Karnataka,560077,Fr.Josekutty.P.D,94826 56600,principal@kristujayanti.com
I01537,Krishna Institute of Engineering and Technology,,Ghaziabad,,Uttar Pradesh,201206,Dr.J.Girish,01232-227978/80,director@kiet.edu
I01540,Bapatla Engineering College,,Bapatla,,Andhra Pradesh,522101,Dr.Y.Sudheer Babu,94407 30035,bec_principal@yahoo.com
I01543,"GITAM University, GITAM School of Technology","Hyderabad Campus,",Rudraram Village,,Telangana,502329,Dr.CH.Sanjay,95029 32499,director_hydcampus@gitam.edu
I01549,Thiagarajar College of Engineering,"Thirupurankundram, ",Madurai,,Tamilnadu,625015,Dr.V.Abhai Kumar,0452-2482240,principal@tce.edu
I01551,Sarabhai Institute of Science and Technology,"PB No:2, Vellanad Post,",Thiruvananthapuram,,Kerala,695543,Dr.Ravi Nambiar,81294 97391,sistengg@reddiffmial.com
I01552,S.S. Dempo College of Commerce and Economics,"Serra BLDG, Near All India Radio, Altinho, ",Panjim,,Goa,403001,Dr.Radhika.S.Nayak,94224 39876,principal@dempocollege.edu.in
I01556,Amrutvahini College of Engineering,"Amrutnagar, Sangamner",Ahmednagar,,Maharashtra,422608,Dr.M.A.Venkatesh,99721 32130,principal@avcoe.org
I01558,V.E.S. Institute of Technology,"Hashu Advani Memorial Complex,Collectors's Colony, RC Marg Chembur, ",Mumbai,,Maharashtra,400074,Dr.J.M.Nair,99691 61436,"principal.vesit@ves.ac.in, jln.nair@ves.ac.in"
I01560,"AIMIT, St.Aloysius College","Beeri, Kotekar Post, Madoor, ",Mangalore,,Karnataka,575022,Rev.Fr.Denzil Lobo S.J,93435 62599,"aimit.sac@gmail.com, denzil@staloysics.ac.in"
I01561,Mahaveer Institute of Science and Technology,"Vyasapuri, Bandlaguda Post, Keshavgiri, ",Hyderabad,,Telangana,500005,Dr.K.S.S.S.N.Reddy,99899 99708,principal.mahaveer@gmail.com
I01562,Thakur College of Engineering and Technology,"Shyamnarayan Thakur Marg,Thakur Village, Kandivali(E)",Mumbai,,Maharashtra,400101,Dr.B.K.Mishra,,tcet.principal@thakureducation.org
I01567,Fr.C.Rodrigues Institute of Technology,"Sector -9 A, Vashi, ",Navi Mumbai,,Maharashtra,400703,Dr.S.M.Khot,022-41611000,
I01568,Modern Education Society's College of Engineering,"#19, Late Prin, V.K.Joag Path, Wadia College Campus, ",Pune,,Maharashtra,411001,Dr.A.A.Keste,94230 11128,principal@mescoepune.org
I01570,Arunai Engineering College,"Velu Nagar, ",Tiruvannamalai,,Tamilnadu,606603,E.V.Kumaran,,vicechairmanaec@gmail.com
I01572,Apaji Institute of Mathematics and Applied Computer Technology(Banasthali University),"P.O.Banasthali, ",Vidyapith,,Rajasthan,304022,Prof.Gopal Narain Purohit,98280 23855,gn_purohitjaipur@yahoo.co.in
I01574,Srinivas Institute of Technology,"Merlapadavu, Arkula, Post Parangipete,",Mangalore,,Karnataka,574143,Dr.D.Shrinivasa Mayya,94483 28115,shrimayya@gmail.com
I01576,Sengamalathyaar Educational Trust Women's College,"Main Road, Sundarakkottai, ",Mannargudi,,Tamilnadu,614001,Dr.M.V.Srinath,94432 38900,sri_induja@rediffmail.com
I01579,Deenbandhu Chhotu Ram University of Science and Technology,"Murthal, ",Sonepat,,Haryana,131039,Sh.H.S.Chahal,,vcdcrustm@gmail.com
I01584,Malla Reddy Engineering College,"Maisammaguda Dhulapally Hakimpet,",Secunderabad,,Telangana,500014,Dr.S.Sudhakara Reddy,93481 61125,"principal@mrec.ac.in, mrec.2002@gmail.com"
I01594,Atharva College of Engineering,"Atharva Educational Complex, Malad Marve Road, Charkop Naka, Malad (W), ",Mumbai,,Maharashtra,400095,Ms.Nileema Pathak ,98205 04953,nilsan_p@yahoo.com
I01596,K.L.N. College of Information Technology,,Pottapalayam,"Sivagangai District,",Tamilnadu,630611,Dr.J.S.Gnanasekaran ,94438 31438,principal@klncit.edu.in
I01598,SVS College of Engineering,"JP Nagar, Arasampalayam,Myleripalayam (Via),",Coimbatore,,Tamilnadu,642109,Dr.T.Kannan,90470 49992,kannan_svsce@yahoo.com
I01599,JNTUA College of Engineering,,Pulivendula,,Andhra Pradesh,516390,Dr.V.Venugopal Reddy,90005 51427,vgreddy7@rediffmail.com
I01600,Sri Venkateshwara College of Engineering,"Vidyanagar, International Airport Road, Bettahalasur (Post), ",Bangalore,,Karnataka,562157,Dr.C.Prabhakar Reddy,98451 67334,principal@svcengg.com
I01603,Periyar Maniammai University,"Periyar Nagar , Vallam, ",Thanjavur,,Tamilnadu,613403,Dr.S.Sridharan,99449 50126,registrat@pmu.edu
I01604,Rajasthan Institute of Engineering and Technology,"Bhankrota, Ajmer Road,",Jaipur,,Rajasthan,302026,Dr.Virendra Sangtani,94140 17865,principal@rietjaipur.ac.in
I01605,Truba College of Science and Technology,"KarondGandhi Nagar, Bypass Road, ",Bhopal,,Madhya Pradesh,462038,Dr.Rajeev Arya,94250 22745,aryarajeev25@yahoo.com
I01610,Teerthanker Mahaveer University,"Delhi Road, Bagarpur,  NH-24,",Moradabad,,Uttar Pradesh,244001,Prof.R.K.Mudgal,98379 33666,vicechancellor@tmu.ac.in
I01611,Er.Perumal Manimekalai College of Engineering,,Hosur, ,Tamilnadu,635117,Dr.S.Chitra,97870 09790,schitra3@gmail.com
I01612,Akshaya College of Engineering and Technology,"Bagavathipalayam Road, Kinathukadavu, ",Coimbatore,,Tamilnadu,642109,Dr.J.Jaya,97509 11298,"jaya@acetcbe.edu.in, principal@acetcbe.edu.in"
I01616,SriGuru Institute of Technology,"Varathaiyangar Palayam, Kondayampalayam (P.O), Near Saravanampatti, ",Coimbatore,,Tamilnadu,641110,Dr.S.Babu Devasenapati,96295 87777,principal@sriguru.ac.in
I01618,Kalaignar Karunanidhi Institute of Technology,Kannampalayam Post,Coimbatore,,Tamilnadu,641402,Dr.N.Mohandas Gandhi,99655 90099,principal@kitcbe.com
I01621,Aksheyaa College of Engineering,"Puludivakkam (Near Nelvoy), Madhuranthagam Taluk, ",Kancheepuram Dist,,Tamilnadu,603314,Dr.S.Arul,89399 91173,principalace1@gmail.com
I01622,Excel Engineering College,"NH-47,Salem Main Road, Pallakapalayam",Sankari West Post,"Sankari West Post,Namakkal Dist,",Tamilnadu,637303,Dr.G.Ramadoss ,99656 41888,principal_excel_engg@yahoo.in
I01626,St. Francis Institute of Technology,"P.B.No:8456, Mount Poinsur, S.V.P. Road, Borivli (West), ",Mumbai,,Maharashtra,400103,Dr.Sincy George,98691 25295,principal@sfitengg.org
I01630,Dr. Navalar Nedunchezhiyan College of Engineering,"Raja Nagar, Vaithiyanathapuram, ",Tholudur,"Cuddalore District, ",Tamilnadu,606303,Dr.M.Subramanian,78670 86702,principal2014.nnce@gmail.com
I01634,ATME College of Engineering,"13th KM Stone, Bannur Road, ",Mysore,,Karnataka,570010,Dr.K.S.Srinivasan ,97314 13762,ksrim23@rediffmail.com
I01635,VIT UniversityChennai Campus,"VandalurKelambakkam Road, ",Chennai,,Tamilnadu,600127,Dr.Anand S. Samuel ,95666 56780,provc@vit.ac.in
I01637,Jaya Engineering College,"CTH Road, Prakash Nagar,Thiruninravur,",Chennai,,Tamilnadu,602024,Dr.Krishnan Vijayaragavan  ,94445 12418,principal@jec.ac.in
I01638,Prof.Ram Meghe Institute of Technology and Research,"(Vidarbha Youth Welfare Society's),Anjangaon Bari Road, Badnera, ",Amravati,,Maharashtra,444701,Prof.Amol P. Bodhke,94229 17590,principal@mitra.ac.in
I01639,Shri Vishnu Engineering College for Women,"Vishnupur, ",Bhimavaram,,Andhra Pradesh,534202,Dr.G.Srinivasa Rao ,96668 32284,principal@svecw.edu.in 
I01642,M.A.M. School of Engineering,"Trichy-Chennai Trunk Road, Siruganur, Trichy",Tiruchirappalli,,Tamilnadu,621105,Dr.P.Ranjith Kumar,77080 00971,"principal@mamse.ac.in, ranjjith@gmail.com"
I01644,J.N.N. Institute of Engineering,,Chennai,,Tamilnadu,601102,Dr.Vemuri Lakshminarayana,,
I01647,Sasi Institute of Technology and Engineering,,Tadepalligudem,"West Godavari District,",Andhra Pradesh,534101,Dr.K.Bhanu Prasad,91775 85599,principal@sasi.ac.in
I01653,J.P. College of Engineering,"College Road Ayikudi, ",Tenkasi,"Tirunelveli District, ",Tamilnadu,627852,Dr.D.Gnanadurai,80125 20430,"j_dgd@yahoo.com, info@jpcollege.org"
I01654,SNJB's Late Sau. Kantabai Bhavarlalji Jain College of Engineering,"(Jain Gurukul), Neminagar, ",Chandwad,Dist.Nashik),Maharashtra,423101,Prof.Kainjan M Sanghavi,94234 56074,kainjan@gmail.com
I01657,SJB Institute of Technology,"BGS Health and Education CityUttarahalli Road, Kengeri, ",Bangalore,,Karnataka,560060,Dr.Puttaraju,90087 19999,principal@sjbit.edu.in
I01659,Sree Buddha College of Engineering,Pattoor Post,Alappuzha,"Nooranad, Alappuzha District,",Kerala,690529,Dr.S.Suresh Babu,94472 66626,principal@sbce.ac.in
I01660,Nandha Engineering College,,Erode,,Tamilnadu,638052,Dr.N.Rengarajan,73737 12234,principal@nandhaengg.org
I01662,Sagi Rama Krishnam Raju Engineering College,(S.R.K.R. Engineering College )Chinna-Amiram ,Bhimavaram,West Godavari,Andhra Pradesh,534204,Dr.D.Ranga Raju ,99483 81818,dr.drraju@gmail.com
I01668,SKR Engineering College,"Agarmel, Poonamallee, ",Chennai,,Tamilnadu,600123,Dr.M.Senthil Kumar,98410 97106,msk67@rediffmail.com
I01669,HKBK College of Engineering,"S.No:22/1, Nagawara,",Bangalore,,Karnataka,560045,Dr.T.C.Manjunath ,94498 20361,tcmanjunath@gmail.com
I01670,JSS Academy of Technical Education,"C-20/1, Sector-62, Gautam Budh Nagar,",Noida,,Uttar Pradesh,201301,Prof.K.Kamal,98911 04162,principal@jssaten.ac.in
I01674,Er.Perumal Manimekalai Polytechnic College,,Hosur, ,Tamilnadu,635117,Prof.N.Balasubramaniam,98945 11359,"principal509@gmail.com, pmc_poltechnic@yahoo.com"
I01676,P.S.R. Rengasamy College of Engineering for Women,"Appayanaickenpatti, ",Sivakasi,"Virudhunagar District,",Tamilnadu,626140,Dr.Ramasamy Kuppusamy,96778 72699,ramasamy@psrr.edu.in
I01677,Francis Xavier Engineering College,"103-G-2, Bypass Road, Vannarpettai,",Tirunelveli,,Tamilnadu,627003,Dr.V.Ilangovan,99429 78550,principall@francisxavier.ac.in
I01678,MIT School of Management(Maeer’s Mitsom),"S.No:123, ""Saraswati Vishwa Building""A Wing, Paud Road, Kothrud, ",Pune,,Maharashtra,411038,Prof.Ranbir Kuldiprai Bhatia,98814 62243,rkbhatia@gmail.com
I01679,Chettinad College of Engineering and Technology,,Karur,,Tamilnadu,639114,A.P.Kabilan ,94435 24366,principalccet@gmail.com
I01681,Shivajirao S. Jondhale College of Engineering,"Sonarpada, Post: Manpada, ",Dombivali (East),"Dist: Thane, ",Maharashtra,421204,Dr.Jagdesh Wasudeorao Bakal ,"95949 62007, 98207 23812",bakaljw@gmail.com
I01684,Sree Saraswathi Thyagaraja College,"Palani Road, ",Pollachi,"Coimbatore District,",Tamilnadu,642107,Dr.V.Venkateswaran ,93448 64211,"vvprinceeac@gmail.com, stc@stc.ac.in"
I01685,Vignan's Lara Institute of Technology and Science,"Chebrolu Mandal, ",Vadlamudi,"Guntur District, ",Andhra Pradesh,522213,Dr.K.Phaneendra Kumar,94410 63389,
I01688,Marathwada Institute of Technology,"Beed Bypass Road, Post Box No:327, ",Aurangabad, ,Maharashtra,431028,Dr.Chandrashekhar Gogte,98227 57825,shekhar.gogte@mit.asia
I01695,Madhav Institute of Technology and Science,"Race Course Road, ",Gwalior,,Madhya Pradesh,474005,Dr.Sanjeev Jain ,94251 49630,dr_sanjeevjain@yahoo.com
I01698,S.Veerasamy Chettiar College of Engineering and Technology,"S.V.Nagar, Tirunelveli Dist,",Puliangudi,,Tamilnadu,627855,Mr.B.Saravana Balaji,88830 77655,enggprincipal@svccollege.ac
I01700,Velalar College of Engineering and Technology,"Thindal Post, ",Erode,,Tamilnadu,638012,Dr.M.Jayaraman,97509 24402,principal@velalarengg.ac.in
I01705,St.Vincent Pallotti College of Engineering and Technology,"Gavsi Manapur, Wardha Road, ",Nagpur,,Maharashtra,441108,Dr.R.B.Gowardhan ,94236 85701,rbgowardhan@yahoo.co.in
I01709,Raja Rajeswari College of Engineering,"#14, Ramohalli Cross, Kumbalgodu Mysore Road, ",Bangalore,,Karnataka,560074,Dr.R.Balakrishna,99000 28023,principal@rrce.org
I01711,Alpha College of Engineering and Technology,"B/s. Lincon Polymers, At.Khatraj, Ta.Kalol",Dist.Gandhinagar,,Gujarat,382721,Prof.K.Ravikumar ,99241 12998,principal.alpha@gmail.com
I01712,Dev Sanskriti Vishwavidyalaya,"ShantikunjGayatrikunj, Haridwar",Hardwar,,Uttarakhand,249411,Dr.Chinmay Pandya ,93582 66663,"chinmay.pandya@dsvv.org,provc@dsvv.ac.in"
I01715,Gates Institute of Technology,,Anantapur,,Andhra Pradesh,515401,Dr.A.Ramesh ,94400 84817,prof_ramesh_epcet@yahoo.com
I01717,Nallamuthu Gounder Mahalingam College,"(N.G.M College)#91, Palghat Road, ",Pollachi,"Coimbatore District,",Tamilnadu,642001,Badri Sriman Narayanan ,99429 06695,bsn1958@yahoo.com
I01718,Gokhale Education Society's R.H. Sapat College of Engineering Management Studies and Research,"Prin. T. A. Kulkarni Vidyanagar,College Road, ",Nashik,,Maharashtra,422005,Dr.P.C.Kulkarni,98509 62732,prafulla_kulkarni1@hotmail.com
I01720,Edayathangudy G.S.Pillay Engineering College,"Nagore Post,",Nagapattinam,,Tamilnadu,611002,Dr.S.Ramabalan ,98948 31458,"principal.egspec@gmail.com, cadsrb@gmail.com"
I01721,V.R. Siddhartha Engineering College,"(Velagapudi Ramakrishna)Kanuru, ",Vijayawada,,Andhra Pradesh,520007,Dr.A.V.Ratna Prasad,98495 99497,principal@vrsiddhartha.ac.in
I01722,Saintgits College of Engineering,"Kottukulam Hills, Pathamuttom Post,",Kottayam,,Kerala,686532,Dr.M.C.Philipose ,99464 49179,principalce@saintgits.org
I01723,Sardar Vallabhbhai Patel Institute of Technology,"Post Box No:22, Vasad District, ",Anand,,Gujarat,388306,Dr.Vijay R.Panchal ,99790 46204,vijay_svit@yahoo.co.in
I01731,Vimal Jyothi Engineering College,"Jyothi Nagar, Chemperi Post ",Kannur, ,Kerala,670632,Dr.Benny Joseph ,90482 92767,"bennyjoseph@vjec.ac.in, principal@vjec.ac.in"
I01732,St. Xavier's Catholic College of Engineering,Chunkankadai ,Nagercoil,"Kanyakumari District,",Tamilnadu,629003,Dr.S.Joseph Sekhar ,99520 01816,josephsekhar@sxcce.edu.in
I01733,REVA UniversitySchool of Computing and Information Technology,"Rukmini Knowledge Park,Yelahanka Post, ",Bangalore,,Karnataka,560064,Dr.M.Dhanamjaya,99451 85445,registrar@reva.edu.in
I01734,Haldia Institute of Technology,"ICARE Complex, H.I.T. CampusP.O.-HIT, Purba Midnapore(E), ",Haldia,,West Bengal,721657,Dr.M.N.Bandyopadhyay,94343 72324,mbandyopadhyay@yahoo.com
I01735,Ilahia College of Engineering and Technology,"Mulavoor Post, ",Muvattupuzha,"Ernakulam District, ",Kerala,686673,Dr.Babu Kurian ,94461 28912,"babukurian@rediffmail.com, principal@icet.ac.in"
I01736,Info Institute of Engineering,"NH:209, Sathy Road, Kovilpalayam, ",Coimbatore,,Tamilnadu,641107,Dr.Palanisamy,94421 44229,principal@infoengg.com
I01737,Mohamed Sathak A.J. College of Engineering,"#34, Rajiv Gandhi Salai (OMR), IT Park Highway, Siruseri, Egattur, ",Chennai,,Tamilnadu,603103,Dr.T.Ragunathan,97908 54910,ragu_savi@yahoo.com
I01738,HMR Institute of Technology and Management,"Plot No.370, Hamidpur,",Delhi,,New Delhi,110036,Dr.Shalini Gupta,98119 49849,shalini.hmritm@gmail.com
I01740,Vishwakarma Institute of Information Technology,"S.No:2/3/4, Kondhwa (Bk), ",Pune,,Maharashtra,411048,Dr.Bilavari.S.Karkare ,98506 04785,bkarkare@gmail.com
I01741,KVG College of Engineering,"Kurunjibhag, ",Sullia,,Karnataka,574327,Dr.N.A.Jnanesh,94481 53007,principal@kvgengg.com
I01744,Bharati Vidyapeeth's College of Engineering,"A-4, Paschim Vihar, Rohtak Road,",New Delhi,,New Delhi,110063,Dr.Dharmender Saini,98181 95362,dharmender.saini@bharatividyapeeth.edu
I01750,Audisankara College of Engineering and Technology,"NH-5, Bypass Road, Nellore District,",Gudur,,Andhra Pradesh,524101,Dr.V.Krishna Kumar,92487 48418,principal.audisankara@gmail.com
I01752,Adi Shankara Institute of Engineering and Technology,"Vidya Bharathi Nagar, Mattoor, ",Kalady,"Ernakulam District, ",Kerala,683574,Dr.PC.Neelakantan,95390 10657,principal@adishankara.ac.in
I01754,Sushila Devi Bansal College of Engineering,"Umaria, Near Rau, A.B. Road, ",Indore,,Madhya Pradesh,453331,Mrs.Chetna Anjana,99267 34509,"canjana@kcbta.ac.in, anjana.chetna@gmail.com"
I01756,P.E.S. College of Engineering,"Panchakki Road, Nagsenvana, ",Aurangabad,,Maharashtra,431002,Dr.Abhijit P Wadekar,94222 93400,principal@pescoe.co.in
I01757,United Institute of Technology,"G.Koundampalayam,Periyanaickenpalayam,",Coimbatore,,Tamilnadu,641020,Dr.P.Prakasam,96886 55599,principal@uit.ac.in
I01758,International Institute of Information Technology,"P-14, Hinjawadi, Rajiv Gandhi Infotech Park, ",Pune,,Maharashtra,411057,Dr.Bharat S.Chaudhari  ,,principal@isquareit.edu.in
I01759,Vel Tech Multi Tech Dr.Rangarajan Dr.Sakunthala Engineering College,"#60, Avadi-VelTech Road, ",Chennai,,Tamilnadu,600062,Dr.V.Rajamani,,principal@veltechmultitech.org
I01768,Vidya Jyothi Institute of Technology,"Aziz Nagar Gate, C.B. Post,",Hyderabad,,Telangana,500075,Dr.P.Venugopal Reddy ,98482 12388,vjithyd@gmail.com
I01769,St. Johns College of Engineering and Technology,"Yerrakota, ",Yemmiganur,,Andhra Pradesh,518360,Dr.P.Mallikarjuna Reddy ,99636 23801 ,principal@sjcet.ac.in
I01771,Government Engineering College,"Thalapuzha Post, Mananthavady, ",Wayanad,,Kerala, 670644,Dr.B.Anil,93498 37256,principal@gecwyd.ac.in
I01772,Model Institute of Engineering and Technology,"Kot-Bhalwal, ",Jammu,,Jammu & Kashmir,180016,Prof.S.K.Sharma ,94692 14184,"principal_miet12@rediffmail.com, principal@mietjammu.in"
I01773,Sri Lakshmi Ammal Engineering College,"Thiruvanchery,Selaiyur Post, ",Chennai,,Tamilnadu,600073,Dr.M.Sundararajan ,98403 52860,msrajan69@gmail.com
I01775,Keshav Memorial Institute of Technology,"3-5-1026, Narayanguda",Hyderabad,,Telangana,500029,Dr.Maheswar Datta,70933 09222,principal@kmit.in
I01781,"The Maharaja Sayajirao University of Baroda (BCA Programme, Faculty of Science)","Sayajigunj, ",Vadodara,,Gujarat,390002,Prof.Yogesh Singh ,98254 06700,vc@ms4baroda.ac.in
I01783,Guru Kashi University,"Sardulgarh Road, ",Talwandi Sabo,,Punjab,151302,Dr.B.S.Dhaliwal ,94172 34072 ,dhaliwal_bs@rediffmail.com
I01784,Global Institute of Technology,"ITS-1, IT Park, EPIP Sitapura,",Jaipur,,Rajasthan,302022,Dr.Renu Joshi,91661 17765,principal@gitjaipur.com
I01784,Global Institute of Technology,"ITS-1, IT Park, EPIP Sitapura,",Jaipur,,Rajasthan,302022,Dr.S.P.Gupta,75689 25577 ,guptasp1942@yahoo.com
I01785,Sridevi Women's Engineering College,"Vattinagulapally(V), Near Wipro Gopannapally, Gandipet, ",Hyderabad,,Andhra Pradesh,500075,Dr.Y.Rajasree ,98661 53686 ,srideviengg@rediffmail.com
I01786,Union Christian College,"MCA UC College Post,Aluva, ",Ernakulam,,Kerala,683102,Dr.A.V.Alex,97440 36702,alexav50@gmail.com
I01787,Al-Habeeb College of Engineering and Technology,,Ranga Reddy District,,Andhra Pradesh,501503,Prof.Shaik Mahaboob Basha,98494 64256 ,principal@alhabeebcollege.ac.in
I01790,Virudhunagar S.Vellaichamy Nadar Polytechnic College,"(V.S.V.N. Polytechnic College)Rosalpatti Village, ",Virudhunagar,,Tamilnadu,626001,D.Nagendran ,93674 10052 ,vsvnpoly@gmail.com
I01791,All India Computer Saksharta Mission,"#96, IInd Floor, Kalawati Paliwal Market, Gumanpura, ",Kota,,Rajasthan,324007,Mohanlal Mahawar ,94141 89543,mohanlalmahawar@in.com
I01792,Gnanamani College of Engineering,"NH-7, A.K. Samuthiram, Pachal (P.O). ",Namakkal,,Tamilnadu,637018,S.Chandrasekar ,99444 92400 ,principal627@gmail.com
I01795,Amity University,"Amity University Campus, Sector125, Gautam Buddha Nagar, ",Noida,,Uttar Pradesh,201313,Dr.Balvinder Shukla,98101 99453,bshukla@amity.edu
I01798,Sir Parashurambhau College,"Tilak Road, ",Pune,,Maharashtra,411030,Dr.Dilip N. Sheth,98810 71213,principalspc@vsnl.net
I01800,St. Mary's Group of Institutions,"St.Marys Hills, Deshmukhi (V), Pochampally (M), Batasingaram (V), Hayathnagar (M), Under Greater, ",Hyderabad,,Telangana,508284,Prof.T.Ravi Kumar ,98480 43320 ,tattikotaravi@gmail.com
I01802,A.R.J College of Engineering and Technology,"Ayyanar Gardens, Edayarnatham, Thirumakkottai Main Road, ",Mannargudi,,Tamilnadu,614001,G.Uthayakumaran ,97509 88223,principalcet@arj.edu.in
I01803,Shri Sant Gadge Baba College of Engineering and Technology(SSGB),"ZTC, ",Bhusawal,,Maharashtra,425203,Dr.Rajendra Prasad Singh ,95032 64444,principal_rpsingh@rediffmail.com
I01804,Dr.B.R.Ambedkar Institute of Technology,"Pahargaon, ",Port Blair,,Andaman & Nicobar Islands,744103,Dr.Utpal Sharma ,94342 80130 ,utp.sharma@gmail.com
I01809,IPS College of Technology and Management,"Bela ki Bawadi Tiraha, Shivpuri Link Road, ",Gwalior,,Madhya Pradesh,474001,Prof.Premanand Singh Chauhan ,87188 05026,deanaa.ips@gmail.com
I01810,Amrita School of Arts and Sciences [Amrita Vishwa Vidyapeetham University],"#114, 7th Cross, Bogadi 2nd Stage, ",Mysore,,Karnataka,570026,Prof.Vidya Pai Cananore ,99865 38893,vidyapai@asas.mysore.amrita.ac.in
I01815,Sana Engineering College,"Vijayawada Road,",Kodad,"Nalgonda District, ",Telangana,508206,Dr.A.Srinivasa Rao,90100 92224,sanam8kdd@yahoo.co.in
I01818,MIT College of Engineering,"S.No:124, MIT Eng.College Campus, Ex-Serviceman Colony, Paud Road, Kothrud, ",Pune,,Maharashtra,411038,Dr.Ramachandra V. Pujeri,020-30273680,director@mitcoe.edu.in
I01819,GLS Institute of Computer Technology,"Opp.Law Garden, Ellisbridge,",Ahmedabad,,Gujarat,380006,Dr.R.P.Soni ,93761 80747,rpsoni@glsict.org
I01820,Alpha College of Engineering,"Dr.Grace George Nagar, #34, Udayavar Koil Street,Thirumazhisai,",Chennai,,Tamilnadu,600124,Dr.Anita Titus,94447 47418,principalace@alphagroup.edu
I01823,Rishiraj Institute of Technology,"Revati, Sanwer Road, ",Indore,,Madhya Pradesh,453331,G.S.Sharma,99811 99852,gs_shrm@yahoo.co.in
I01826,Asan Memorial College of Engineering and Technology,"P.B.No.6, Asan Nagar, Thandarai Village,",Chengalpattu,,Tamilnadu,603001,Dr.E.Chandrasekaran,80567 69805,c.sekar@gmail.com
I01828,Agni College of Technology,Old Mahabalipuram RoadThalambur,Chennai,,Tamilnadu,603103,Dr.S.R.R.Senthil Kumar,94450 24081,principal@act.edu.in
I01829,Rao and Naidu Engineering College,"NH-5, Near South By-Pass Road Junction, Ongole,  ",Prakasam District,,Andhra Pradesh,523001,Dr.P.S.V.Srinivasa Rao,92467 70578,parimirao@yahoo.com
I01831,Bharati Vidyapeeth College of Engineering,"Sector 7, C.B.D. Belpada, ",Navi Mumbai,,Maharashtra,400614,Dr.M.Z.Shaikh,86525 77266,mzshaikh2003@yahoo.co.in
I01834,Lokmanya Tilak College of Engineering,"Sector 4, Vikas Nagar, Koparkhairane, ",Navi Mumbai, ,Maharashtra,400709,Dr.Vivek Yakkundi,93246 22654,principal.ltce@gmail.com
I01837,"P.R. Engineering College, (Ponnaiyah Ramajayam Institutions)",,Thanjavur,,Tamilnadu,613403,Dr.S.Nithyanandam,94434 88894,snsirvp@yahoo.co.in
I01841,Nehru College of Engineering and Research Centre,"Pampady, Near Lakkidi Rly Station, Thiruvillwamala, ",Thrissur,,Kerala,680597,Dr.A.S.Varadarajan,94961 76360,"varadarajan_as@yahoo.co.in, principal@ncerc.ac.in"
I01843,VIVA Institute of Technology,"At: Shirgaon, Post. , Tal. Vasai, Dist. Palghar, ",Virar, ,Maharashtra,401303,Dr.Arun Kumar,96045 28760,arunprod@rediffmail.com
I01846,Sri Venkateswara College of Engineering,"Opp:LIC Training Center, Karakambadi Road,",Tirupati,,Andhra Pradesh,517507,Dr.N.Sudhakar Reddy,88866 44955,principal_svce@svcolleges.edu.in
I01847,Sri Venkateswara Engineering College for Women,"Opp:LIC Training Center, Karakambadi Road,",Tirupati,,Andhra Pradesh,517507,Dr.P.V.N.Reddy,88866 44966,principal_svew@svcolleges.edu.in
I01848,Madha Engineering College,"Madha Nagar, Somangalam Road, Kundrathur, ",Chennai,,Tamilnadu,600069,Dr.A.Baradeeswaran,97103 63105,principal@madhaengineeringcollege.com
I01849,TKR College of Engineering and Technology,"Medbowli, Meerpet, Saroornagar, ",Hyderabad,,Telangana,500079,Dr.D.V.Ravi Shankar,96665 73666,tkrcetprincipal@gmail.com
I01851,Vidyalankar School of Information Technology,"Vidyalankar College Marg,Antop Hill, Wadala East,",Mumbai,,Maharashtra,400037,Dr.Rohini Alok Kelkar,98204 50953 ,principal@vsit.edu.in
I01853,Bhilai Institute of Technology,"Bhilai House, ",Durg,,Chhattisgarh,491001,Dr.Arun Arora,94255 55770,arorabit1@gmail.com
I01854,Surana College,"#16, South End Road, Basavangudi, ",Bangalore,,Karnataka,560004,Chandra Mouli AS,99806 06223,moulicnan@gmail.com
I01855,K.M M. Institute of Postgraduate Studies,"Ramireddipalle, Narsingapuram Post, Chandragiri Mandal,",Tirupati,"Chittoor District,",Andhra Pradesh,517102,Dr.K.Venkataramana,98667 42584,ramanakv4@gmail.com
I01858,D.K.T.E. Society's Textile and Engineering Institute,"Rajwada, Post Box No:130,Ichalkaranji",Kolhapur,Dist.Kolhapur,Maharashtra,416115,Dr.P.V.Kadole,94220 45539 ,dkte@sancharnet.in
I01860,Anurag Engineering College,"Ananthagiri (V), Kodad (M), ",Nalgonda,,Andhra Pradesh,508206,Dr.Akash N.Patwari,89788 36245 ,principal@anurag.ac.in
I01861,Kautilya Institute of Technology and Engineering,"ISI-16, RIICO Institutional Area, Kautilya Circle, Sitapura, ",Jaipur,,Rajasthan,302022,Dr.N.C.Bhandari,99296 11147,principal@kautilya.net
I01866,Rajiv Gandhi College of Engineering and Research,"Wahadongari Hingana Road, ",Nagpur,,Maharashtra,441110,Dr.A.V.Bapat,97649 96476,bapatav@gmail.com
I01871,Sanghvi Innovative Academy,"Gram Kanadia, Old Sihore Road, Pragati Vihar II,",Indore,,Madhya Pradesh,452016,Dr.Nitika Doohan,98265 40908,director@sia-indore.com
I01872,Abdul Kalam Institute of Technological Sciences,"Vepalagadda (Village),Kothagudem (Mandal),",Khammam,,Telangana,507131,Dr.M.Janardhan ,98494 97834,jc_muppala@yahoo.co.in
I01873,S. S. D. G. C. T's Sanjay Ghodawat Group of Institutions,"Gat No.:583 to 585, Kolhapur-Sangli Highway, Post-",Atigre,"Dist.:Kolhapur,",Maharashtra,416118,Dr.Venkatesh A. Rajkar,90110 39811,director@sginstitute.in
I01874,"Dayananda Sagar College of Arts, Science and Commerce","Shavige Malleshwara Hills, Kumaraswamy Layout,",Bangalore,,Karnataka,560078,Prof.C.L.Gopala Reddy,98868 12130,principal-dscasc@dayanandasagar.edu
I01877,M.S. Engineering College,"Navarathna Agrahara, Sadahalli Post, NH-7,",Bangalore,,Karnataka,562110,Dr.K.S.Badarinarayan,94801 82396,principal@msec.ac.in
I01878,CMR Technical Campus,"Kandlakoya(V), Medchal (M), ",Hyderabad,,Telangana,501401,Dr.A.Raji Reddy ,92487 27220,r_avaia@yahoo.com
I01879,St.Thomas College of Engineering and Technology,"Kozhuvalloor Post, Alapuzha District,",Chengannur,,Kerala,689521,Dr.E.V.Mathew,94470 59259,edapurayilvmathew@yahoo.com
I01880,AVS Engineering College,"Military Road, Near Sakthikailash Women’s College,Ammapet, ",Salem,,Tamilnadu,636003,Dr.S.Ragunathan ,94436 63931,ragusubramanian@gmail.com
I01883,Knowledge Institute of Technology,"KIOT Campus, NH-47, Kakapalayam Post,",Salem,,Tamilnadu,637504,Dr.PSS.Srinivasan ,97900 41414,principal@kiot.ac.in
I01885,S.K.P. Engineering College,"Chinnakangiyanur,",Thiruvannamalai,,Tamilnadu,606611,Dr.R.K.Gnanamurthy,94422 46769,rkgnanam@yahoo.co.in
I01888,BVC Institute of Technology and Science,"Batlapalem,",Amalapuram,,Andhra Pradesh,533221,Dr.G.M.V.Prasad,93967 35489 ,drgmvprasad@gmail.com
I01889,Vidyaa Vikas College of Engineering and Technology,,Tiruchengode,"Namakkal District,",Tamilnadu,637214,Dr.S.Sundaram,94421 41122,vvcetcse@gmail.com
I01890,Chitkara University,,Patiala,,Punjab,140401,Dr.Madhu Chitkara ,98140 73342 / 0176-2507084,director@chitkara.edu.in
I01892,Sherwood College of Engineering Research and Technology,"Lucknow-Faizabad Road at 18Km,Near Safedabad Railway Crossing,",Barabanki,,Uttar Pradesh,225001,Dr.Narayan Chandra Sarcar,94153 01312,ncsarcar@gmail.com
I01893,Sandip Polytechnic,"Trimbak Road, Mahirawani,",Nashik,,Maharashtra,422213,Prof.P.N.Patil,95454 53233,principal@sandippolytechnic.org
I01894,Usha Rama College of Engineering and Technology,"NH-5,  Near Gannavaram,Ungutur Mandal, Krishna District, ",Telaprolu,,Andhra Pradesh,521109,Vara Prasad V K S Gottipati ,91777 12255,principal@usharama.com
I01900,Jamia Hamdard (Hamdard University),"Hamdard Nagar,",New Delhi,,New Delhi,110062,Jawed Ahmed,99993 40986,jawed2047@rediffmail.com
I01906,Nadimpalli Satyanarayana Raju Institute of Technology,"Sontyam, Anandapuram,",Visakhapatnam,,Andhra Pradesh,531173,Dr.B.V.R.Ravi Kumar,95330 33334,"principal@nsrit.org, vitscollegeprincipal@gmail.com"
I01908,T.J. Institute of Technology,"Rajiv Gandhi Salai, OMR,Karapakkam,",Chennai,,Tamilnadu,600097,Dr.K.Raveendaran,98404 54118,kraveen25@hotmail.com
I01910,Marian Engineering College,"Menamkulam, Kazhakuttom Post, ",Thiruvananthapuram,,Kerala,695582,Prof.Tomy Michael ,94469 02305,tomy.michael@gmail.com
I01914,Military College of Telecommunication Engineering,,Mhow,,Madhya Pradesh,453441,AK Dixit,88786 00783,akdixit2107@yahoo.com
I01917,Erode Builder Educational Trust's Group of Institution,"EBET Knowledge Park. Erode Road,",Kangayam,,Tamilnadu,638108,Dr.C.Venkatesh ,94878 11002,dean.foe@ebet.edu.in
I01918,Sri Venkatesa Perumal College of Engineering and Technology,"RVS Nagar, K.N Road, Chinnaraja Kuppum, ",Puttur,,Andhra Pradesh,517583,Dr.Chinnagolla Nadamuni Reddy ,9000 002351,principal@svpcet.org
I01920,Abhinav Hi-Tech College of Engineering,"Gandipet, Himayatnagar(M), C.B. Post, ",Hyderabad,,Andhra Pradesh,500075,M.Krishan Rao Venkata,94907 93340,mvk_rao@hotmail.com
I01922,Srinivasa Ramanujan Institute of Technology,"Rotarypuram Village, B K Samudram Mandal,",Anantapur,,Andhra Pradesh,515701,Dr.K.Subba Reddy,78930 05520,principal@srit.ac.in
I01923,Shri Shankaracharya Institute of Professional Management and Technology,"P.O. Sejabahar, Mujgahan",Raipur,,Chhattisgarh,492015,Dr.Alok Jain,94255 55593,principal@ssipmt.com
I01924,Malla Reddy College of Engineering and Technology,"Maisammaguda, Dhulapally Post,Hakimpet Village, Secunderabad,",Hyderabad,,Telangana,500014,Dr.V.Shiva Kumar Reddy,94407 90760,vskreddy2003@gmail.com
I01927,SSBT's College of Engineering and Technology,"Bambhori, Post Box.No.94, ",Jalgaon, ,Maharashtra,425001,Dr.Kishore Sopan Wani,94227 87643,sscoetjal@gmail.com
I01929,Jeppiaar Institute of Technology,"Jeppiaar Nagar, Kunnam, Sriperumpudur,Kancheepuram",Chennai,,Tamilnadu,631604,Dr.N.Marie Wilson,74012 22001,director@jeppiaarinstitute.org
I01935,Amrita School of Arts and Sciences,"Brahmasthanam, Edappally North P.O.",Kochi, ,Kerala,682024,Dr.U.Krishna Kumar ,94962 90333,asaskochi@gmail.com
I01936,Bharath University,"# 173 Agharam Road Selaiyur, ",Chennai,,Tamilnadu,600073,Dr.R.Udayakumar,,vc@bharathuniv.ac.in
I01937,CMR Engineering College,Kandlakoya (Village)Medchal Road ,Hyderabad,,Telangana,501401,Dr.A.Srinivasula Reddy,80081 35345,svas_a@yahoo.com
I01938,Bhai Parmanand Institute of Business Studies,"Opp.Madhuban Colony, Shakarpur (Extension), ",Delhi,,Delhi,110092,Dr.Amita Dev,99683  96787,bpibs.delhi@nic.in
I01940,Aditya College of Engineering and Technology,"Aditya Nagar, ADB Road,Surampalem, ",Peddapuram,,Andhra Pradesh,533437,Mr.Satya Srinivas ,77318 68882,satyasrinivasdantu@gmail.com
I01942,Tirumala Engineering College,,Narasaraopet,,Andhra Pradesh,522601,Dr.Y.V.Narayana,94404 53866,narayana_yv@yahoo.com
I01947,Gandhi Institute for Technological Advancement,"At:Badaraghunathpur,PO:Madanpur, Via:Janla,",Bhubaneswar,,Odisha,752054,Dr.D.V.Ravi Shankar,82600 45021,shankardasari@rediffmail.com
I01949,N.P.R. College of Engineering and Technology,"NPR Nagar, Natham, ",Dindigul,,Tamilnadu,624401,Dr.M.Shahul Hameed ,99433 07301,principalnprcet@gmail.com
I01950,Goa College of Engineering,"Bhausaheb Bandodkar Technical Education Complex, Farmagudi,",Ponda,,Goa,403401,Dr.V.N.Shet,94233 22936,ppl@gec.ac.in
I01954,Sembodai Rukmani Varatharajan Engineering College,"Vedaraniam Taluk, ",Sembodai,,Tamilnadu,614820,V.Senthil ,90472 38285,859srvec@gmail.com
I01955,Einstein College of Engineering,"Sir.C.V.Raman Nagar, Seethaparpanallur, ",Tirunelveli,,Tamilnadu,627012,Dr.K.Ramar,73737 87112,kramar.einstein@gmail.com
I01956,"S.B. Jain Institute of Technology, Management and Research","Near Jain International School,Katol Road, ",Nagpur,,Maharashtra,441501,Dr.Narendra G Bawne,98222 36057,principal@sbjit.edu.in
I01958,Yadavrao Tasgaonkar College of Engineering and Management,"Dr.N.Y. Tasgaonkar Technical Education Campus, Chandai, ",Karjat,,Maharashtra,410201,Dr.Suresh Kisanrao Ukarande,98205 55761,deanfotuom@gmail.com
I01959,Malla Reddy College of Engineering,"Maisammaguda, Dhulapally Post, Via Hakimpet, ",Secunderabad,,Telangana,500014,T.Varahala Reddy,93481 61222,cmecprincipal@gmail.com
I01963,Walchand Institute of Technology,"P.B.No.634, Ashok Chowk, Seth Walchand Hirachand Marg, ",Solapur, ,Maharashtra,413006,Shashikant Annarao Halkude ,94224 57776,principal@witsolapur.org
I01964,Jagadambha College of Engineering and Technology,"Arni Road, Kinhi,",Yavatmal,,Maharashtra,445001,Dr.Surendra K Kalaspurkar,90965 48670,principal.jcoet@gmail.com
I01965,Arulmigu Meenakshi Amman College of Engineering,"Vadamavandal (Near Kanchipuram), ",Namandi,,Tamilnadu,604410,Dr.M.R.Mohan,04182-247226,amacengg@yhaoo.com
I01968,Bhivarabai Sawant College of Engineering and Research,"S.No:12/1/2 and 12/2/2, Narhe, Taluka-Haveli, ",Pune,,Maharashtra,411041,Dr.D.V.Jadhav,94227 97509,dvjadhao@yahoo.com
I01969,Audisankara College of Engineering for Women,"NH-5 ByPass Road, Aravinda Nagar,Gudur District, ",Nellore,,Andhra Pradesh,524101,Chintamreddy Vikramkumar,94903 21975,cvikramkumar@gmail.com
I01972,Ponjesly College of Engineering,"Parvathipuram,",Nagercoil,"Kanyakumari District,",Tamilnadu,629003,Dr.K.Thyagarajan,94004 91684,nicedrktr@yahoo.com
I01975,Silver Oak College of Engineering and Technology,"Opp.Bhagwat Vidyapith, Near Gota Cross Road,",Ahmedabad,,Gujarat,382481,Saurin.R.Shah,94080 60155,principal@socet.edu.in
I01979,University School of Engineering and Technology,"VPO, Sahauran, Tehsil- Kharar,  ",Mohali,,Punjab,140104,Prof.Virender Rihani,98884 20002,deanuset@rayatbahrauniversity.edu.in
I01982,Sri Shanmugha College of Engineering and Technology,"Tiruchengode-Sankari Main Road,Pullipalayam, Morur(Po),Sankari (Tk), ",Salem,,Tamilnadu,637304,Dr.V.Shanmugam,73736 96999,v_shanmugam63@yahoo.com
I01983,CK College of Engineering and Technology,"Jayaram Nagar, Chellangkuppam,",Cuddalore,,Tamilnadu,607003,Dr.Arun V Parwate,74024 14100,principalckcet@yahoo.com
I01984,St. Peter's University,"College Road, Avadi, ",Chennai,,Tamilnadu,600054,Dr.S.Ravichandran,,vc@stpetersuniversity.org
I01986,Matrusri Engineering College,"#16-1-486, Saidabad, ",Hyderabad,,Telangana,500059,D.Hanumantha Rao,97032 30136,matrusri.principal@gmail.com
I01993,D.Y.Patil College of Engineering,"Sector No:29, Nigdi Pradhikaran, Near Akurdi Railway Station, Akurdi ",Pune,,Maharashtra,411044,Dr.Satishchandra V Joshi ,99755 86453 ,joshisv17@gmail.com
I01994,Shree Venkateshwara Hi-Tech Engineering College,,Gobi,"Erode District, ",Tamilnadu,638455,Dr.P.Thangavel ,97159 97777,svhecgobi@gmail.com
I01995,Don Bosco Institute of Technology,"B-40 BLDG10, IIT Powai,Premier Automobiles Road, Kurla(West),",Mumbai,,Maharashtra,400070,Dr.Prasanna Nambiar,98200 80079,"prasannanambiar@hotmail.com, principal@dbit.in"
I01996,Sai Spurthi Institute of Technology,"B.Gangaram, ",Sathupally,,Andhra Pradesh,507303,CH Vijaya Kumar,94911 09564,"sssit.principal@gmail.com, principal.sssit@gmail.com"
I01997,AISECT University,"Mendua (V), Bhojpur Post, Raisen District, ",Bhopal,,Madhya Pradesh,464993,Vijay Singh ,96699 00744,vijay@aisect.org
I01999,Malla Reddy Institute of Technology and Science,"Maisammaguda Dhulapally Hakimpet, ",Secunderabad,,Telangana,500014,Dr.K.Ravindra ,93481 61221,mrits_pril@yahoo.co.in
I02000,Babaria Institute of Technology,,Vadodara, ,Gujarat,391240,Dr.Pallavi Agarwal,90990 35991,principal.bit@bitseducampus.ac.in
I02001,Sunder Deep Group of Institutions,"NH-24, Delhi-Hapur Road, Dasna",Ghaziabad, ,Uttar Pradesh,201001,Dr.Anju Saxena ,,director_sdec@sunderdeep.ac.in
I02002,Roland Institute of Technology,"Surya Vihar, ",Berhampur,,Odisha,761008,Dr.Gunamani Jena ,87633 03010,principal@roland.ac.in
I02003,Kongunadu College of Engineering and Technology,,Trichy,,Tamilnadu,621215,Dr.R.Ashok,80125 05050,principalkncet@gmail.com
I02007,G.H. Raisoni Institute of Information Technology,"B-37/39, Shradha Park, MIDC Hingna Road, ",Nagpur,,Maharashtra,440028,Dr.Mamta Muthal ,98812 37717,mamta.muthal@raisoni.net
I02009,Gaya College,"Department of MCA/BCARampur, ",Gaya,,Bihar,823001,Dr.Shrikant Sharma,99340 98680,gcgprincipal@gmail.com
I02010,National Institute of Science and Technology,"Palur Hills, ",Berhampur,,Odisha,761008,Prof.Ajit Kumar Panda,94370 14147,akpanda62@hotmail.com
I02012,Xavier Institute of Engineering,"Mahim Causeway, Mahim, ",Mumbai,,Maharashtra,400016,Dr.Y.D.Venkatesh,98201 98029,ydvenkatesh@yahoo.com
I02013,Gandhi Institute for Technology,"Gramadiha, Po-Gangapada, Via-Janla Khurda, ",Bhubaneswar,,Odisha,752054,Dr.ME.Purushoththaman,78730 08101,principal@gift.edu.in
I02014,GKM College of Engineering and Technology,"G.K.M. Nagar, New Perungalathur, ",Chennai,,Tamilnadu,600063,Dr.N.Ramaraj,94450 01953,principal@gkmcet.net.in
I02017,Sir C.R. Reddy College of Engineering,,Eluru,"West Godavari District, ",Andhra Pradesh,534007,Dr.G.Sambasiva Rao,94909 58255,gutta39@yahoo.com
I02018,University V.O.C College of Enginering,,Tuticorin,,Tamilnadu,628008,Dr.G.Sakthinathan,99625 48982,gsakthinathan@annauniv.edu
I02019,Sri Aurobindo Institute of Technology,,Indore, ,Madhya Pradesh,453111,Dr.Durgesh Kumar Mishra,98260 47547,durgesh.mishra@sait.ac.in
I02022,ICFAI Foundation for Higher Education,"#156/157, Donthanapally, Shankarapalli Road,",Hyderabad,,Andhra Pradesh,501203,Dr.M.Sriniwasa Reddy ,99511 35222,director.fst@ifheindia.org
I02023,Chiranjeevi Reddy Institute of Engineering and Technology,"Susheela Nagar,Bellary Road, ",Anantapur,,Andhra Pradesh,515001,Dr.G.Ravindranath Kumar,91772 73342,ravindra_gr9@yahoo.co.in
I02025,Sree Buddha College of Engineering for Women,"Ayathil, ",Elavumthitta,,Kerala,689625,Dr.Somi Sebastian,97449 02273,somiseb@gmail.com
I02027,University of Jammu,"Post Graduate Department of Computer Science and Information Technology, ",Jammu,,Jammu & Kashmir,180006,Dr.Vibhakar Mansotra ,94191 03488,vibhakar20@yahoo.co.in
I02028,Institute of Management Studies,"NH-24, Adhyatmik Nagar,",Ghaziabad,,Uttar Pradesh,201010,Dr.B.P.Pethiya ,78383 82761-65,director.uc@imsgzb.com
I02029,DMI Engineering College,"Kumarapuram Road, ",Aralvaimozhi,"Kanyakumari District,",Tamilnadu,629301,Dr.A.Albert Raj,94434 50712,allbut_nice@yahoo.co.in
I02030,SRM UniversityRamapuram Campus,"SRM University,Bharathi Salai, Ramapuram,",Chennai,,Tamilnadu,600089,Dr.V.Subbiah Bharathi,94430 78792,dean.et@rmp.srmuniv.ac.in
I02032,Sri Bharathi Engineering College for Women,"Kaikkurichi,",Pudukkottai,,Tamilnadu,622303,Dr.S.Thilagavathi,97894 77606,princi.sbecw@gmail.com
I02038,GRT Institute of Engineering and Technology,"GRT Mahalakshmi Nagar,Chennai-Tirupathi Highway,",Tiruttani,"Tiruvallur District,",Tamilnadu,631209,Dr.S.Arumugam,89399 92754,arumugam.s@grt.edu.in
I02043,V.V. College of Engineering,"V.V.Nagar, Arasoor,",Tisaiyanvilai,"Tuticorin District,",Tamilnadu,627657,Dr.P.Padmanabhan,94420 30495,principal@vvcoe.org
I02044,Priyadarshini Engineering College,Chettiyappanur Village and Post ,Vaniyambadi,"Vellore District,",Tamilnadu,635751,Dr.P.Natarajan,94436 86151,natoviya@gmail.com/principal@priyadarshini.net.in
I02045,Modi Institute of Management and Technology,"Modi Educational Complex, Dadabari Extension,",Kota,,Rajasthan,324009,Dr.Nalini Kant Joshi,98291 36770,nkjoshi@modiedukota.org
I02046,Sethu Institute of Technology,"Pulloor, Kariapatti,",Virdhunagar,,Tamilnadu,626106,Dr.A.Senthil Kumar ,94435 64850,principal@sethu.ac.in
I02050,Hans Raj Mahila Maha Vidyalaya,"Mahatma Hans Raj Marg,",Jalandhar,,Punjab,144008,,,
I02053,T.John Institute of Technology,"#86/1, Kammanahalli, Gottieere,Bannerghatta Road,",Bangalore,,Karnataka,560083,Dr.S.Padmanabha,Cell:94482 66067,tjitprincipal@tjohncollege.com
I02055,Anurag College of Engineering,"Aushapur (V), Ghatkesar (M),",Ranga Reddy District,,Telangana,501301,Prof.M.V.Vasudevan,94408 63319,vasud123@rediffmail.com
I02056,The LNM Institute of Information Technology,"Rupa ki Nangal, Post-Sumel, Via-Jamdoli",Jaipur,,Rajasthan,302031,Prof.S.S.Gokhale,98286 73277,director@lnmiit.ac.in
I02057,Loyola ICAM College of Engineering and Technology,"Loyola College CampusNungambakkam,",Chennai,,Tamilnadu,600034,Dr.Jose Swaminathan,90038 25593,principal@licet.ac.in
I02058,East Point College of Engineering and Technology,"Jnana Prabha, Bidarahalli, Virgonagar Post, ",Bangalore,,Karnataka,560049,Dr.B.M.Satish,99169 06234,principal.epcet@eastpoint.ac.in
I02059,Guru Jambheshwar University of Science and Technology,Department of Computer Science and Engineering,Hisar,,Haryana,125001,Prof.Tankeshwar Kumar,,vc@gjust.org
I02060,University of Kashmir,"P.G Dept of Computer Sciences,Hazratbal,",Srinagar,,Jammu & Kashmir,190006,Prof.S.M.K.Quadri,94194 26555,quadrismk@hotmail.com
I02062,IES College of Engineering,"Chittilappilly Post, ",Thrissur,,Kerala,680551,Dr.M.K.Veerankutty ,94460 45220,veerankutty147@yhaoo.com
I02065,PSG Institute of Management,"Post Box No:1668, Peelamedu,Avinashi Road,",Coimbatore,,Tamilnadu,641004,Dr.R.Nandagopal,99524 27199,director@psgim.ac.in
I02066,Shri.S.S. Shasun Jain College for Women,"#3, Madley Road, Thiyagaraya Nagar, ",Chennai,,Tamilnadu,600017,Dr.B.Poorna ,87544 40181,poorna@shasuncollege.edu.in
I02067,Shivajirao S. Jondhle Polytechnic,"Opp.Railway Station, ",Asangaon,"Tal:Shahapur, Dist:Thane,",Maharashtra,421601,Geeta Khare ,93242 86390,geetaharshu@gmail.com
I02068,Lovely Professional University,"Jalandhar-Delhi G.T.Road, NH-1, ",Phagwara,,Punjab,144806,Dr.Hartinder S Johal ,88722 38882,hs.johal@lpu.co.in
I02070,CMR Institute of Technology,"#132, AECS Layout, IT Park Road,",Bangalore,,Karnataka,560037,Dr.L.Sudershan Reddy ,98454 72096,principal@cmrit.ac.in
I02071,Sankalchand Patel College of Engineering,"Sankalchand Patel Sahakar Vidyadham, Gandhinagar-Ambaji State Highway Link Road, Kamana Char Rasta, ",Visnagar,,Gujarat,384315,Dr.D.M.Patel,98252 07341,principal@spcevng.ac.in
I02072,Sri Ramakrishna Institute of Technology,"Pachapalayam,Perurchettipalayam,",Coimbatore,,Tamilnadu,641010,Dr.R.Joseph Xavier,98426 18005,principal@srit.org
I02073,Sree Sastha Institute of Engineering and Technology,,Chennai,,Tamilnadu,600123,Dr.R.Varatharajan,72999 05136,principalssiet@sasthagroup.com
I02074,National Institute of Technology,"Ashok Rajpath, ",Patna,,Bihar,800005,Prof.D.E.Asok,97714 02797,director@nitp.ac.in
I02083,St.Peter's College of Engineering and Technology,"College Road, Avadi,",Chennai,,Tamilnadu,600054,Dr.S.Selvan,97909 36889,drselvan@ieee.org
I02084,MIT Academy of Engineering,"Dehu Phata, Alande Devachi,",Pune,,Maharashtra,412105,Dr.Yogesh J Bhalerao,98230 15289,"ybhalerao@maepune.ac.in, principal@maepune.ac.in"
I02085,ITM Universe Vadodara,"Dhanora Tank Road, Paldi Village, Halol Highway,  ",Vadodara,,Gujarat,391510,Dr.Baba Pai ,94260 81344 ,director@itmuniverse.ac.in
I02087,Techno IndiaBatanagar,"B7-360 / New, Ward No:30, Putkhali, Maheshtala",Kolkata,,West Bengal,700141,Dr.Ankur Ganguly,86977 27463,principal@biemsindia.org
I02090,Anjuman College of Engineering and Technology,"Mangalwari Bazaar Road, Sadar, ",Nagpur,,Maharashtra,440001,Dr.Sajid Anwar,97302 26809,eng_acet@rediffmail.com
I02094,Pune Institute of Computer Technology,,Pune,,Maharashtra,411043,Dr.P.T.Kulkarni,99234 46356,"principal@pict.edu, ptkul@leee.org"
I02101,Sai Ganapathi Engineering College,"Gidijala (V), Anandapuram (M),",Visakhapatnam,,Andhra Pradesh,531173,Prof.Vejalla Ranga Rao,95816 82340,saiganapathi@hotmail.com
I02103,Vemana Institute of Technology,"#1, Mahayogi Vemana Road(100ft Road), 3rd Block,Koramangala,",Bangalore,,Karnataka,560034,Dr.Vijaya Simha Reddy.B.G,99723 99797,"principal.vemanait@gmail.com, bgvsreddy@gmail.com"
I02107,Amal Jyothi College of Engineering,"Kanjirappally, Koovappally Post,",Kottayam,,Kerala,686518,Dr.Z.V.Lakaparampil,94471 62763,principal@amaljyothi.ac.in
I02109,Institute of Business Management and Rural Development,"Vilad Ghat, P.O. M.I.D.C, ",Ahmednagar,,Maharashtra,414111,Dr.Arun M Ingle ,94223 54314,directoribmrd@gmail.com
I02112,K.S.Rangasamy College of Technology,"KSR Kalvi Nagar,",Tiruchengode,"Namakkal District,",Tamilnadu,637215,Dr.K.Thyagarajah,96294 22224,principal@ksrct.ac.in
I02114,Mata Gujri Womens College,"Civic Centre Marhatal,",Jabalpur,,Madhya Pradesh,482001,Dr.Vineeta Kaur Saluja,94258 03320,matagujri@rediffmail.com
I02116,Pankaj Laddhad Institute of Technology and Management Studies,"Opp.Toll Booth, Chikhli Road, ",Buldana,,Maharashtra,443001,Dr.Pradip M Jawandhiya,,principal_plit@rediffmail.com
I02118,SRM UniversityCity Campus Vadapalani,"#.1, Jawaharlal Nehru Road,Vadapalani,",Chennai,,Tamilnadu,600026,Dr.K.Duraivelu,95000 20898,dean.et@vdp.srmuniv.ac.in
I02120,Swarnandhra Inistitute of Engineering and Technology,"Seetharampuram, ",Narsapur,"West Godavari District,",Andhra Pradesh,534280,Dr.T.Madhu,98483 68054,principal.siet@gmail.com
I02122,Dhirajlal Gandhi College of Technology,,Salem,,Tamilnadu,636309,Dr.V.Murali Bhaskaran,94422 73721,dgctprin@gmail.com
I02125,Cambridge Institute of Technology,"K.R.Puram, ",Bangalore,,Karnataka,560036,Dr.B.V.Ravishankar,99455 17699,principal@citech.edu.in
I02126,R.M.K. College of Engineering and Technology,"R.S.M. Nagar, PuduvoyalGummidipoondi",Chennai,,Tamilnadu,601206,Dr.E.B.Perumalpillai,99946 20925,principal@rmkcet.ac.in
I02127,Tatyasaheb Kore Institute of Engineering and Technology,,Warananagar,,Maharashtra,416113,Dr.S.V.Anekar,77988 85025,principal@tkietwarana.org
I02128,Ahalia School of Engineering and Technology,"Ahalia Health, Heritage and Knowledge Village, ",Palakkad,,Kerala,678557,Dr.R.K.Suresh,94421 10920,prof.r.k.suresh@gmail.com
I02129,B.M.S. Institute of Technology and Management,"Dodaballapur Road,Avalahalli, Yelahanka, ",Bangalore,,Karnataka,560064,Dr.R.V.Ranganath,98450 86602,principal@bmsit.in
I02132,Vasireddy Venkatadri Institute of Technology,"Nambur (V), Pedakakani (M),",Guntur,,Andhra Pradesh,522508,Dr.Y.Mallikarjuna Reddy ,99493 59336,yennapusa@yahoo.com
I02134,Nagarjuna College of Engineering and Technology,"Venkatagiri Kote post,Devanahalli Taluk,",Bengaluru,,Karnataka,562164,Dr.S.G.Gopala Krishna ,94481 20241,principal@ncetmail.com
I02136,Dhaanish Ahmed College of Engineering,"Dhaanish Nagar, Padappai,",Chennai,,Tamilnadu,601301,Dr.V.Srinivasa Raghavan,75980 75707,principal@dhaanishcollege.co.in
I02137,Theni Kammavar Sangam College of Technology,,Theni,"Theni District, ",Tamilnadu,625534,Dr.D.Nagarathinam,9688514269,"principaltksct@gmail.com, tkscttheni@gmail.com"
I02143,Mody University of Science and Technology,,Lakshmangarh,Distt.Sikar,Rajasthan,332311,Prof.J.V.Desai,,dean.fet@mitsuniversity.a.cin
I02145,De Paul Institute of Science and Technology,"De Paul Nagar,",Angamaly South,"Ernakulam District,",Kerala,683573,Rev.Dr.Fr.V.C.James Chelapurath ,95443 51988,principal@depaul.edu.in
I02146,K.S.R Institute for Engineering and Technology,"K.S.R. Kalvi Nagar, ",Tiruchengode,"Namakkal District, ",Tamilnadu,637215,Dr.M.Venkatesan,99444 56056,principal@ksriet.ac.in
I02148,Government Girls Polytechnic,"Rasoolabad Raod, Teliyarganj, ",Allahabad,,Uttar Pradesh,221004,Mr.Sandeep Kumar Singh,94527 75032,ggpald@rediffmail.com
I02150,Chennai Institute of Technology,"Sarathy Nagar, Kundrathur, ",Chennai,,Tamilnadu,600069,Mr.P.Sriram,90940 37081,chairman@citchennai.net
I02152,Dwarkadas J.Sanghvi College of Engineering,"Plot No. U-15, JVPD Scheme, Bhaktivedanta Marg, Vile Parle-West",Mumbai,,Maharashtra,400056,Dr.Hari Vasudevan,98214 64696,hari.vasudevan@djsce.ac.in
I02153,KJ College of Engineering and Management Research,"S.No 25 and 27, Kondhwa-Saswad Road, Pisoli, Near Bopdeo Ghat, Taluka Haveli, District,",Pune,,Maharashtra,411048,Dr.Sanjeev Jagannath Wagh,98220 18465,sjwagh1@yahoo.com
I02156,Gandhi Engineering College,"Madanpur Post, ",Bhubaneswar,,Odisha,752054,Prof.Manas Ranjan Panda,99370 90110,manas.panda@gandhi.ac.in
I02157,College of Engineering Roorkee,,Roorkee,,Uttarakhand,247667,Dr.V.K.Jain,99976 92191,drvkjain72@gmail.com
I02161,KLE Dr.M.S Sheshgiri College of Engineering and Technology,"Angol Main Road, Udyambag, ",Belgaum,,Karnataka,590008,Dr.Basavaraj G. Katageri,94482 21813,"basavaraj971@gmail.com, principal@klescet.ac.in"
I02163,Government College of Engineering and Ceramic Technology,"#73, Abinash Chandra Banerjee Lane,",Kolkata,,West Bengal,700010,Dr.Saikat Maitra,98311 30882,maitrasaikat@rediffmail.com
I02166,OM Engineering College,,Junagadh,,Gujarat,362310,Prof.Chirag N. Jasani,98986 32410,director@omeducation.edu.in
I02167,Malabar College of Engineering and Technology,"Desamangalam, Pallur Post,Cheruthuruthy,",Thrissur,,Kerala,679532,Dr.V.Nandanan,94472 94687,dr_nandanan@yahoo.com
I02168,Hi-Tech Institute of Technology,,Khordha,,Odisha,752057,Dr.Rabi Narayan Satpathy,94375 71307,rns_principal@yahoo.co.in
I02169,Deogiri Institute of Engineering and Management Studies,"Railway Station Road, ",Aurangabad,,Maharashtra,431005,Dr.Ulhas Shiurkar,90110 78272,shiurkar@gmail.com
I02175,Albertian Institute of Science and Technology,"Technical Campus, School of Engineering, Archbishop Angel Mary Nagar, Kalamassery, ",Kochi,,Kerala,686022,Dr.K.E.George,94464 47851,principal@aisat.ac.in
I02176,The NorthCap University,Sector 23-A ,Gurgaon,,Haryana,122017,Brig.S.K.Sharma,98115 91003,sksharma@ncuindia.edu
I02177,Maharashtra Institute of Technology,"Satara Road, Beed Bypass Road, ",Aurangabad,,Maharashtra,431028,Dr.Santosh P Bhosle,98227 68246,santosh.bhosle@mit.asia
I02180,RIMT Institute of Engineering and Technology,"RIMT Campus: Near Floating Restaurant, Ambala-Ludhiana NH-1, Sirhind Side, ",Mandi Gobindgarh,,Punjab,147301,Dr.Harsh Sadawarti,98141 76988,"harshsada@yahoo.com, directorrimt@rimt.ac.in"
I02181,KPR Institute of Engineering and Technology,"Kollupalayam, Arasur, ",Coimbatore,,Tamilnadu,641407,Dr.K.Bommanna Raja,98433 28082,principal@kpriet.ac.in
I02182,GITAM School of Technology,,Doddaballapur,,Karnataka,561203,Prof.K.Vijaya Bhaskar Raju,97390 20602,director_blrcampus@gitam.edu
I02183,St.Joseph's Institute of Technology,"Jeppiaar Nagar, Old Mamallapuram Road,",Chennai,,Tamilnadu,600119,Dr.P.Ravichandran,98400 09245,ravichan3064@gmail.com
I02189,M.S. Ramaiah Institute of Technology,"Vidya Soudha, M.S. Ramaiah Nagar, MSRIT Post,",Bangalore,,Karnataka,560054,Dr.S.Y.Kulkarani,,principal@msrit.edu
I02192,KIIT University,"School of Computer Engineering,Campus-15, KIIT University",Bhubaneswar,,Odisha,751024,Dr.Sasmitarani Samanta,94370 35188,registrar@kiit.ac.in
I02193,Delhi Institute of Advanced Studies,"Plot No 6, Sector-25, Rohini",New Delhi,,Delhi ,110085,Dr.N.Malati,98687 65357,dias@dias.ac.in
I02194,Panipat Institute of Engineering and Technology,"70, Milestone, GT Road, Samalkha",Panipat,,Haryana,132102,Dr.K.K.Paliwal,93546 13020,director@piet.co.in
I02197,Vivekananda Institute of Professional Studies,"AU-Block (Outer Ring Road), Pitampura, ",Delhi,,Delhi,110034,Dr.Supriya Madan,98113 02688,
I02201,Himachal Pradesh University,"Department of Computer ScienceSummer Hill, ",Shimla,,Himachal Pradesh,171005,Prof.A.J.Singh,94184 84855,aj.hpucs@gmail.com
I02206,Canara Engineering College,"Jodumarga Post office, Benjanapadavu, Bantwal Taluk Dk, ",Mangalore,,Karnataka,574219,Dr.Ganesh V. Bhat,87621 15169,ganeshvbhat@yahoo.com
I02207,Bhaskar Engineering College,"Yenkapally, Moinabad MandalR.R. District, ",Hyderabad,,Andhra Pradesh,500075,Dr.D.Subramanyam,80080 96774,principal@bec.edu.in
I02208,Maeer’s Mitsom College,"S.No:123, ""Saraswati Vishwa Building""A Wing, 5th Floor, Paud Road, Kothrud, ",Pune,,Maharashtra,411038,Dr.Ravikumar M Chitnis,98500 41773,principal@mitsomcollege.com
I02209,Symbiosis Centre for Distance Learning,"Symbiosis Bhavan,1065-B, Gokhale Cross Road, Model Colony,",Pune,,Maharashtra,411016,Dr.Swati Mujumdar,020-66211000,director@scdl.net
I02210,New Prince Shri Bhavani College of Engineering and Technology,"Vengaivasal Main Road, Gowrivakkam,",Chennai,,Tamilnadu,600073,Dr.V.Kanakasabai,9443872755,vkprincipal@yahoo.com
I02212,Sree Vidyanikethan Institute of Management,"Sree Sainath Nagar,",Tirupati,,Andhra Pradesh,517102,Dr.B.Mohan,91609 99965,svimd@vidyanikethan.edu.in
I02215,Gandhi Institute of Engineering and Technology,"DistirctRayagada,",Gunupur,,Odisha,765022,Dr.M.Muralidhara Rao,73810 52100,principal@giet.edu
I02216,Mahatma Gandhi Institute of Technology,"Chaitanya Bharati Post, Kokapet,",Hyderabad,,Andhra Pradesh,500075,Dr.G.Chandra Mohan Reddy,,principal@mgit.ac.in
I02218,VJV College of Technology,"Vill and Post Ramnagar, Tehsil-Alapur, ",Ambedkar Nagar,,Uttar Pradesh,224181,Mr.Anjani Kumar Verma,94553 52233,akvmca@gmail.com
I02219,Lakireddy Bali Reddy College of Engineering,"L.B.Reddy Nagar,",Mylavaram,"Krishna District,",Andhra Pradesh,521230,Dr.K.Appa Rao,99482 63890,principal@lbrce.ac.in
I02220,SCAD College of Engineering and Technology,"SCAD Nagar, Cheranmahadevi, ",Tirunelveli,,Tamilnadu,627414,Dr.P.Venkumar,99429 78676,principal@scadengineering.ac.in
I02222,L.J. Institute of Computer Application,"NR Nagdev Kalyan Mandir, Sanand Cross Road, S.G. Highway, ",Ahmedabad,,Gujarat,382210,Prof.Dipti Nirav Chudgar,99798 86640,dipti_chudgar@yahoo.co.in
I02225,Institute of Professional Excellence and Management,"A-13/1, S.S.G.T. Road, Industrial Area, NH-24 By Pass, ",Ghaziabad,,Uttar Pradesh,201010,Dr.A.S.Malhotra,99104 91466,"as.malhotra@ipemgzb.ac.in, malhotraas@hotmail.com"
I02227,Army Institute of Technology,,Pune,,Maharashtra,411015,Dr.V.P.Gosavi,98810 66802,principalt@aitpune.edu.in
I02230,Roever College of Engineering and Technology,"Elambalur Post,",Perambalur,,Tamilnadu,621212,Dr.Ganesh Babu,97509 70177,profbgb@gmail.com
I02231,Shri Ramdeobaba College of Engineering and Management,"Ramdeo Tekdi, Gittikhadan,Katol Road, ",Nagpur, ,Maharashtra,440013,Dr.R.S.Pande,98222 24468,principal@rknec.edu
I02233,JNTUK University College of Engineering,"Jawaharlal Nehru Technological University KakinadaDwarapudi, gotlam(M),",Vizianagaram,,Andhra Pradesh,535003,Dr.G.Yesu Ratnam,98483 73238,geddadayesu@yahoo.co.in
I02234,N.S.N. College of Engineering and Technology,"N.S.N. Kalvi Nagar,Manalmedu,",Karur,,Tamilnadu,639003,Dr.M.Sivaraja,98429 96707,principal2327@gmail.com
I02235,Sumathi Reddy Institute of Technology for Women,"Ananthasagar(V), Hasanparthy(M),",Warangal, ,Andhra Pradesh,506371,Dr.N.Sambasiva Rao,88855 09495,snandam@gmail.com
I02237,AMET University,"#135, East Coast Road, Kanathur, ",Chennai,,Tamilnadu,603112,Dr.P.Saravanan,94448 93379,registrar@ametuniv.ac.in
I02239,JECRC University,"Plot No.IS-2036 to 2039,Ramchandrapura, Near Mahatma Gandhi Hospital",Jaipur,,Rajasthan,303905,Dr.G.L.Sharma,99829 99567,gl.sharma@jecrcu.edu.in
I02240,Birla Institution of Technology,,Jaipur,,Rajasthan,302017,Dr.Abhinav Dinesh ,99280 75104,abhinavdinesh@bitmesra.ac.in
I02241,Hindustan College of Science and Technology,"Agra-Delhi Highway, NH-2, Farah, ",Mathura, ,Uttar Pradesh,281122,Dr.R.K.Upadhyay,75001 00047,director.hcst@sgei.org
I02242,Chitkara University,"Barotiwala, ",Distt Solan,,Himachal Pradesh,174103,Dr.Varinder S. Kanwar,98059 65401,registrar@chitkarauniversity.edu.in
I02243,SASTRA University,"Tirumalaisamudram,",Thanjavur,,Tamilnadu,613401,Dr.G.Bhalachandran,99449 92201,registrar@sastra.edu
I02245,Srinivasa Institute of Engineering and Technology,"NH-216,Cheyyeru(V), Katreinakona Mandal, ",Amalapuram,,Andhra Pradesh,533222,Dr.M.Sreenivasa Kumar,94407 57039,msk2020@gmail.com
I02246,College of Engineering Cherthala,"Pallippuram Post, ",Cherthala,"Alappuzha,",Kerala,688541,Dr.M.G.Mini,85470 05038,principal@cectl.ac.in
I02249,Dr. D.Y Patil School of Engineering and Technology,"Dr. D.Y Patil Knowledge City,Charholi (Bk), Via Lohgaon, ",Pune,,Maharashtra,412105,Dr.Uttam Kalwane,99224 46083,ubkalwane@dypic.in
I02251,Al-Ameen Institute of Information Sciences,"Hosur Main Road, Opposite Lalbagh Main Gate,",Bangalore,,Karnataka,560027,Prof.Nasir S.F.B,98450 22287,nasirsfb@aiis99_edu.org
I02252,Sri Indu College of Engineering and Technology,"Main Road, Sheriguda, ",Ibrahimpatam,"Ranga Reddy District,",Andhra Pradesh,501510,Dr.P.Mallesham ,93473 63999,mallesham_p@sify.com
I02253,Anna University Regional Centre Tiruchirappalli,"BIT Campus, Mandaiyur, ",Tiruchirappalli,,Tamilnadu,620024,Dr.S.Muttan,,muthan_s@annauniv.edu
I02254,Chaitanya Bharathi Institute of Technology,"Chaitanya Bharathi P.O., CBIT Campus, Gandipet, Kokapet(V), Rajendranagar(M),Ranga Reddy District,",Hyderabad,,Andhra Pradesh,500075,Dr.B.Chennakesava Rao,,principal@cbit.ac.in
I02256,Chaitanya Bharathi Institute of Technology,"Vidya Nagar,",Proddatur,"YSR Kadapa District,",Andhra Pradesh,516360,Dr.Pandrngan Ravi,77996 67007,"ravi_6971@yahoo.co.in, cbitpdtr@gmail.com"
I02257,Sant Longowal Institute of Engineering and Technology,,Longowal,"District Sangrur,",Punjab,148106,Pof.Sunil Pandey ,94649 79500,profsunilpandey@gmail.com
I02260,Global Academy of Technology,"Rajarajeshwarinagar,Ideal Homes Township,",Bangalore,,Karnataka,560098,Dr.Narendra Viswanat,92431 07131,narendraviswanath@gat.ac.in
I02261,Manyawar Kanshi Ram Engineering College of Information Technology,"Tanda Road, ",Ambedkar Nagar,,Uttar Pradesh,224122,Dr.K.S.Verma,94150 41790,directorknit2010@gmail.com
I02265,Ramrao Adik Institute of Technology,"Dr. D.Y. Patil Vidyanagar,Sector-7, Nerul, ",Navi Mumbai,,Maharashtra,400706,Dr.Leena Ragha ,99872 97843,hodcse@rait.ac.in
I02268,Ashoka Center for Business and Computer Studies,"S.N:8/1B/2, Ashoka Marg, Wadala, ",Nashik,,Maharashtra,422006,Dr.Praveena S. Muley,77220 32362,principal.acbcs@aef.edu.in
I02269,Indira Gandhi Delhi Technical University for Women,"Kashmere Gate,",New Delhi,,New Delhi,110006,Dr.S.R.N.Reddy,98101 01742,rammallik@yahoo.com
I02270,Amrita School of Engineering,"Kasavanahalli, Carmelaram Post,",Bangalore,,Karnataka,560035,Dr.S.G.Rakesh,98454 42229,"sg_rakesh@blr.amrita.edu, principal@blr.amrita.edu"
I02271,Graphic Era Hill University,"#600, Bell Road, Cement Town,",Dehradun,,Uttarakhand,248002,Dr.Sanjay Jasola,,vcgehu@gmail.com
I02272,ABES Institute of Technology,"ABES IT Group of InstitutionsCampus-2, 19th Km Stone, NH-24Vijay Nagar, ",Ghaziabad,,Uttar Pradesh,201009,Dr.Bhavesh Kumar Chauhan,97110 60919,director@abesit.in
I02276,B.L.D.E.A's V.P. Dr.P.G. Halakatti College of Engineering and Technology,"Adarsh Nagar, ",Bijapur,,Karnataka,586103,Dr.V.P.Huggi,98457 28646,principal@bldeacet.ac.in
I02278,Chandigarh University,,Gharuan-Mohali,,Punjab,140413,Dr.Nitesh Sureja,98253 13936,director@omeducation.edu.in
I02279,Rajeev Gandhi Memorial College of Engineering and Technology,"Nerawada 'X' Roads,",Nandyal,"Kurnool District,",Andhra Pradesh,518501,Dr.T.Jayachandra Prasad,94402 90470,jp.talari@gmail.com
I02280,Sree Sastha College of Engineering,"Chembarambakkam,",Chennai,,Tamilnadu,600123,Dr.D.Praveena Anjelin,97910 20128,praveena.amutharasan@gmail.com
I02281,Dr.Pauls Engineering College,,Villupuram,,Tamilnadu,605109,Dr.Y.R.M.Rao,97866 55812,dryrmrao@rediffmail.com
I02282,Sudheer Reddy College of Engineering and Technology for Women,"Keshapur Road, Bardhipur(V), Dichpally(M),",Nizamabad,,Andhra Pradesh,503175,Dr.K.S.Srikanth,94400 38239,machender39@gmail.com
I02283,L.B.S. Institute of Technology for Women,"Poojappura, ",Thiruvananthapuram,,Kerala,695012,Dr.K.C.Raveendranatha,94474 46911,principal@lbsitw.ac.in
I02284,R.V.S. Educational Trusts Group of Institutions,"R.V.S. Nagar, Karur Road,",Dindigul,,Tamilnadu,624005,Dr.R.Saravanan,04551-227229,directorrvsetgi@rvsgroup.com
I02285,Sivaji College of Engineering and Technology,,Manivila,"Kanyakumari District,",Tamilnadu,629170,Dr.T.R.Sethuraman,,sivajicollege@gmail.com
I02286,GD Goenka University,,Gurgaon, ,Haryana,122103,Dr.Sudeep Sharma,85274 43844,sudeep.sharma@gdgoenka.ac.in
I02288,Einstein Academy of Technology and Management,"AT: Baniatangi, P.O: BajpurDist: Khurda, ",Bhubaneswar,,Odisha,752060,Dr.Niranjan Mishra,98611 81127,principal@eatm.in
I02289,Matrushri L.J Gandhi (Bakorvala) BCA College Modasa,"The M.L.Gandhi Hgher Edu.ScoietyModasa Dhamsura Road,DC College Campus,",Modasa Dist: Arvalli,,Gujarat,383315,Dr.Bhadresh Kumar P. Patel,94285 55956,prof.bhadresh@gmail.com
I02290,Patna Women's College,"Bailey Road, ",Patna,,Bihar,800001,Sr.Doris D Souza,98350 23025,dorisdsouza76@gmail.com
I02292,Babulal Tarabai Institute of Research and Technology,"NH-26,Narshinghpur Road, Sironja, ",Sagar,,Madhya Pradesh,470228,Dr.S.V.S.Chouhan,99770 29260,tpc.btirt@gmail.com
I02293,Bharati Vidyapeeth’s College of Engineering for Women,,Pune, ,Maharashtra,411043,Prof.Dr.H.V.Vankudre,98601 76909,coewpune@bharathvidyapeeth.edu
I02294,Bharat Institute of Technology and Science for Women,"Mangalpally Village, ",Ibrahimpatnam,"Ranga Reddy District,",Andhra Pradesh,501510,Dr.K.Chenna Keshava Reddy,,principalbitsw@rediffmail.com
I02295,Noble Institute of Education Society,"Behind Axis Bank, 1st Floor, Near Konappana Agrahara Bustop, Electronics City, ",Bangalore,,Karnataka,560100,Ms.B.Roopa,95357 69611,roopablrao@gmail.com
I02296,Muthurangam Government Arts College,"Oteri Road,",Vellore, ,Tamilnadu,632002,Dr.M.A.Jayaraj,,
I02297,Arignar Anna Govt. Arts College for Women,,Walajapet,"Vellore District,",Tamilnadu,632513,Dr.M.Beatrice Margaret,94421 10075,beafrice_margaret@hotmail.com
I02299,Nehru Memorial College,"Puthanampatti, ",Tiruchirappalli,,Tamilnadu,621007,Dr.T.Jayaprakasam,94428 69061,jpprincipal.nmc@gmail.com
I02300,G.H. Raisoni Institute of Engineering and Technology for Women,"B-37-39/1, Shradha Park,   Hariganga Hingna Road, ",Nagpur,,Maharashtra,440016,Dr.V.K.Chandrakar,98503 60709,vinod.chandrakar@raisoni.net
I02302,Sri Kanyaka Parameswari Arts and Science College for Women,"No:1, Audiappa Street,  ",Chennai, ,Tamilnadu,600001,Dr.T.Mohanashree,99400 98713,srikanyaka99@gmail.com
I02303,Ramco Institute of Technology,"North Venganallure Village,",Rajapalayam,,Tamilnadu,626117,Dr.R.V.Mahendra Gowda,99942 27916,principal@ritrjpm.ac.in
I02305,Bharati Vidyapeeth Institute of Management and Information Technology,"Sector-8, C.B.D-Belapur, ",Navi Mumbai,,Maharashtra,400614,Dr.D.Y.Patil,98204 24924,director@bvimsr.com
I02306,Gayatri Vidya Parishad College of Engineering (Autonomous),"D.No:9-164, Madhurawada, ",Visakhapatnam,,Andhra Pradesh,530048,Prof.A.B.Koteswara Rao,88850 43401,principal@gvpce.ac.in
I02307,Vadodara Institute of Technology,,Vadodara,,Gujarat,391510,Dr.Jayeshkumar S Patel,97241 87139,vierorgin@yahoo.com
I02309,KCG College of Technology,"Rajiv Gandhi Salai,Karapakkam, ",Chennai,,Tamilnadu,600096,Dr.T.Rengaraja,94441 42611,principal@kcgcollege.com
I02310,Muffakham Jah College of Engineering and Technology,"Mount Pleasant Road No: 3, Banjara Hills, ",Hyderabad,,Telangana,500034,Dr.Basheer Ahmed,98494 55423,principal@mjcollege.ac.in
I02311,Sathyabama University,"Jeppiaar Nagar, Rajiv Gandhi Salai, ",Chennai,,Tamilnadu,600119,Dr.Mariazeena Johnson,,directors@sathyabamauniversity.ac.in
I02312,Srinivasa Ramanujan CentreSastra University,,Kumbakonam,,Tamilnadu,612001,Prof.K.G.Raghunathan ,94442 41551 ,raghunathan@src.sastra.edu
I02312,Srinivasa Ramanujan CentreSastra University,,Kumbakonam,,Tamilnadu,612001,Prof.K.G.Raghunathan ,94442 41551 ,raghunathan@src.sastra.edu
I02313,B.V.V.S. Polytechnic (Autonomous),,Bagalkot,,Karnataka,587101,Dr.G.B.Danashetti,94488 97256,principal.bvvsp@gmail.com
I02315,Malla Reddy Engineering College for Women,"Maisammaguda Village,Dhulapally Post, Via Kompally ",Secunderabad,,Telangana,500100,Dr.Y.Madhaveelatha,81067 14901,madhaveelatha2009@gmail.com
I02316,Narayana Engineering College,"A.K. Nagar, Muthukur Road, ",Nellore,,Andhra Pradesh,524002,Dr.G.Jagadeeswara Reddy,99123 55501,principalnecn@gmail.com
I02317,Dr. Moonje Institute,"Rambhoomi Bhonsala Military College Campus, Gangapur Road, ",Nashik,,Maharashtra,422005,Dr.Ashok Agarwal,95271 38092,mca@moonjeinstitute.com
I02318,Late G N Sapkal College of Engineering,"Kalyani Hills, Anjaneri-Wadholi, Trimbakeshwar Road, ",Nashik,,Maharashtra,422213,Dr.S.B.Bagal,98228 49307,gns_engineering@sapkalknowledgehub.org
I02319,Bapuji Institute of Engineering and Technology,"Post Box No:325, Shamnur Road, ",Davangere,,Karnataka,577004,Dr.K.S.Basavarajappa,98444 88220,principal@bietdvg.edu
I02320,K.V.M. College of Engineering and Information Technology,"K.V.M. Trust, K.V.M. College Road,Kokkothamangalam Post, ",Cherthala,"Alappuzha District,",Kerala,688583,Dr.V.V.Pyarelal,99955 55112,kvmceit@gmail.com
I02322,Sri Sivani College of Engineering,"Chilakapalem Junction,",Srikakulam,,Andhra Pradesh,532402,Dr.B.Sadasivarao,99080 54453,principal@srisivani.com
I02324,Dhanalakshmi College of Engineering,"Dr.V.P.R Nagar, Manimangalam, Tambaram,",Chennai, ,Tamilnadu,601301,Dr.S.Siva Subramaniyan,98656 02770,principal.dcengg@gmail.com
I02332,Institute of Management Studies,"A-8B, IMS Campus, Sector-62, ",Noida,,Uttar Pradesh,201302,Dr.Kamal Jit Singh Anand,97175 75300,director@imsnoida.com
I02333,Sri Krishna Institute of Technology,"#29, Hesaraghatta Road,  Chimney Hills, Chikkabanavara Post, ",Bangalore,,Karnataka,560090,Dr.A.Manjunatha,94482 78564,principal@skit.org.in
I02335,Nandha College of Technology,"Chennaimalai, Palayam Road, Pitchandam Palayam (Post)",Erode,,Tamilnadu,638052,Dr.R.Nallusamy,73737 14703,principal@nandhatech.org
I02337,Alpha College of Engineering and Technology,,Bahour,,Puducherry,607402,Dr.M.Sundhararajan,94447 69870,msrajan69@gmail.com
I02339,Seth Jai Parkash Mukand Lal Institute of Engineering and Technology,"(JMIT),Jmit Village, Chhotabans, Radaur",Yamuna Nagar,,Haryana,135133,Dr.Sanjeeev Kumar Garg,82959 05206,director@jmit.ac.in
I02340,Loyola Institute of Technology,"Palanchur, Nazerethpet Post, ",Chennai,,Tamilnadu,600123,Dr.Sujatha Anand,98406 96274,"litprincipaloffice@gmail.com, loyolaoffice@gmail.com"
I02344,GLS (IandRKD) Institute of Computer Application,"GLS Campus, Opp.Law Garden, Ellisbridge, ",Ahmedabad,,Gujarat,380006,Dr.R.P.Soni,93761 80747,rpsoni@gujaratlawsociety.org
I02345,St.Martin's Engineering College,"Dhulapally, Quthbullapur,",Hyderabad,,Telungana,500014,Dr.C.Venkataramana Reddy,90004 44578,principal.smec@gmail.com
I02346,K.R. Mangalam University,"Sohna Road, Delhi-NCR,",Gurgaon,,Haryana,122103,Dr.Mukesh Parashar,0124-2867805,registrar@krmangalam.edu.in
I02347,Sandip Institute of Technology and Research Centre,"Mahiravani, Trimbak Road,",Nashik,,Maharashtra,422213,Dr.Sanajy T. Gandhe,95454 53201,principal@sitrc.org
I02349,Bharat Institute of Engineering and Technology,"Mangalpally (V), Ibrahimpatnam( M), ",Hyderabad,"Ranga Reddy District,",Telangana,501510,Mr.V.Satyanaryana,98666 28493,satyav@biet.ac.in
I02350,G H Patel College of Engineering and Technology,"Bakrol Road, Vallabh Vidyanagar, ",Anand,,Gujarat,388120,Dr.Himanshu B Soni,,principal@gcet.ac.in
I02352,Shree L. R. Tiwari College of Engineering,"Kanakia Park, Mira Road(East),",Thane,,Maharashtra,401107,Dr.S.Ram Reddy ,98208 97360,sramreddy25@gmail.com
I02353,NIIT University,"H-8 Delhi-Jaipur Highway, District Alwar ",Neemrana,,Rajasthan,301705,Prof.V.S.Rao,90102 02828,vsrao@niituniversity.in
I02354,Walchand College of Engineering,"A/P: Vishrambag,",Sangli,,Maharashtra,416415,Dr.G.V.Parishwad,98228 71801,director@walchandsangli.ac.in
I02355,Smt. Chandramaniben Zaverchand Meghji Gosrani BCA College,"B.K.Shah Edu. Complex, Naer Oshwal Circle, Indira Gandhi Marg,",Jamnagar,,Gujarat,361004,Smt. Hetal G Savla,94275 74180,hetal.savla@oshwaleducationtrust.org
I02356,Pacific College of Engineering,"Pacific Hills, Pratap Nagar Ext,  Airport Road, ",Udaipur,,Rajasthan,313001,Prof.Satyendra Kumar Sharma,93521 18885,director@pacific-ce.ac.in
I02357,Shrimati Indira Gandhi College,"College Road, Chatram Bus Stand, ",Tiruchirappalli,,Tamilnadu,620002,Dr.S.Vidhyalakshmi,94875 16089,vidhyasigc@gmail.com
I02359,"Padmashree Dr. D.Y. Patil Institute of Engineering, Management and Research","Sector No:29, PCNTDA, Ravet, Nigdi Pradhikaran, Akurdi",Pune,,Maharashtra,411044,Dr.Anupama V Patil,99236 02495,anupamav4@gmail.com
I90257,Gujarat Vidyapith,"Near Income Tax office, Ashram Road,",Ahmedabad,,Gujarat,380014,Prof.Ajay Parikh,94265 87062,hodcs@gujaratvidyapith.org
I90370,Meenakshi Sundararajan Engineering College,"#363, Arcot Road, Kodambakkam,",Chennai,,Tamilnadu,600024,Dr.K.S.Babai,98410 70913,principal@msec.edu.in
I90425,RVS College of Engineering and Technology,"RVS Nagar, Karur Road, ",Dindigul,,Tamilnadu,624005,Dr.S.Harikrishnan ,98424 49284,sree_krishnan2007@gmail.com
I90551,Jamal Mohamed College,"Department of Computer Science, ",Tiruchirapalli,,Tamilnadu,620020,Dr.S.Mohamed Salique,94437 66432,princi@jmc.edu
I90565,Shri Vaishnav Institute of Technology and Science,,Indore,,Madhya Pradesh,453331,Dr.Upinder Dhar,98290 89526,vc@svvv.edu.in
I90613,Institute of Technology and Science,"Mohan Nagar, ",Ghaziabad,,Uttar Pradesh,201007,Sh.B.K.Arora,98100 42299,bkarora@its.edu.in
I90648,Coimbatore Institute of Technology,"Civil Aerodrome Post, ",Coimbatore,,Tamilnadu,641014,Dr.V.Selladurai,96293 22277,principal@cit.edu.in
I90686,Misrimal Navajee Munoth Jain Engineering College,"(MNM Jain Engineering College )""Guru Marudhar Kesari Building""Jyothi Nagar, Thorapakkam, ",Chennai,,Tamilnadu,600097,Dr.C.C.Christopher,044-24962272,principal@mnmjec.ac.in
I90736,Fr.Conceicao Rodrigues College of Engineering,"Fr.Agnel Ashram. Bandstand, Bandra, ",Mumbai,,Maharashtra,400050,Dr.Srija Unnikrishnan,98690 05457,srija@frcrce.ac.in
I90741,Periyar Centenary Polytechnic College,"Periyar Nagar, Vallam, ",Thanjavur,,Tamilnadu,613403,Dr.R.Malliga,94422 58196,principal@periyarpolytech.com
I90890,"S.N.D.T. Women's University, P.G. Department of Computer Science","IV Floor, UMIT Building Sir vithaldasVidyavihar, Juhu Tara Road, Santacruz (West), ",Mumbai,,Maharashtra,400049,Dr.Ganesh Mokinda Magar,94233 65143,drgmmagar@gmail.com
I90932,Mookambigai College of Engineering,"Srinivasa Nagar, Kalamavur, ",Keeranur,"Pudukkottai District,",Tamilnadu,622502,Mr.D.Ravi,99449 21188,pdkmce@gmail.com
I91372,Sri Venkateswara College of Engineering,"Post Bag No:3, Pennalur,",Sriperumbudur,,Tamilnadu, 602105,Dr.R.Parthiban,98843 55504,parthi@svce.ac.in
M10001,SAM Group of Institution,"#1, Ashoka Garden, Near Prabhat Petrol Pump,",Bhopal,,Madhya Pradesh,462021,Dr.Harpreet Singh Saluja,98260 34400,harpreet.saluja786@gmail.com
M10002,Stanley College of Engineering and Technology for Women,"H.No:5-78 to 82, Chapel Road, ABIDS,",Hyderabad,,Telangana,500001,Dr.V.Anuradha,87900 01992,principal@stanley.edu.ni
M10003,Alpha College of Engineering,"No:30/2, Hennur Bagalur Road, Kannur Post,",Bangalore,,Karnataka,560077,Dr.T.Krishna Rao,97437 11190,krishnaraot@rediffmail.com
M10004,Thapar University,"Post Box No-32, ",Patiala,,Punjab,147004,Dr.Deepak Garg,98155 99654,dgarg@thapar.edu
M10005,Global Institute of Management and Emerging Technology,,Amritsar,,Punjab,143501,Dr.Rajesh Goel,99157 57930,directorgimet@globalinstitutes.org
M10006,Babasaheb Gawde Institute of Technology,,Mumbai,,Maharashtra,400008,Dilip Jaiswal,92243 38795,principal@mmbgit.org
M10007,Sri Indu College of Engineering and Technology,"Main Road, Sheriguda (V), Ibrahimpatanam (M), R.R. Dist,",Hyderabad,,Telangana,501510,Dr.I.Sathyanarayana,93471 87999,isnmechprofessor@gmail.com
M10008,Hirasugar Institute of Technology,"Nidasoshi, Taq: Hukkeri, Belgaum",Bangalore,,Karnataka,591236,Dr.N.C.Hiremath,98408 49331,principal@hsit.ac.in
M10009,C.S.I. Institute of Technology,,Thovalai,,Tamilnadu,629302,Dr.R.Christupaul,,principal.csiit@gmail.com
M10010,Providence College for Women,"Spring Field Post,",Coonoor,"The Nilgiris, ",Tamilnadu,643104,Dr.Sr.Sheela.V.J,,providencecnr@gmail.com
M10011,Sahrdaya College of Engineering and Technology,"Post Box No-17, Kodakara Post,",Thrissur,,Kerala,680683,Prof.K.T.Joseph,94472 25599,josephkanichai@gmail.com
M10012,Vignan’s Foundation for Science Technology and Research University,"Vadlamudi Village, (M) Chebrolu,",Guntur,,Andhra Pradesh,522213,Comde.M.S.Raghunathan,,registrar@vignanuniversity.org
M10013,Malwa Institute of Science and Technology,"Village Limbodagari, Behind Aurobindo Hospital, Sanwer Road,",Indore,,Madhya Pradesh,453111,Dr.G.S.Sharma,99779 95076,principal@mistindore.com
M10014,Maharaja Surajmal Institute,"C-4 Janak Puri, ",New Delhi,,New Delhi,110058,Dr.Rajesh Kumar Tyagi,98919 36051,director@msi-ggsip.org
M10015,Santhigiri College of Computer Sciences,"Santhigiri College, Vazhithala, Thodupuzha, ",Idukki Dt,,Kerala,685583,Fr.Paul Parakattel,94462 12911,pparakattel@gmail.com
M10016,Malla Reddy Institute of Engineering and Technology,"Maisammaguda (Hamlet),Gundlapochampally (Village),Near Dhulapally, ",Secunderabad,,Telangana,500014,Dr.KE.Balachandrudu,96764 02671,principalmriet@gmail.com
M10017,BVRIT Hyderabad College of Engineering for Women,"#8-5/4 Rajiva Gandhi Nagar,Nizampet Road, Bachupalli, ",Hyderabad,,Telangana,500090,Dr.K.V.N.Sunitha,99494 02211,principal@bvrithyderabad.edu.in
M10018,Marri Laxman Reddy Institute of Technology and Management,"Dundigal, Quthbullapur Mandal, Ranga Reddy District, ",Hyderabad,,Telangana,500043,Dr.K.Venkateswara Reddy,99498 63334,principal@mlritm.ac.in
M10019,KLS Gogte College of Commerce,"BCA Section, Tilakwadi, ",Belgaum,,Karnataka,590006,Dr.S.G.Kulkarni,94801 88544,principal@gccbgm.org
M10020,SRM University NCR Campus,"Delhi Meerut Road, Modinagar,",Ghaziabad,,Uttar Pradesh,201204,Dr.Manoj Kumar Pandey,88599 95888,director@ncr.srmuniv.ac.in
M10021,Joginpally B. R. Engineering College,"Yenkapally Post, Himayath Nagar,Moinabad Mandal, R.R. District, ",Hyderabad,,Telangana,500075,Dr.M.V.Krishna Rao,97049 24777,principal@jbrec.edu.in
M10022,St. Xaviers College,"Hathroi fort Road,",Jaipur,,Rajasthan,302001,Dr.Sebastian Anand,75976 16365,stxavierscollegespr@gmail.com
M10023,Bharati Vidyapeeth Institute of Management,"Kadamwadi, ",Kolhapur,,Maharashtra,416003,Dr.Nitin Nayak,98230 79600,"nitin@nitinnayak.com, drnayaknitin007@gmail.com"
M10024,Dr. D. Y. Patil Institute of Engineering and Technology,"MIDC Road,  Ambi, Talegaon,",Pune,,Maharashtra,410506,Dr.R.J.Patil,86987 86162,rupesh1002001@yahoo.com
M10025,OP Jindal Institute of Technology,,Raigarh,,Chhattisgarh,496001,Dr.RD.Patidar,,director@opjit.edu.in
M10026,K.S. Institute of Technology,"#14, Raghuvanahalli, Kanakapura Road, ",Bangalore,,Karnataka,560062,Dr.T.V.Govindaraju,96637 78001,principal.ksit@gmail.com
M10027,KMEA Engineering College,"KMEA College Road, Kuzivelippady, Edathala Post, Aluva, ",Ernakulam,,Kerala,683561,Dr.T.K.Mani,94465 70057,principal@kmeacollege.ac.in
M10028,Holy Kings College of Engineering and Technology,"Pampakuda, Muvattupuzha, ",Cochin,,Kerala,686667,Dr.M.G.Grasius,94471 82412,grasius_mg17@yahoo.co.in
M10029,Dr. D. Y. Patil College of Engineering,"MIDC Road,  Ambi, Talegaon,",Pune,,Maharashtra,410506,Dr.S.D.Shirbahadurkar,97637 22260,shird112@yahoo.co.in
M10030,Vardhaman College of Engineering,"Kacharam, Shamshabad,",Hyderabad,,Andhra Pradesh,501218,Dr.S.Sai Satyanarayana Reddy,95026 53333,principal@vardhaman.org
M10031,College of Engineering Perumon,"Perinad P O, ",Kollam,,Kerala,691601,Dr.Z.A.Zoya,94471 50400,principal@perumonec.ac.in
M10032,Government College of Engineering,"Railway Station Road, ",Aurangabad,,Maharashtra,431005,Dr.P.S.Adwani,98231 60390,psadwani@yahoo.com
M10033,Noida Institute of Engineering and Technology,"#19,Knowledge Park II, Institutional Area, ",Greater Noida, ,Uttar Pradesh,201310,Dr.Ajay Kumar,92685 75607,director@niet.co.in
M10034,Anantrao Pawar College of Engineering and Research,"S.No-103, Shahu College Road, Parvati Ramana, ",Pune,,Maharashtra,411009,Dr.Sunil Bhimrao Thakare,99232 17056,abmspcoe@yahoo.com
M10036,Priyadarshini Indira Gandhi College of Engineering,"Opp.Lata Mangeshkar Hospital,Digdoh Hills, Hingna Road,",Nagpur,,Maharashtra,440019,Dr.G.M.Asutkar,98817 11751,g.m.asutkar@gmail.com
M10037,College of Engineering Bhubaneswar,"Plot No:1A, CNI Complex,Infocity Road, Patia, ",Bhubaneswar,,Odisha,751024,Dr.Subrat Kumar Mohanty,98613 76685,skmohanty03@yahoo.com
M10038,Vignan’s Nirula Institute of Technology and Science for Women,"Vignan’s Avenue, Palakaluru, ",Guntur,,Andhra Pradesh,522005,Dr.Paturi Radhika,98662 22280,rspaturi@yahoo.com
M10039,Dr.K.V.Subba Reddy College of Engineering for Women,"Dupadu (V), NH7,  ",Kurnool,,Andhra Pradesh,518218,Dr.E.V.Subba Reddy,76800 76604,kvswprincipal@yahoo.in
M10040,GSSS Institute of Engineering and Technology for Women,"KRS Road, Metagalli, ",Mysore,,Karnataka,570016,Dr.Sumithra Devi K.A.,99450 04632,principal@gsss.edu.in
M10041,Sanjivani Rural Education Society College of Engineering,"At Sahajanand Nagar Post, Shingnapur, ",Kopargaon,,Maharashtra,423603,Dr.D.N.Kyatanavar,92267 98745,psrescoe@gmail.com
M10042,Maratha Vidya Prasarak Samaj's Karmaveer Adv. Baburao Ganpatrao Thakare College of Engineering,"Udoji Maratha Boarding Campus,Near Pumping Station, Gangapur Road,",Nashik,,Maharashtra,422013,Dr.Kailas Shankarrao Holkar,98223 79056,principal@kbtcoe.org
M10043,Anand Institute of Higher Technology,"Kalasalingam Nagar, Old Mahablipuram Road, Kazhipattur ,",Chennai,,Tamilnadu,603103,Dr.A.Kathirvel,90950 59465,kathirvela.cse@aiht.ac.in
M10043,Anand Institute of Higher Technology,"Kalasalingam Nagar, Old Mahablipuram Road, Kazhipattur ,",Chennai,,Tamilnadu,603103,Dr.T.A.Raghavendiran,044-27471330,aiht_anand@yahoo.co.in
M10044,Institute of Innovation in Technology and Management,"D-27 and 28 Institutional Area, Janakpuri, ",New Delhi,,New Delhi,110058,Dr.Vani Majumdar,88009 71514,director@iitmjp.ac.in
M10045,Doon Group of Institution,,Rishikesh,,Uttarakhand,249204,Dr.Anurag Rai,98972 22119,rai_anurag@hotmail.com
M10046,Don Bosco Institute of Technology,"Kumbalagodu, Mysore Road, ",Bangalore,,Karnataka,560074,Dr.T.Sreenivasan,96636 58899,dbit.principal@gmail.com
M10047,Hyderabad Institute of Technology and Management,"Gowdavelly (Village), Medchal (Mandal),Ranga Reddy District, ",Hyderabad,,Telangana,501401,Dr.S.V.S.Ramakrishnam Raju,95737 14385,principal@hitam.org
M10048,St. Joseph's College of Engineering and Technology,"Choondacherry Post, Kottayam District,",Palai,,Kerala,686579,Dr.C.J.Joseph,94478 20405,principal@sjcetpalai.ac.in
M10049,College of IT and Management Education,"Plot No-4, Sector-A, Zone-B,Mancheswar Industrial Estate, ",Bhubaneswar,,Odisha,751010,Dr.Shakti Ranjan Mohapatra,87634 00800,shakti.r.mohapatra@gmail.com
M10050,CT Institute of Engineering Management and Technology,"189/L, Basement Seiyu Complex, Near Model Town Gurudwara,",Jalandhar,,Punjab,144020,,,
M10051,Lyallpur Khalsa College of Engineering,"Cantt Road, ",Jalandhar,,Punjab,144022,Dr.Yogeshwar Singh Randhawa,97801 50400,ysrandhawa@hotmail.com
M10052,Garden City College,"16th KM, Old Madras Road, ",Bangalore,,Karnataka,560049,Dr.Siddaramaiah Pujar,92437 50014,principal@gardencitycollege.edu
M10053,Prannath Parnami Institute of Managemenet and TechnologyPPIMT,"20 K.M Stone, N.H.-65, Choudharywas, Rajgarh Road,",Hisar,,Haryana,125001,Dr.J.S.Virk,92158 41038,principal.ppimt@ppu.edu.in
M10054,Trinity College of Engineering and Research,"Sr.No-25 and 27, Kondhwa Saswad Road, Bopdev Ghat,",Pune,,Maharashtra,411048,Dr.Prakash S Dabeer,98606 76940,psdabeer@rediffmail.com
M10055,Gyan Ganga Institute of Technology and Sciences,"Bargi Hills, Post Tilwara Ghat, ",Jabalpur,,Madhya Pradesh,482003,Dr.Maneesh Choubey,,maneesh_choubey@rediffmail.com
M10056,MLR Institute of Technology,"Laxma Reddy Avenue, Qutbullapur Mandal, ",Hyderabad,,Telangana,500043,Dr.P.Bhaskara Reddy,98666 78599,director@mlfinstitutions.ac.in
M10057,Indore Institute of Science and Technology,"Opposite Indian Institute of ManagementPithampur Road, Rau, ",Indore,,Madhya Pradesh,453331,Dr.Joy Banerjee,96440 24441,joy.banerjee@indoreinstitute.com
M10058,Fakir Mohan University,"Department of Information and Communication TechnologyVyasa Vihar,",Balasore,,Odisha,756019,Dr.S.N.Dehuri,96683 21964,satchi.lapa@gmail.com
M10059,Rungta College of Engineering and Technology,"Rungta Educational Campus,Near Nandanvan, Veer Savarkar Nagar, ",Raipur,,Chhattisgarh,492009,Dr.Sourabh Rungta,98261 45333,sourabh@rungta.ac.in
M10060,P.E.S. College of Engineering,,Mandya,,Karnataka,571401,Dr.V.Sridhar,94483 33277,venusridhar@yahoo.com
M10061,Maharshi Dayanand University,"Department of Computer Science and Applications, ",Rohtak,,Haryana,124001,Prof.Nasib Singh Gill,90508 05136,nasibsgill@gmail.com
M10062,Buddha Institute of Technology,"CL-1, Sector 7, GIDA,",Gorakhpur, ,Uttar Pradesh,273001,Prof.V.K.Singh,96489 99954,directorbitgkp@gmail.com
M10063,Chandigarh Group of CollegesCollege of Engineering,,Landran (Mohali), ,Punjab,140307,Dr.Jagtar Singh Khattra,97819 25220,jagtarsinghkhattra@gmail.com
M10064,Gujarat Power Engineering and Research Institute,,Mehsana,,Gujarat,382710,Dr.Rajesh S Patel,96878 48535,principal@gperi.ac.in
M10065,Raghu Institute of Technology,"Dakamarri Village, Bheemunipatnam Mandal,",Visakhapatnam,,Andhra Pradesh,531162,Dr.CH.Prabhakara Rao,91777 79081,ritprincipal@yahoo.co.in
M10066,Mahatma Gandhi Mission's College of Engineering and Technology,"Kamothe, ",Navi Mumbai,,Maharashtra,410209,Dr.Sudha Singh,98190 10082,sudha_2k6@yahoo.com
M10067,andhra University College of Engineering for Women,"Sivajipalem, Besides Sivaji Park,",Visakhapatnam,,Andhra Pradesh,530017,Prof.D.Lalitha Bhaskari,98854 38922,lalithabhaskari@yahoo.com
M10068,Jagruti Institute of Engineering and Technology,"Koheda Road, Chintpalliguda (V),Ibrahimpatnam (M), ",R.R. Distric,,Telangana,501510,Dr.Harikrishna Kamatham,94900 12321,principal@jagruti.ac.in
M10069,NBKR Institute of Science and Technology,"Vidyanagar, S.P.S.R.",Nellore,  ,Andhra Pradesh,524413,Dr.V.Vijayakumar Reddy,95054 39093,vvkreddy@nbkrist.org
M10070,A.C.T. College of Engineering and Technology,"#15, Nelvoy Village Bukkathurai-Uthiramerur High Road,Madurandhagam Taluk ",Kancheepuram,,Tamilnadu,603107,Dr.M.Selvam,94866 55106,actcetprincipal@gmail.com
M10071,Padmashree Dr. D.Y. Patil Institute of Engineering and Technology,"Sant Tukaram Nagar, Pimpri, ",Pune,,Maharashtra,411018,Dr.Rakesh K Jain,,jainrb20@gmail.com
M10072,Jayaram College of Engineering and Technology,"Karattampatti, Pagalavadi,Thuraiyur (TK), Trichy",Tiruchirapalli,,Tamilnadu,621014,Dr.N.Kannan,97509 62230,principal@jayaramcet.edu.in
M10073,PES Modern College of Engineering,"1186 A, Shivajinagar, off J.M. Road,",Pune,,Maharashtra,411005,Dr.Kalyani Rajeev Joshi,90110 70917,principal@moderncoe.edu.in
M10074,PICT School of Technology and Management,"Survey No:7 H.No:54B,  Near Balevadi Sport Stadium, Behind Hotel Holiday inn, ",Pune,,Maharashtra,411045,Mr.Kumar Shrinivasan,98233 56813,shrinivasankumar@gmail.com
M10075,Shri Jairambhai Patel Institute of Business Management and Computer Applications (SJPI),"Nr. Infocity, Indroda Circle,",Gandhinagar,,Gujarat,382007,Prof.Nair Rekha Gopinathan,99242 08574,director_mcaicm@yahoo.com
M10076,Sree Chitra Thirunal College of Engineering,"Pappanamcode,",Thiruvananthapuram,,Kerala,695018,Dr.Shaji Senadhipan,94474 90572,principal@sctce.ac.in
M10077,Mukesh Patel School of Technology Management and Engineering,,Shirpur,"Dist, Dhulia,",Maharashtra,425405,Dr.M.V.Deshpande ,98920 61141,manojkumar.deshpande@nmims.edu
M10078,Northern India Engineering College,"FC-26, Shastri Park, ",New Delhi,,New Delhi,110053,Dr.G.P.Govil,98111 48012,niecnd.dir@gmail.com
M10079,Sree Dattha Institute of Engineering and Science,"Sheriguda(v) Ibraimpatnam(M),Nagarjuna Sagar Road,Ranga Reddy District,",Hyderabad,,Telangana,501510,Prof.MD.Sameeruddhinkhan ,86867 78686,director@sreedattha.ac.in
M10080,Marathwada Mitra Mandal's College of Engineering,"S.No.18, Plot No.5/3, CTS No.205,Behind Vandevi Temple, Karvenagar, ",Pune,,Maharashtra,411052,Dr.S.M.Deshpande,94230 03319,principal@mmcoe.edu.in
M10081,Mukesh Patel School of Technology Management and Engineering,"VL Mehta Road, Vile Parle West, ",Mumbai,,Maharashtra,400056,Dr.Sharad Y. Mhaiskar,98204 22602,sharad.mhaiskar@nmims.edu
M10082,Vignan Institute of Technology and Management,"PO: Mantridi, Via: Golanthara, Ganjam District,",Berhampur,  ,Odisha,761008,Prof.Kosireddy Govinda Rajulu,94370 11046,director@vitam.edu.in / govinda_rajulu@rediffmail.com
M10083,Brindavan Institute of Technology and Science,"NH-7, Peddatekur, ",Kurnool,,Andhra Pradesh,518218,Dr.T.S.S.Balaji,81422 3350,principal@bitskurnool.edu.in
M10084,Padmabhushan Vasantraodada Patil Institute of Technology,"AIP Budhgaon, Tal-Miraj,Dist-Sangli,",Near Sangli City,,Maharashtra,416304,Dr.Satishchandra V. Joshi,99755 86453,degreeprincipal@gmail.com
M10085,Rajshree Institute of Management and Technology,"NH-30, 16 KM,  Pilibheet Road,",Bareilly,,Uttar Pradesh,243122,Dr.Saket Agarwal,96900 00121,saketritv@rediffmail.com
M10086,Satyug Darshan Institute of Engineering and Technology,"Bhupani Lalpur Road, ",Faridabad,,Haryana,121002,Dr.K.K.Raman,,director@satyug.edu.in
M10087,IMS Engineering College,"NH-24, Adhyatmik Nagar, ",Ghaziabad,,Uttar Pradesh,201009,Dr.Satya Prakash Pandey,98108 09229,director@ims.ac.in
M10088,Sharad Institute of Technology College of Engineering,"Gat No-525, 473/A,Behind Onkareshwar Temple,",Yadrav-Ichalkarnji,,Maharashtra,416121,Dr.Sanjay A Khot,73505 42020,sakhot.2000@gmail.com
M10089,Dhanekula Institute of Engineering and Technology,"Ganguru Post, Penamaluru (MD),Krishna (DT),",Vijayawada,,Andhra Pradesh,521139,Dr.Ravi Kadiyala,94910 17088,diet.principal@gmail.com
M10090,"College of Engineering, Thalassery","Kundoormala, Eranholi Post,",Thalassery,"Kannur District,",Kerala,670107,Dr.V.Sajeev,94463 07190,principal@cethalassery.ac.in
M10091,Prince Shri Venkateshwara Padmavathy Engineering College,"Medavakkam-Mambakkam Road,Ponmar,",Chennai,,Tamilnadu,600127,Prof.Soundarajan,94980 54060,princeshrivenkateshwara@gmail.com
M10092,Prince Dr. K. Vasudevan College of Engineering and Technology,"Medavakkam-Mambakkam Road, Ponmar, ",Chennai,,Tamilnadu,600127,Prof.Sunder Selwyn,94445 18078,princedrkvasudevan@gmail.com
M10093,Annasaheb Dange College of Engineering and Technology,,Sangli,,Maharashtra,416301,Dr.R.A.Kannai,97303 77786,profrak@rediffmail.com
M10094,KNSK College of Engineering,"Therekalputhoor, Thirupathisaram, ",Nagercoil,,Tamilnadu,629901,Dr.G.Natarajan,93629 40156,principalknskce@gmail.com
M10095,Mangalam College of Engineering,"Mangalam Campus, Vettimukkal P.O., Ettumanoor, ",Kottayam,,Kerala,686631,Dr.M.M.Paulose,99468 07428,paulose.m@mangalam.in
M10096,MCT's Rajiv Gandhi Institute of Technology,"off.Juhu Versova Link Road, Versova, andheri(West),",Mumbai,,Maharashtra,400053,Dr.Udhav V. Bhoste,98201 23888,udhav.bhosle@mctrgit.ac.in
M10097,IMS Unison University,"Makkawala Greens, Mussoorie Diversion Road,",Dehradun,,Uttarakhand,248009,Dr.D.K.Bandyopadhyay,,office.vc@iuu.ac
M10098,V.S.B. Engineering College,"NH-67 Covai Road,Karudayampalayam Post,",Karur,,Tamilnadu,639111,Dr.Suyambazhahan ,95855 95212,
M10099,Global Nature Care Sangathan's Group of Institutions,"Raigwan, Global Square, Patan Bypass",Jabalpur,,Madhya Pradesh,482002,Dr.Rajiv Khatri,94251 82648,director@global.org.in
M10100,AIMS Institute of Higher Education,"1st cross, 1st stage, Peenya, ",Bangalore,,Karnataka,560058,Dr.Kiran Reddy,,principal@theaims.ac.in
M10101,Hindusthan Institute of Technology,"Othakkalmandapam Post, Pollachi Main Road, Malumichampatty,",Coimbatore,,Tamilnadu,641032,Dr.C.Natarajan,99946 30696,hitprincipal@hindusthan.net
M10102,Gayatri Vidya Parishad College of Engineering for Women,"Kommadi, Madhurawada,",Visakhapatnam,,Andhra Pradesh,530048,Dr.K.A.Gopala Rao ,,kagopalarao@gvpcew.ac.in
M10103,BML Munjal University,"67 KM Stone, NH-8, Dist. ",Gurgaon, ,Haryana,122413,Dr.B.S.Satyanarayana,99000 84234,satya@bml.edu.in
M10104,Delhi Technical Campus,"4 KM Mile Stone, Badli Road,  Naya Gaon, ",Bahadurgarh,,Haryana,124507,Dr.Satish Kumar,82228 11208,satisherrit@rediffmail.com
M10105,?Guru Gobind Singh Polytechnic,"Khalsa Educational Complex,Guru Gobind Singh Marg, ",Nashik,,Maharashtra,422009,Mr.Puneet Singh Duggal,70287 43015,duggal@gmail.com
M10106,K. Ramakrishnan College of Technology,"Samayapuram,",Trichy,,Tamilnadu,621112,Dr.S.Muruganandham,98421 11377,principalkrct@gmail.com
M10107,RVS College of Engineering and Technology,"Kumaran Kottam Campus, Trichy Road, Kannampalayam, ",Coimbatore,,Tamilnadu,641402,Dr.V.Gunaraj ,94433 43870,gunaraj60@gmail.com
M10108,ITM University,"ITM University Campus,NH-75, Jhansi Road, ",Gwalior,,Madhya Pradesh,474001,Kamal Kant Dwivedi,77708 54333,vc@itmuniversity.ac.in
M10109,DMI College of Engineering,"Palanchur, Nazarethpet Post, ",Chennai,,Tamilnadu,600123,Dr.S.Muthu,94444 05820,principal.dmice@gmail.com
M10110,Vaagdevi College of Engineering,"Vill:Bollikunta, MDL:Sangam, ",Dist:Warangal,,Telangana,506005,Ch.Satyapal Reddy,99499 96969,chandupatla1222@yahoo.co.in
M10111,Anjalai Ammal Mahalingam Engineering College,,Kovil Venni,"Thiruvarur District,",Tamilnadu,614403,Dr.R.Karthikeyan,04374-233749,principal@aamec.edu.in
M10112,MCKV Institute of Engineering,"#243, G.T. Road (North), Liluah, ",Howrah,,West Bengal,711204,Prof.Asok Kumar,94333 07635,asok_km650@rediffmail.com
M10113,Aditya Engineering College,"Aditya Nagar, ADB Road,",Surampalem,"Gandepally Mandal, Peddapuram,",Andhra Pradesh,533437,Prof.M.Sreenivasa Reddy,98665 76662,principal@aec.edu.in
M10114,Lingaya's G.V.K.S Institute of Management and Technology,,Faridabad,,Haryana,121002,Dr.Brijesh Kumar,98113 26840,muskanbrijesh@gmail.com
M10115,Saraswati College of Engineering,"Plot No. 46/46 A, Sector-5,Behind MSEB Sub Station,Kharghar,",Navi Mumbai,,Maharashtra,410210,Dr.Manjusha Deshmukh,77386 77011,manjushad@gmail.com
M10116,Konkan Gyanpeeth College of Engineering,"Vengaon Road, Dahivali, Karjat Dist,",Raigad,,Maharashtra,410201,Dr.Madhukar J. Lengare,99208 92548,principalkgcekarjat@gmail.com
M10117,Prestige Institute of Engineering Management and Research,"Scheme No. 74-C, Sector D,  Vijay Nagar, ",Indore,,Madhya Pradesh,452010,Dr.Suresh Jain          ,78699 99230,director@piemr.edu.in
M10118,Sanskar Institute of Management and Information Technology,"Survey No. 798, Hill Garden Airport Ring-Road, ",Bhuj, ,Gujarat,370001,Mr.Chintan P Morabia,98982 92242,chintan.marabia@sanskareducation.org
M10119,Krishna Chaitanya Institute of Technology and Sciences,"DevarajugattuVillage, PeddaaraveeduMandal,",Markapur,"Prakasam  District,",Andhra Pradesh,523316,Dr.B.Subba Ratnam,96663 01310,subbaratnam@gmail.com
M10120,Achariya Arts and Science College,"Achariyapuram,Uruvaiyar Road,  Villianur,",Puducherry,,Puducherry,605110,Dr.R.T.Nirmal Kumar,95974 74372,aaschead@achariya.org
M10121,M.V.R College of Engineering and Technology,"Near Hanuman Statue, Paritala, ",Vijayawada,,Andhra Pradesh,521180,Dr.P.V.Naganjaneyulu ,94906 50030,principal@mvrcoe.ac.in
M10122,Kings Engineering College,"Irungattukottai, Sriperumbudur,",Chennai,,Tamilnadu,602117,Dr.A.V.Mayakannan,94440 47238,principal@kingsengineeringcollege.in
M10123,KCES's College of Engineering and Information Technology,"(Khandesh College Education Society)Behind D.I.C. off, NH-6, ",Jalgaon, ,Maharashtra,425001,Prof.Minal T. Kolhe ,73877 00474,minaltkolhe@gmail.com
M10124,K.L.E. College of Engineering and Technology,"Post Box No.-16,",Chikodi,"Dist:Belagavi, ",Karnataka,591201,Dr.Sidramappa V. Itti,94481 57391,principal.klecet@gmail.com
M10125,Dr.Lankapalli Bullayya College of Engineering for Women,"D.No:52-14-75, Resapuvanipalem,",Visakhapatnam,,Andhra Pradesh,530013,Prof.K.V.V.S.Reddy,99490 96380,principalengg@bullayyacollege.org
M10126,Pace Institute of Technology and Sciences,"NH-5, Near Valluramma Temple, ",Ongole,"Prakasam District, ",Andhra Pradesh,523272,Dr.C.V.Subba Rao,97030 20577,principal@pace.ac.in
M10127,Bharatesh College of Computer Applications,"B.C.188, Dharawad Road, ",Belgaum,,Karnataka,590016,Prof.Mahesh J. Mardolkar,95382 73344,principal@bharateshbca.in
M10128,"MKSSS's K.B. Joshi Institute of Information Technology, BCA College","Cummins Engineering College Campus, Karvenagar, ",Pune, ,Maharashtra,411052,Mrs.Swati N. Sayankar,75885 51572,swatisayankar@rediffmail.com
M10129,Baselios Mathews II College of Engineering,"Lake View, Muthupilakadu, Sathamakotta, ",Kollam,,Kerala,690520,Dr.E.Vasudevan Nampoothiri,94472 48088,drevnampoothiri@gmail.com
M10130,CVR College of Engineering,"Vastu Nagar, Mangalpalli (V), Ibrahimpatnam (M),Ranga Reddy District, ",Hyderabad,,Telangana,501510,Prof.L.C.Siva Reddy,98858 06151,siva_reddy@cvr.ac.in
M10131,Annasaheb Chudaman Patil College of Engineering,"Plot No:17, Sector 04, Kharghar,",Navi Mumbai,,Maharashtra,410210,Dr.D.G.Borse,98199 57578,principal@acpce.org
M10132,SRM University,"SRM Nagar, Potheri, ",Kattankulathur,"Kancheepuram District,",Tamilnadu,603203,Dr.C.Muthamizhchelvan,99400 36004,director.et@srmuniv.ac.in
M10133,NBN Sinhgad School of Engineering,"S.No.10/1, Ambegaon (Bk.), off. Sinhgad Road, ",Pune, ,Maharashtra,411041,Dr.S.D.Markande,83088 16104,sdmarkande@sinhgad.edu
M10134,Nehru Institute of Engineering and Technology,"""Nehru Gardens""T.M Palayam, ",Coimbatore,,Tamilnadu,641105,Dr.P.Maniiarasan,90039 36804,principalniet@gmail.com
M10135,Christ University,"Kanmanike, Kumbalgodu, Kengeri Campus,",Bengaluru,,Karnataka,560074,Fr.Benny Thomas,98865 55040,frbenny@christuniversity.in
M10136,Central College of Engineering and Management,,Raipur,,Chhattisgarh,492009,Mr.Rakesh Chandrakar,94252 07008,rakchand17@yahoo.com
M10137,Sandip Institute of Engineering and Management,,Nashik,,Maharashtra,422213,Dr.R.G.Tated,95454 53250,principal@siem.org.in
M10138,NRI Institute of Information Science and Technology,"#1, Sajjan Singh Nagar, Raisen Road, ",Bhopal,,Madhya Pradesh,462023,Dr.S.C.Kapoor,94253 57417,drsc_kapoor@yahoo.in
M10139,Indus University,"Rancharda, Via Thaltej,",Ahmedabad,,Gujarat,382115,Prof.S.B.Sharma,90999 44318,vc@indusuni.ac.in
M10140,Tulsiramji Gaikwad Patil College of Engineering and Technology,"Mohagaon, Wardha Road,",Nagpur, ,Maharashtra,441108,Prof.G.K.Awari,99229 66173 ,"gkawari@rediffmail.com, gkawari@yahoo.com "
M10141,Alliance College of Engineering and DesignAlliance University,"Chikkahagade Cross, ChandapuraAnekal Main Road, Anekal",Bangalore,,Karnataka,562106,Prof.H.N.Sudhindra,95353 52819,sudhindra.hn@alliance.edu.in
M10142,Poornima College of Engineering,"ISI-6, RIICO Institutional Area, Sitapura, ",Jaipur, ,Rajasthan,302022,Dr.OM Prakash Sharma ,98293 64944,opsharma@poornima.org
M10143,Shrimad Rajchandra Vidyapeeth,"Kangvi Road, Karanjveri,",Dharampur,"Dist. Valsad,",Gujarat,396051,Dr.Amit C. Purohit ,95860 68880,amitrajpurohit11@gmail.com
M10144,Lourdes Matha College of Science and Technology,"Lourdes Hills, Kuttichal P.O,",Thiruvananthapuram,,Kerala,695574,Prof.James Kattady,94465 65912,kattadyjames@yahoo.com
M10145,MES-Advanced Institute of Management and Technology,"Marampally PO, ",Kochi,,Kerala,683107,Dr.P.A.Habeeb Rahiman,94959 90787,pahabeebrahiman@gmail.com
M10146,Sahyadri Valley College of Engineering and Technology,"A/P Rajuri, Tal. Junnar,",Pune,,Maharashtra,412411,Prof.Chanakya Kumar Jha,77200 32237,chanakyasvcet@gmail.com
M10147,Management Education and Research Institute,"53-54 Institutional Area, Janakpuri,",New Delhi,,New Delhi,110058,Prof.Lalit Aggarwal,99589 75551,laggarwal2001@yahoo.com
M10150,Cochin College of Engineering and Technology,"Valiyaparambu, Edayur P.O., Malappuram District, ",Valancheri,,Kerala,676552,Dr.Alavi Kunhu Panthakkan ,82818 55111,principal@cochincet.ac.in
M10151,Shah and Anchor Kutchhi Polytechnic,"Mahavir Education Trust Chowk,Waman Tukaram Patil Marg,Next to Dukes Company, Chembur,",Mumbai,,Maharashtra,400088,Prof.Sanjay Lunge,93224 82010,principal@sakp.ac.in
M10152,Jai Parkash Mukand Lal Innovative Engineering and Technology Institute,"Chhota Bans, ",Radaur,"Yamuna Nagar,",Haryana,135133,Dr.R.S.Chauhan,82959 08203,director@jmieti.org
M10153,Sandip Institute of Polytechnic,,Nashik,,Maharashtra,422213,Prof.Sandeep Dinkar Pawar,91588 86003,principal@sipnashik.org
M10154,Shaheed Bhagat Singh Govt. College,"Bathinda Road,",Kotkapura,,Punjab,151204,Dr.Amritpal Kaur,94179 53999,gckotkapura@gmail.com
M10155,S.J.C. Institute of Technology,"P.B.No. 20, B.B.Road, ",Chickballapur,,Karnataka,562101,Dr.T.Munikenche Gowda ,99809 23294,principal@sjcit.ac.in
M10156,School of Engineering and TechnologyJain University,"Jain Global Campus,Jakkasandra Post,Kanakapura Road,  ",Ramanagara District,,Karnataka,562112,Dr.V.Muralidhara,98453 07880,v.muralidhara@jainuniversity.ac.in
M10157,Vidyavardhaka College of Engineering,"Gokulam 3rd Stage, ",Mysore,,Karnataka,570002,Dr.B.Sadashilvegowda,99456 50016,principal@vvce.ac.in
M10158,SSM College of Engineering,"NH-47, Salem Main Road,Namakkal (D.T) ",Komarapalayam,,Tamilnadu,638183,Dr.Kumar Charlie Paul,98940 26708,principal@ssmce.ac.in
M10159,DVR and Dr.HS MIC College of Technology,"NH-9, Kanchikacherla, ",Krishna Dist,,Andhra Pradesh,521180,Dr.K.B.K.Rao,96181 61818,principal@mic.co.in
M10160,Chalapathi Institute of Engineering and Technology,"Chalapathi Nagar, LAM, ",Guntur,,Andhra Pradesh,522034,Dr.P.Suresh Babu,98480 83358,ciet07@rediffmail.com
M10161,S.P. Jain Institute of Management and Research,"Munshi Nagar, Dadabhai Road, andheri West, ",Mumbai,,Maharashtra,400058,Dr.Ranjan Banerjee,,ranjan.banerjee@spjimr.org
M10162,A.C.S. College of Engineering,"No.207, Kambipura, Mysore Road, Kengeri Hobli, ",Bangalore,,Karnataka,560074,Prof.R.Elangovan ,91766 02009,elangovanrajagopalan@yahoo.com
M10163,College of Engineering and Technology,"Ghatikia, Kalinga Nagar, ",Bhubaneswar, ,Odisha,751003,Mr.Prashant Kumar Patra ,94371 89863,principalcet@cet.edu.in
M10164,Guru Tegh Bahadur Institute of Technology,"G-8 Area, Rajouri Garden ",New Delhi,,New Delhi,110064,Dr.Rominder Kaur Randhawa,99116 0796,gtbitdr@gmail.com
M10165,Dayananda Sagar Academy of Technology and Management,"Udaypura, Kanakapura Road, Opp. Art of Living,  ",Bangalore,,Karnataka,560082,,,
M10166,Vikrant Group of Institutions,"Vikrant College, Ratwai Near Badagaon, ",Gwalior,,Madhya Pradesh,474006,Ms.Richa Verma,96304 51664,registrar.vgi@vitm.edu.in
M10167,Nova College of Engineering and Technology,"Jupudi, Ibrahimpatnam,",Krishna District,,Andhra Pradesh,521456,Dr.Srinivasa Prasad Sanaka ,76759 69682,principal.engg.ibm@nova.edu.in
M10168,Sri Venkateswara University College of Engineering,,Tirupati,,Andhra Pradesh,517502,Dr.P.Mallikarjuna,94910 12899,principal_svuce2003@yahoo.co.in
M10169,Pillai HOC College of Engineering and Technology,"Pillai HOCL Educational Campus, HOCL Colony, Via Panvel, Dist. Raigad,",Rasayani,,Maharashtra,410207,Dr.Chalpa Lingam,90290 11353,chalpa.lingam@gmail.com
M10170,PSG College of Arts and Science,"Civil Aerodrome Post, ",Coimbatore, ,Tamilnadu,641014,Dr.R.Rajendran,99524 27244,psgcar@pagcar.ac.in
M10171,A.P.S. College of Engineering,"26th KM, NH-209, Kanakapura Main Road, ",Bangalore,,Karnataka,560082,Dr.G.Ravindranath,97394 55879,dravimysore@gmail.com
M10172,Jain College of Engineering,"Tippu Sultan Nagar,Hunchanatti Road,",Belgaum,,Karnataka,590014,Dr.K.G.Vishwanath,93429 97171,vishwakg@yahoo.co.in
M10173,Cambridge Institute of Technology,"Cambridge Village, Tatisilwai, ",Ranchi,,Jharkhand,835103,Prof.R.P.Sharma,78560 87222,principal@citranchi.ac.in
M10174,Siddharth Institute of Engineering and Technology,"Siddharth Nagar,Narayanavanam Road,",Puttur,,Andhra Pradesh,517533,Dr.Chandrasekhar Reddy,93969 32888,principal.f6@gmail.com
M10175,Manipal University,"Jaipur-Ajmer Express Highway,Dehmi Kalan, Near GVK Toll Plaza,",Jaipur,,Rajasthan,303007,Dr.Rajveer Singh Shekhawat,80035 99920,rajveersingh.shekhawat@jaipur.manipal.edu
M10176,Dhanalakshmi Srinivasan College of Engineering,"NH-47, Palakkad Main Road, Near Nandhi Temple, Navakkarai Post, ",Coimbatore,,Tamilnadu,641105,Dr.S.Charles,97508 23294,principaldscec@groupmail.com
M10177,Cochin Institute of Science and Technology,"Mannathur P.O., Pampakkuda, Muvatupuzha, ",Ernakulum,,Kerala,686667,Dr.Benny Joseph Thullisseril,94478 88343,principal.cisat@gmail.com
M10178,JCT College of Engineering and Technology,"Pichanur,",Coimbatore,,Tamilnadu,641105,Dr.G.Ramesh,93614 88804,principal@jct.ac.in
M10179,Jyothy Institute of Technology,"Thataguni, Kanakpura Road,  ",Bangalore,,Karnataka,560062,Dr.K.V.Mahendra,95912 27283,mahendrakv@gmail.com
M10180,Sanjivani K.B.P. Polytechnic,"Sahajanand Nagar,Post Shingnapur,",Kopargaon,,Maharashtra,423603,Dr.R.A.Kapgate,98905 15588,principalkbp@sanjivani.org.in
M10181,UKF College of Engineering and Technology,"Near ESIC Medical College, Meenambalam, Parippally,",Kollam,,Kerala,691302,Dr.Gopalakrishna Sarma E,94461 78277,ukf.principal@gmail.com
M10182,Kashi Institute of Technology,,Varanasi, ,Uttar Pradesh,221307,Dr.K.K.Mishra,99189 00733,director@kashiit.ac.in
M10183,Pydah College of Engineering and Technology,"Gambheeram, Boyapalem, ",Visakhapatnam,,Andhra Pradesh,531163,Dr.Challagundla Ramesh,94945 20289,rchallagundla@yahoo.com
M10184,Centre for Computers and Communication Technology,"CCCT Chisopani, P.O. Nandugaon, ",South Sikkim,,Sikkim,737126,Mr.Praveen Kumar Pradhan,,pradhan.praveen@gmail.com
M10185,MCM DAV College for Women,"Sector 36-A, ",Chandigarh,,Chandigarh,160036,Dr.Nisha Bhargav,98157 58400,principal_mcmdavcollege@yahoo.com
M10186,Universal College of Engineering,"Survey No-146 , Village Kaman,Kaman Bhiwandi Road, ",Vasai,,Maharashtra,401212,Dr.J.B.Patil,90291 44325,ucoe.principal@universal.edu.in
M10187,Veer Surendra Sai University of Technology,"Sambalpur, ",Burla,,Odisha,768018,Prof.P.K.Pradhan,99373 05002,pkpradhan1@yahoo.co.in
M10188,Kasturi Ram College of Higher Education,"Narela, ",Delhi,,Delhi,110040,Dr.K.B.Asthana,92894 60910,kbasthana001@gmail.com
M10189,Gandhi Institute of Technology and Management,"Saraswati Vihar, At-Gramadiha, Po-Gangapada , Via-Janala, District- Khorda, ",Bhubaneswar, ,Odisha,752054,Soumya Sri Sabyasachi Singh,94371 01677,principalgitam@yahoo.com
M10190,"K.K. Wagh College of Arts, Commerce, Science and Computer Science","Saraswati Nagar, Adgaon Road, ",Nashik,,Maharashtra,422003,Sewlikar Vinayak Manikrao,77200 15804,vmsewlikar@kkwagh.edu.in
M10191,Medi-Caps Institute of Technology and Management,"A.B.Road, Pigdamber, Rau,",Indore,,Madhya Pradesh,453331,Dr.Shamsher Singh ,98931 04061,"dr_ssingh@yahoo.com, csi@medicaps-institute.ac.in"
M10192,Bharat College of Engineering,"Opp. Gajanan Maharaj Temple, Kanhor Gaon, Badlapur(W), ",Thane,,Maharashtra,421503,Dr.S.N.Barai,77220 13100,drsnbarai@rediffmail.com
M10193,University of Technology and Management,"Handers Building,Near Ramakrishna Mission Dispensary,Laitumkhrah Main Road,",Shillong,,Meghalya,793003,Dr.Mukesh Saxena ,85750 91511,msaxena@utm.ac.in
M10194,The Bhopal School of Social Sciences,"Opposite DRM officeP.O. Habibganj, ",Bhopal,,Madhya Pradesh,462024,Dr.Fr.John.P.J,94253 00756,
M10195,Cochin University of Science and Technology,"Thrikkakara, South Kalamassery, ",Kochi,,Kerala,682022,Dr.David S. Peter,,registrar@cusat.ac.in
M10196,Vel Tech Ranga Sanku Arts College,"# 42, Vel Tech Road, Avadi, ",Chennai,,Tamilnadu,600062,Dr.V.Aravamudhan,96777 63281,amudhan1968@yahoo.com
M10197,Government College (Autonomous),,Mandya,,Karnataka,571401,Prof.M.Chikkamada Naika,94497 87042,principalgcam@gmail.com
M10198,MATS School of Information Technology,"New Bus Stand, MATS Tower, Pagariya Complex, MATS University,",Raipur,,Chhattisgarh,492004,Ms.Rita Dewanjee,99269 04828,rita@matsuniversity.ac.in
M10199,Audisankara Institute of Technology,"NH-5, Bypass Road, Aravinda Nagar,",Gudur,"Nellore District,",Andhra Pradesh,524101,Dr.V.Krishna Kumar,92487 48418,principal@audisankarait.ac.in
M10200,P.R. Patil College of Engineering and Technology,"Pote Estate, Pote Patil Road, Kathora, ",Amravati,,Maharashtra,444602,Dr.D.G.Wakde,94228 81557,director_prpce@rediffmail.com
M10201,P.R. Pote (Patil) College of Engineering and Management,"Kathora Road, Pote Township, ",Amravati,,Maharashtra,444604,Dr.S.D.Wakde,94041 09465,sadhana_wakde@rediffmail.com
M10202,Geethanjali Institute of Science and Technology,,Nellore,,Andhra Pradesh,524137,Dr.G.Subba Rao ,90105 88588,principal@gist.edu.in
M10204,Vickram College of Engineering,"Sreenivasa Gardens, MaduraiSivagangai Road, ",Enathi,,Tamilnadu,630561,Dr.S.Nagarajan,96009 55078,principal@staff.vickramce.org
M10205,Vivekanandha Institute of Engineering and Technology for Women,,Elayampalayam,"Tiruchengode, Namakkal District, ",Tamilnadu,637205,Dr.KCK.Vijayakumar,94433 16543,vietwprincipal@gmail.com
M10206,Rao Bahadur Y Mahabaleswarappa Engineering College,"Department of CSE,Contonment",Ballari,,Karnataka,583104,Dr.K.Veeresh,94480 43949,principalrymec@gmail.com
M10207,Dr.R.V.Arts and Science College,"Mettupalayam Main Road, Karamadai,",Coimbatore,,Tamilnadu,641104,Sri.V.Ramakrishnan,,officervasc@gmail.com
M10208,SPVP's S.B. Patil College of Engineering,,Pune,,Maharashtra,413106,Dr.P.D.Nemade,94239 75240,sbpcoeprincipal@gmail.com
M10209,Oriental Institute of Science and Technology,"Oriental Campus, Thakral Nagar,Raisen Road, ",Bhopal,,Madhya Pradesh,462021,,,
M10210,QIS College of Engineering and Technology,"Pondur Road, Vengamukkapalem, ",Ongole,,Andhra Pradesh,523272,Dr.K.Veera Swamy,92464 19542,qiscet@hotmail.com
M10211,DAV University,,Jalandhar,,Punjab,144001,Dr.A.K.Paul,95309 95577,vc@davuniversity.org
M10212,Institute of Engineering and Technology Mangalayatan University,,Aligarh,,Uttar Pradesh,202145,Dr.Nagaraj Mantha,75000 11188,mantha@mangalayatan.edu.in
M10213,Apex Institute of Engineering and Technology,"ISI5 RIICO Institutional Area, Apex Circle, Sitapura,",Jaipur,,Rajasthan,302022,Prof.Om Prakash Chhangani ,86969 22341,directorgeneral@apexjaipur.org
M10214,Annamacharya Institute of Technology and Sciences,"Venkatapuram (V), Renigunta (M), Karakambadi Road, ",Tirupati,,Andhra Pradesh,517520,Dr.C.Nadhamuni Reddy,99481 49222,nadamuni_reddy@rediffmail.com
M10215,Gandhi Academy of Technology and Engineering,"Golanthara, ",Berhampur,,Odisha,761008,Mr.Manoj Kumar Palo,94375 67525,monojpalo@gmail.com
M10216,S.D.M. College of Engineering and Technology,Dhavalagiri,Dharwad,,Karnataka,580002,Dr.Shrikant B Vanakudre,94805 04837,principal@sdmcet.ac.in
M10217,Avanthi Institute of Engineering and Technology,"Gunthapally (V), Hayathnagar (M), Near Ramoji Film City, ",Hyderabad,,Telangana,501512,B.Hari Krishna,99120 86272,hariboorgadda@gmail.com
M10218,G.H. Raisoni College of Engineering and Management,"Gat No .1030, Village Chas,Jilha Parishad, ",Ahmednagar,,Maharashtra,414005,Dr.Harish Vankudre,77220 93247,harish.vankudre@raisoni.net
M10219,K.M.M. Institute of Technology and Science,"Ramireddipalle, Narsingapuram Post, Rangampet Road, Chandragiri Mandal,",Tirupati,"Chittoor District,",Andhra Pradesh,517101,Dr.A.Siva Sankara,98492 48747,alamsivasankar1971@gmail.com
M10220,Scient Institute of Technology,"Sy.No.324,323 and 326, Khanapur (V),Ibrahimpatnam (M),",Hyderabad,,Telangana,501506,Dr.Moinuddin K Syed,92461 62821,principal.scient@gmail.com
M10221,IIMT College of Engineering,"Plot No:A-20, Knowledge Park III,  ",Greater Noida,,Uttar Pradesh,201308,Dr.D.R.Somashekar,97184 04791,director.gn@iimtindia.net
M10222,Budge Budge Institute of Technology,"Nischintapur, Budge Budge,",Kolkata,,West Bengal,700137,Dr.C.V.Reddy,94901 94995,director@bbit.edu.in
M10223,G.L. Bajaj Institute of Management and Research,"Plot No. 2, Knowledge Park III, ",Greater Noida,,Uttar Pradesh,201306,Dr.Urvashi Makkar,99718 83439,director.general@glbimr.org
M10224,Pranveer Singh Institute of Technology,,Kanpur,,Uttar Pradesh,209305,Dr.K.T.V.Reddy,80054 65888,director@psit.ac.in
M10225,Bhagwan Parshuram Institute of Technology,"PSP Area No-4, Sector 17 Rohini, ",New Delhi,,New Delhi,110089,Prof.Payal Pahwa,98103 92902,principal@bpitindia.com
M10226,Shambhunath Institute of Engineering and Technology,"18-A, Auckland Road, Jhalwa, ",Allahabad, ,Uttar Pradesh,211001,Prof.R.K.Singh,,rksingh@siet.in
M10227,Truba Institute of Engineering and Information Technology,"Karod-Gandhi Nagar, Bypass Road,",Bhopal,,Madhya Pradesh,462038,Dr.Manish Manoria,98260 92416,manishmanoria@trubainstitute.ac.in
M10228,Dr.G.R. Damodaran College of Science,"Avinashi Road,Civil Aerodrome Post, ",Coimbatore,,Tamilnadu,641014,Dr.T.Santha,98422 56114,grdcs@grd.org
M10229,Gandhi Institute of Excellent Technocrats,"Santi Niketan, At: Gangapatana,PO: Kantabada, Via: Janla,",Bhubaneswar,"Dist: Khurda,",Odisha,752054,Prof.(Dr.) Niranjan Mishra,98611 81127,mishra_niranjan@rediffmail.com
M10230,Institute of Management Technology,"603, Khullar Appartment, Byramji Town, ",Nagpur,,Maharashtra,440013,Dr.Subhajit Bhattacharyya,0712-2805201,sbhattacharya@imtnag.ac.in
M10231,"Zeal Institute of Business Administration, Computer Application and Research","Survey No. 39, Narhe,",Pune,,Maharashtra,411041,Dr.Neha Vijay Sharma,99236 02480,nvsharma@rediffmail.com
M10232,Gyan Ganga College of Technology,"Post Tilwara Ghat Road, Near Bargi Hills, ",Jabalpur,,Madhya Pradesh,482003,Dr.R.K.Ranjan,95847 27444,principal@ggct.co.in
M10233,B.K. Birla Institute of Engineering and Technology,"BKBIET Campus, CEERI Road, ",Pilani,"Dist. Jhunjhunu, ",Rajasthan,333031,Prof.Shridhar B. Dandin,94140 62512,shridhar.dandin@bkbiet.ac.in
M10234,IFET College of Engineering,"IFET Nagar, Gangarampalayam Post,Valavanur, ",Villupuram,,Tamilnadu,605108,Dr.G.Mahendran,94433 31456,mahe1967@yahoo.com
M10235,IEC Group of Institutions,"Plot No.-4, Knowledge Park-1,Surajpur Kasna Road, ",Greater Noida,,Uttar Pradesh,201306,Dr.D.B.Singh,85888 98413,director@ieccollege.com
M10236,Feroze Gandhi Institute of Engineering and Technology,"Ratapur Chauraha, ",Raebareli,,Uttar Pradesh,229316,Prof.R.P.Sharma,94151 17957,director@fgiet.ac.in
M10237,K.J.Somaiya Institute of Engineering and Information Technology,"Somaiya Ayurvihar Complex, Near Everard Nagar, Eastern Express Highway Sion, ",Mumbai,,Maharashtra,400022,Dr.Suresh Ukarande,98205 55761,principal.tech@somaiya.edu
M10238,Adhi College of Engineering and Technology,"No.6, Munu Adhi Nagar,Sankarapuram, Puliambakkam Post, ",Kanchipuram District,,Tamilnadu,631605,Dr.A.Devaraju,90940 41754,principal@adhi.edu.in
M10239,KG College of Arts and Science,"KG Campus,Saravanampatty, ",Coimbatore,,Tamilnadu,641035,Dr.R.Anuja,98435 55678,anuja.r@kgcas.com
M10240,S.N.R. Sons College,"S.N.R. College Road,",Coimbatore,,Tamilnadu,641006,Dr.K.Karunakaran ,73732 45666,principal@snrsonscollege.org
M10241,Jawaharlal Institute of Technology,,Borawan, ,Madhya Pradesh,451228,Dr.Atul Upadhyay,98932 47793,
M10242,Samskruti College of Engineering and Technology,"Kondapur (V), Ghatkesar (M), Ranga Reddy District, ",Hyderabad, ,Telangana,501301,Dr.M.Sreedhar Reddy,97013 68997,principal.samskruti@gmail.com
M10243,Valia Koonambaikulathamma College of Engineering and Technology,"Chavarcode, Parippally Post, ",Thiruvananthapuram,,Kerala,691574,Prof.M.A.Sakeer ,94463 63916,maskply@gmail.com
M10244,PTVA's Institute of Management,"(Parle Tilak Vidyalaya Association)Chitrakar Ketkar Marg, Behind M.L. Dahanukar College, Vile Parle East, ",Mumbai,,Maharashtra,400057,Dr.Harish Kumar S. Purohit,99302 68818,"dr.harishpurohit@gmail.com, director@ptvaim.com"
M10245,G.L. Bajaj Institute of Technology and Management ?,"Plot No. 2, Knowledge Park III, ",Greater Noida,,Uttar Pradesh,201306,Dr.Rajeev Agarwal,99710 74301,director@glbitm.org
M10246,Amity University,"Amity Vally Panchgaon, Manesar, ",Gurgaon,,Haryana,122413,Prof.Virender Kumar Narang,88004 20707,vknarang@ggn.amity.edu
M10247,SNGIST Group of Institutions,"Manjali, Mannam Post, North Paravur, ",Ernakulam,,Kerala,683520,Dr.V.Suresh Kumar,94476 73836,suresh@sngist.org
M10248,RISE Krishna Sai Prakasam Group of Institutions,"ofF-NH-5, Valluru, ",Ongole,"Prakasam District,",Andhra Pradesh,523272,Dr.L.Prasad,95029 35678,prasadlayan@gmail.com
M10249,Adithya Institute of Technology,"Sathy Main Road, Kurumbapalayam,",Coimbatore,,Tamilnadu,641107,Dr.N.Kathiravan,98426 77711,principal@@adithyatech.com
M10250,St. Mary's Womens Engineering College,,Guntur,,Andhra Pradesh,522017,Dr.V.Satyanarayana,90104 55598,stmw.principal@gmail.com
M10251,"Shri Ram Murti Smarak College of Engineering, Technology and Research",,Bareilly,,Uttar Pradesh,243202,Dr.Anant Kumar Srivastava,94127 38659,anant@srmswcet.ac.in
M10252,Sri Vidya College of Engineering and Technology,"Sivakasi Main Road,",Virudhunagar, ,Tamilnadu,626005,Sr.S.Sankaralingam,97159 99100,slingam.ju@gmail.com
M10253,Indira Gandhi Institute of Technology,"Sarang, ",Dhenkanal,,Odisha,759146,Dr.Saroj Mishra,98614 14972,sarose.mishra@gmail.com
M10254,MCE Society’s P.A. Inamdar College of Visual Effects Design and Art,"2390-B, KB Hidayatullah Road, Azam Campus, Camp,",Pune,,Maharashtra,411001,Dr.Rishi Acharya,88888 08108,principal@ved-edu.com
M10255,Seshasayee Institute of Technology,"Tanjore Main Road,Ariyamangalam,",Trichy,,Tamilnadu,620010,Mr.S.Sangappillai,94431 91941,ssp62y@yahoo.co.in
M10256,National Institute of Technology,"Yupia, Near DC office,District: Papum Pare",Naharlagun,,Arunachal Pradesh,791112,Dr.C.T.Bhunia,94362  71829,directornitap@gmail.com
M10257,SSM Institute of Engineering and Technology,,Dindigul,,Tamilnadu,624002,Dr.R.Palanichamy,73737 07003,principalssmiet@gmail.com
M10258,Supreme Knowledge Foundation Group of Institutions,"1 Khan Road, P.O. Mankundu, ",Hooghly,,West Bengal,712139,Dr.Abhijit Lahiri,96742 46187,abhijit.lahiri@skf.edu.in
M10259,Thakur College of Science and Commerce,"Shyamnarayan Thakur Marg,Thakur Village, Kandivli (East),",Mumbai,,Maharashtra,400101,Dr.C.T.Chakraborty,98213 23251,tcsc101@gmail.com
M10260,Ewing Christian College,"Gaughat, Mutthiganj,",Allahabad,,Uttar Pradesh,211003,Dr.M.Massey,96282 88884,principal@ecc.ac.in
M10261,KKR and KSR Institute of Technology and Sciences,"Vinjanampadu, Pratipadu Road, ",Guntur,,Andhra Pradesh,522017,Dr.P.Babu,94419 15837,principaljr@gmail.com
M10262,Aalim Muhammed Salegh College of Engineering,"Nizara Educational Campus,Muthapudupet, AvadiI A F, ",Chennai,,Tamilnadu,600055,Dr.M.Afzal Ali Baig,98420 81297,principal@aalimec.ac.in
M10263,GNA University,"Sri Hargobindgarh, Hoshiarpur Road, ",Phagwara,,Punjab,144405,Dr.Prem Kumar,99153 55555,vc@gnauniversity.edu.in
M10264,Rizvi College of Engineering,"New Rizvi Educational Complex,off-Carter Road, Bandra (W),",Mumbai,,Maharashtra,400050,Dr.Varsha Shah,98691 05421,principal@eng.rizvi.edu.in
M10265,Aditya College of Engineering,"Punganur Road, ",Madanapalle,,Andhra Pradesh,517325,Dr.S.Ramalinga Reddy,94418 54711,principal@acem.ac.in
M10266,Technocrats Institute of Technology,"BHEL, Anand Nagar, (Infront of Hataikheda Dam), P.B. No.24, Post Piplani,",Bhopal,,Madhya Pradesh,462021,Dr.Bhupendra Verma,94251 50411,bkverma3@gmail.com
M10267,Loyola Academy Degree and PG College,"Alwal, ",Secunderabad,,Telangana,500010,Fr.Dr.K.S.Casimir SJ,93933 66652,kscasimirsj@yahoo.co.in
M10268,PPG Institute of Technology,"NH-209, Saravanampatti Post,",Coimbatore,,Tamilnadu,641035,Dr.R.Prakasam,90477 77977,ppgitprincipal@yahoo.com
M10269,JSPM Narhe Technical Campus,,Pune,,Maharashtra,411041,Dr.Dayanand S. Bilgi,80079 10636,director.jspmntc@gmail.com
M10270,Mohandas College of Engineering and Technology,"Anad PO,Nedumangad, ",Thiruvananthapuram,,Kerala,695544,Dr.Ashalatha Thampuran,94470 48869,ashalathat@gmail.com
M10271,Gandhi Institute for Education and Technology,"At-Baniatangi, Po-Bajapur,Khurda District,",Bhubaneswar,,Odisha,752060,Prof.Jyoti Prakash Mishra,99370 96242,jpmishra@hotmail.com. jpmihra@gietbbsr.com
M10272,Dayananda Sagar University,"School of Engineering, Kudlu Gate, Hosur Main Road,",Bangalore,,Karnataka,560068,A.N.N.Murthy,98867 88487,vicechancellor@dsu.edu.in
M10273,MRK Institute of Technology,"Nattarmangalam, Kattumannarkoil,",Cuddalore, ,Tamilnadu,608301,Dr.K.Anandavelu,94442 06138,anandavel01@gmail.com
M10274,St. Claret College,"P.O. Box 1355, M.E.S. Ring Road, Jalahalli, ",Bangalore,,Karnataka,560013,Rev.Fr.Dr.Sabu George,81052 02584,sabukcmf@gmail.com
M10275,Sanketika Vidya Parishad Engineering College,"Behind TSR Cricket Stadium, Pothinamallayya Palem,",Visakhapatnam,,Andhra Pradesh,530041,Dr.P.M.M.S.Sorma,88866 01062,principal@svpec.edu.in
M10276,A.P. Shah Institute of Technology,"Survey No-12, Opp.Hypercity Mall, Kasarvadavali, Ghodbunder Road, ",Thane, ,Maharashtra,400615,Dr.Uttam D. Kolekar,93237 27431,principal@apsit.org.in
M10277,Jeppiaar Maamallan Engineering College,"Jeppiaar Maamallan Nagar,",Sriperumpudur,,Tamilnadu,602108,Dr.R.Subhashini,95501 22707,principaljmec@gmail.com
M10278,Sri Krishna College of Engineering,"T.R.S. Campus, Sri Krishna Nagar,Tiruttani Road,",Arakkonam,,Tamilnadu,631003,Dr.Sathya Gauranga,95008 18576,gsathy2000@gmail.com
M10279,Adikavi Nannaya University,Rajah Rajah Narendhra Nagar ,Rajahmundry,"East Godavari,",Andhra Pradesh,533296,Prof P Suresh Varma,98483 75600,vermaps@yahoo.com
M10280,Manav Rachna International UniversityFaculty of Computer Applications,"Sector-43, Aravali Hills,Suraj Kund Road,  ",Faridabad,,Haryana,121001,Dr.Naresh Grover ,99101 63137,dean.fca@mriu.edu.in
M10281,Inderprastha Engineering College,"63, Site-IV, Suryanagar Flyover Road, Sahibabad, ",Ghaziabad,,Uttar Pradesh,201001,Dr.Brijesh Chand Sharma,99716 64484,director@ipec.org.in
M10282,Hindustan Institute of Technology and Science,"1, Rajiv Gandhi Salai,OMR, Padur, Kelambakam, ",Chennai,,Tamilnadu,603103,Dr.S.Ramachanran,98402 74079,vc@hindustanuniv.ac.in
M10283,Sahyadri College of Engineering and Management,"Sahyadri Campus, Adyar, ",Mangalore,,Karnataka,575007,Dr.U.M.Bhushi,94481 00123,principal.engineering@sahyadri.edu.in
M10284,College of Engineering Pathanapuram,"Elikkattoor Post,",Kollam,,Kerala,689696,Dr.S.Annada Resmi,94955 62111,principal.pathanapuram@gmail.com
M10285,Shri Swami Atmanand Saraswati Institute of Technology,"Opp. Kapodara Police Station,Varachha Road,",Surat,,Gujarat,395006,Dr.Ajay V. Deshmukh,98222 90452,ajay.deshmukh@rediffmail.com
M10286,Sasurie College of Engineering,,Vijayamangalam,"Uthukuli Talak,Tiruppur District,",Tamilnadu,638056,Dr.R.Radhakrishnan,94425 93839,sceprincipal@sasurie.com
M10287,Sagar Institute of Science and Technology,"Near International Airport, Jaipur Road, Gandhi Nagar,",Bhopal,,Madhya Pradesh,462036,Dr.Manish Billore,89599 09440,sistec.csi@sistec.ac.in
M10288,PET Engineering College,"Tiruchendur Road, ",Vallioor,"Tirunelveli District,",Tamilnadu,627117,Dr.Mohamed Sheriff,94435 43458,nmshariff@yahoo.co.in
M10289,Gobi Arts and Science College,"Karattadipalayam Post, ",Gobichettipalayam,,Tamilnadu,638452,Dr.R.Sellappan,98427 41139,drrsellappan@gmail.com
M10290,RTC Institute of Technology,"Anandi, Ormanjhi, ",Ranchi,,Jharkhand,835219,Dr.S.N.Prasad,77659 15605,
M10291,AKS University,"Sherganj, Panna Road, ",Satna,,Madhya Pradesh,485001,Dr.G.K.Pradhan,81200 03355,gkpradhan@aksuniversity.ac.in
M10292,Gokaraju Rangaraju Institute of Engineering and Technology,"Bachupally, Kukatpally, ",Hyderabad,,Telangana,500090,Dr.Jandhyala N Murthy,93911 84994,info@griet.ac.in
M10293,Waljat College of Applied Sciences,,Muscat,,Oman,,Dr.Shankar Lal Gupta,96893227716,dean@@waljat.net
M10294,Jaypee University of Information Technology,"Waknaghat, Tehsil-Kandaghat, ",Solan,,Himachal Pradesh,173234,Dr.Vinod Kumar,01792-239248,vinod.kumar@juit.ac.in
M10295,SIES College of Management Studies,"Plot 1-E, Sector-5, Nerul, ",Navi Mumbai,,Maharashtra,400706,Dr.A.K.Sen Gupta,98211 28103,aksengupta@gmail.com
M10296,Malla Reddy Engineering College and Management Sciences,"Kistapur, Hamlet of Medchal (V and M), ",R.R. District,,Telangana,501401,Dr.A.Siva Kumar,95504 33210,principal.mrem@gmail.com
M10297,Vivekanandha College of Technology for Women,"Sathinaickanpalayam, ",Elayampalayam,"Thiruchengode, Namakkal Dt,",Tamilnadu,637205,Dr.S.Rathinavel ,94437 34893,profsr.vctw@gmail.com
M10298,"Indian Institute of Information Technology, Dharwad","3rd Floor, IT Park,Opp. Glass House,",Hubli,,Karnataka,580029,Dr.S.C.Sharma,98452 67790,scsharma.bangalore@gmail.com
M10299,Chirala Engineering College,"Ramapuram Beach Road,Vetapalem (M), Prakasam District, ",Chirala,,Andhra Pradesh,523157,Dr.Syed Kamaluddin,98489 37718,principal@cecc.co.in
M10300,Trident Academy of Technology,"Plot No:F2/A, Chandaka Industrial Estate,Infocity Area,",Bhubaneswar,,Odisha,751024,Dr.R.N.Satpathy,94375 71307,ed@tat.ac.in
M10301,Sanjeevan Engineering and Technology Institute,"Sanjeevan knowledge City,Somwar Peth-Injole,",Panhala,,Maharashtra,416201,Dr.G.V.Mulgund,91469 99500,principal@seti.edu.in
M10302,Universal College of Engineering and Technology,"Perecherala, Dokiparru (V), Medikondur (M), ",Guntur,,Andhra Pradesh,522438,Dr.A.Guruva Reddy,95505 33373,"ucetprincipal@gmail.com, guruvareddy78@gmail.com "
M10303,Dr.Ashok Gujar Technical Institutes,,Satara,,Maharashtra,415124,Dr.R.Patil Jalindar,99238 70356,principal@dacoe.ac.in
M10304,Guru Nanak Dev Engineering College,"Gill Park, Gill Road, ",Ludhiana,,Punjab,141006,Dr.Manohar Singh Saini,98554 00448,director@gndec.ac.in
M10305,Technocrats Institute of Technology (Excellence),"TIT Campus, Anand Nagar Post Piplani, BHEL, Opp.Hathaikheda Dam,  ",Bhopal, ,Madhya Pradesh,462021,Dr.Asif Ullah Khan,98260 72325,asifullahkhan@rediffmail.com
M10306,Potti Sriramulu Chalavadi Mallikarjuna Rao College of Engineering and Technology,"7-3-6/1, Raghava Reddy Street,Kothapeta, ",Vijayawada,,Andhra Pradesh,520001,Dr.K.Nageswara Rao,89777 88844,principal@pscmr.ac.in
M10307,Bhaktavatsalam Memorial College for Women,"No:14, 31st Street,Periyar Nagar, Korattur,",Chennai,,Tamilnadu,600080,Dr.C.N.Eswari,94440 76595,eswarimani@yahoo.co.in
M10308,JB Institute of Technology,"NH-7, Chakrata Road,(Near Selaqui) Shankerpur,",Dehradun,,Uttarakhand,248001,Dr.Amit Kumar Bansal,88944 22050,director@jbitdoon.com
M10309,M.H. Saboo Siddik Polytechnic,"8, Saboo Siddik Polytechnic Road,Byculla, ",Mumbai,,Maharashtra,400008,Dr.Kureshi Abdul Kadir,99701 78118,principal_mhssp@rediffmail.com
M10310,Technocrats Institute of Technology and Science,"BHEL, Opp. Hataikheda Dam,  Anand Nagar, Raisen Road,",Bhopal,,Madhya Pradesh,462021,Dr.A.S.Umesh,96852 46981,umeshasp@yahoo.co.in
M10311,Phaltan Education Society's College of Engineering,,Phaltan,,Maharashtra,415523,Dr.M.K.Phadatare,94223 41210,mphadatare2005@yahoo.co.in
M10312,Narsimha Reddy Engineering College,"Sy.No:518, Maisammaguda (V),Ranga Reddy District,",Secunderabad,,Telangana,500100,Dr.C.N.V.Sridhar,99490 92454,principal@nrcmec.org
M10313,Kommuri Pratap Reddy Institute of Technology,"Near Singapore Township, Adjacent to NTPC Power GridGhanpur Village, Ghatkesar(M),",Hyderabad,,Telangana,500100,Dr.Ravi Gujjula,84980 52084,principal@kpritech.ac.in
M10314,NSHM Knowledge Campus,"Arrah, Shibtala,Via Muchipara, ",Durgapur,,West Bengal,713212,Prof.Probir Kumar Bose,81166 10244,probir.bose@nshm.com
M10315,AKI'S Poona College of Arts Science and Commerce,"K.B.Hioayatullah Road, Camp,",Pune,,Maharashtra,411001,Dr.M.Rafique Sarkhawas ,98908 05553,mrafiques@gmail.com
M10316,Malla Reddy Institute of Technology,"Maisammaguda, Dhullapally Post, ",Secunderabad,,Telangana,500100,Dr.Jammi Ashok,93461 18805,principalmrit@gmail.com
M10317,Maharaja Agrasen Institute of Technology,"PSP Ara, Plot No-11Sector-22, Rohini,",New Delhi,,New Delhi,110086,Dr.M.L.Goval,98102 93264,mlgoyal@gmail.com
M10318,Swami Vivekananda Institute of Technology,"Mahbub College Campus, ",Secunderabad,,Telangana,500003,Ms.Y.L.Malathi Latha,99630 83199,malathilatha_99@yahoo.com
M10319,MVN University,"74 KM  Milestone, Delhi-Agra Highway,",Palwal,,Haryana,121105,Prof.J.V.Desai,99999 72906,vc@mvn.edu.in
M10320,RVR and JC College of Engineering,"Chowdavaram,",Guntur,,Andhra Pradesh,522019,Prof.K.Srinivasu,94929 40860,kota.srinivasu@gmail.com
M10321,Nirma University Institute of Technology,"Sarkhej-Gandhinagar Highway,  ",Ahmedabad,,Gujarat,382481,Dr.Alka Mahajan,,director.it@nirmauni.ac.in
M10322,St. Joseph Engineering College,Vamanjoor ,Mangaluru,,Karnataka,575028,Dr.Joseph Gonsalvis,94487 05595,principal@sjec.ac.in
M10323,Ambedkar Institute of Technology,"Shakarpur (Opposite Madhuban), ",Delhi,,Delhi,110092,Dr.Amita Dev,98100 89133,ap.delhi@nic.in
M10324,KPB Hinduja College of Commerce,"315, New Charni Road, ",Mumbai,,Maharashtra,400004,Dr.Minu B. Madlani,98921 86412,mmadlani@gmail.com
M10325,Bennett University,"Plot Nos 8-11, TechZone II,",Greater Noida,,Uttar Pradesh,201310,Dr.Yaj Medury,98106 07207,yaj.medury@bennett.edu.in
M10326,Techno India College of Technology,"DG 1/1, New Town Mega City, Rajarhat",Kolkata,,West Bengal,700156,Dr.Radha Tamal Goswami,99039 93395,tamal.goswami@gmail.com
M10327,JK Lakshmipat University,"Near Mahindra SEZ, Mahapura,",Jaipur,,Rajasthan,302026,Dr.Anupam Kumar Singh,98791 72079,director.iet@jklu.edu.in
M10328,Faculty of Engineering and TechnologyParul University,"P.O.Limda, Ta.Waghodia,",Vadodara, ,Gujarat,391760,Dr.Shital T. Shah,98791 05574,pit@paruluniversity.ac.in
M10329,Netaji Subhas Institute of Technology,"Amhara, Bihta, ",Patna,,Bihar,801118,Dr.Shashi Bhushan Singh,77810 20362,principal@nsit.in
M10330,Sri Chandrasekharendra Saraswathi Viswa Mahavidyalaya,"Sri Jayendra Saraswathi Street, Enathur,",Kanchipuram,,Tamilnadu,631561,Dr.G.Srinivasu,95006 34455,registrar@kanchiuniv.ac.in
M10331,RMD Sinhgad School of Engineering,,Pune,,Maharashtra,411058,Dr.C.B.Bangal,80075 18338,principal.rmdssoe@sinhgad.edu
M10332,D.Y. Patil School of Engineering Academy,"D.Y. Patil Technical Campus,MIDC Road, Ambi,Talegaon Dabhade,",Pune,,Maharashtra,410506,Dr.Vilas Nitnaware,88569 01225,vilasan30@yahoo.com
M10333,PES University,"100 Feet Ring Road, III Stage,Banashankari, Hoskerehalli, ",Bangalore,,Karnataka,560085,Prof.Nitin V. Pujaru,94498 67803,
M10334,Holy Mary Institute of Technology and Science,,Hyderabad,,Telangana,501301,Dr.N.Subhash Chandra,98485 11063,principalhitscoe@gmail.com
M10335,New Horizon Institute of Technology and Management,"New Horizon Education Society's Complex,Anand Nagar, Kavesar,off Ghodbunder Road,",Thane,,Maharashtra,400615,Prof.(Dr.)Vilas Shinde,97020 68383,principal@nhitm.ac.in
M10336,Sadabai Raisoni Women's College,"345, Shradha House,  3rd Floor, Kingsway",Nagpur,,Maharashtra,440001,Prof.Amina Vali,93731 07200,amina.vali@raisoni.net
M10337,Shree Damodar College of Commerce and Economics,"Shree Damodar Educational Campus,G.R.Kare Road, Tansor, Comba,",Margao,,Goa,403601,Dr.Prita D. Mallya,98221 03611,prita.mallya@vvm.edu.in
M10338,M.M.M. University of Technology,"Department of Computer Science and EngineeringDeoria Road, ",Gorakhpur, ,Uttar Pradesh,273010,Mr.K.P.Singh,92355 00550,registrar@mmmut.ac.in
M10339,University Department of Information Technology,"Dr.Shankar Dayal Sharma Bhavan3rd Floor, Vidyanagari,Santacruz(East), ",Mumbai,,Maharashtra,400098,Prof.R.Srivaramangai ,99690 22129,rsrimangai@udit.mu.ac.in
M10340,Sri Jayachamarajendra College of Engineering,"Manasagangothri,",Mysore,,Karnataka,570006,Syed Shakeeb Ur Rahman,,ssr_sjce@yahoo.co.in
M10341,Vignan's Institute of Information Technology,"Besides VSEZ , Duvvada,Vadlapudi Post , Gajuwaka",Visakhaptnam,,Andhra Pradesh,530049,Dr.Challa Narasimham,98663 99921,vignaniit@yahoo.com
M10342,Bharati Vidyapeeth Deemed University Yashawantrao Mohite Institute of Management,"S.No.114/2A, Koyana Vasahat,Pune-Bangalore Highway, Malkapur,",Karad,,Maharashtra,415539,Dr.N.R.Jadhav,92268 58772,nirmohi_jadhav@rediffmail.com
M10343,Vivekanandha College of Arts and Science for Women,"Elayampalayam,",Tiruchengode,"Namakkal District,",Tamilnadu,637205,Dr.B.T.Suresh Kumar,94433 16500,vicasprincipal@gmail.com
M10344,MGM College,"Kankarbagh Main Road,Opp Chandan Hero Show Room,",Patna, ,Bihar,800020,Dr.Seema Mishra,93047 19951,seemamgmpatna@gmail.com
M10345,PES Institute of Technology and Management,"NH-206, Sagar Road,  Guddadarekere,  Kotegangoor Post, ",Shivamogga,,Karnataka,577204,Dr.T.Ashok Kumar,94491 04654,principal_pesitm@pes.edu
M10346,Women's Christian College,"College Road, ",Chennai,,Tamilnadu,600006,Dr.Ridling Margaret Waller,98406 83182,principal@wcc.edu.in
M10347,Kallam Haranath Reddy Institute of Technology,"NH-5, Behind Kallam Spinning Mills, ",Chowdavaram,"Guntur District, ",Andhra Pradesh,522019,Dr.Movva Uma Shankar Reddy,94910 73337,usreddymava@yahoo.com
M10348,Manav Rachna International UniversityFaculty of Engineering and Technology,"MRIU Aravalli Campus, Sector-43, Delhi-Surajkund Road,",Faridabad,,Haryana,121004,DR.M.K.Soni,98715 88132,ed.fet@mriu.edu.in
M10349,Dr.B.R. Ambedkar National Institute of Technology,"G.T. Road, Bye-Pass Amritsar Road,",Jalandhar,,Punjab,144011,Prof.Lalit Kumar Awasthi,70184 94770,director@nitj.ac.in
M10350,Central College of Engineering and Management,,Raipur,    ,Chhattisgarh,492009,Prof.Rakesh Chandrakar,94252 07008,rakchand17@yahoo.com
M10351,Geetanjali Institute of Technical Studies,"NH-76, Airport Road, Dabok, ",Udaipur,,Rajasthan,313022,Prof.Dr.K.N.Sheth,94140 04492,director@gits.ac.in
M10352,Maeer's Arts Commerce and Science College,"S.No.124, Saraswati Vishwa, Wing 'A' MIT Campus,Paud Road, Kothrud, ",Pune,,Maharashtra,411038,Dr.Madhuri Kulkarni,98204 98237,
M10353,Sharad Institute of Technology Polytechnic,"Jay-Sangli Naka, ",Yadrav ( Ichalkaranji),"Tal- Shirol DistKolhapur,",Maharashtra,416121,Prof.S.Tashildar Barjrang,98223 28004,tashildar.bajrang@gmail.com
M10354,PRS College of Engineering and Technology,"Karikarathala, Dalumugham P.O, Neyyattinkara, ",Thiruvananthapuram,,Kerala,695125,Dr.Raveendran Pillai,99959 68835,ravipoykail@gmail.com
M10355,Galgotias University,"Plot No.-2, Sector 17-AYamuna Expressway,Distt. Gautam Budh Nagar,",Greater Noida,,Uttar Pradesh,203201,Dr.Renu Luthra,97111 10617,pvcluthra@galgotiasuniversity.edu.in
M10356,B.P. Poddar Institute of Management and Technology,"#137, Poddar Vihar, V.I.P.Road, ",Kolkata,,West Bengal,700052,Dr.Sutapa Mukherjee,90510 99052,bppimt.principal@gmail.com
M10357,World College of Technology and Management,"Farukhnagar, Khera Khurampur,",Gurgaon,,Haryana,122501,Dr.Narendra Singh,98103 64333,chairman@wctmgurgaon.com
M10358,Asian Business School,"Marwah Studios Complex-IIPlot A2, Sector-125, ",Noida,,Uttar Pradesh,201303,Dr.Lalitya Vir Srivastava,98100 60647,director@abs.edu.in
M10359,Techno India,"EM 4/1, Sector-V, Salt Lake City, ",Kolkata,,West Bengal,700091,Dr.Rina Paladhi,94338 41930,directortisl.rp@gmail.com
M10360,Dev Samaj College for Women,,Ferozepur, ,Punjab,152002,Dr.Madhu Prashar,,principaldscw@yahoo.com
M10361,Shri Siddhi Vinayak Institute of Technology,"10th Kilometer Milestone, Nainital Road,",Bareilly,,Uttar Pradesh,243001,Dr.Manish Varshney,75994 71145,varshney@gmail.com
M10362,Guru Nanak College,,Budhlada,,Punjab,151502,Dr.Kuldip Singh Bal,81465 53146,
M10363,AMC Engineering College,"18th K.M, Kalkere,Bannerghatta Road, ",Bangalore,,Karnataka,560083,Dr.T.N.Sreenivasa,99020 44111,principal@amceducation.in
M10364,Sree Sakthi Engineering College,"899/1, 898/2, Bettathapuram, Karamadai, ",Coimbatore,,Tamilnadu,641104,Dr.V.Velmurugan,92445 02277,principal@sreesakthi.edu.in
M10365,Sikkim Manipal Institute of Technology,"P.O-Majitar, Dist-East Sikkim,",Rangpo,,Sikkim,737132,Dr.Amik Garg,94340 12147,director.smit@smu.edu.in
M10366,MVPS'S Rajarshi Shahu Maharaj Polytechnic,"Udoji Maratha Boarding Campus, Gangapur Road,  ",Nashik,,Maharashtra,422013,Prof.B.N.Rajole,98223 72469,1002principal@msbte.com
M10367,Oriental Institute of Science and Technology,"Oriental Campus, Opp. Patel Nagar,Raisen Road, ",Bhopal,,Madhya Pradesh,462021,Dr.Kavita Burse,98931 41968,directoroist@oriental.ac.in
M10368,National Institute of Technical Teachers Training and Research,"Sector 26, ",Chandigarh,,Punjab,160019,Dr.P.K.Tulsi,0172-2759501,director@nitttrchd.ac.in
M10369,Indira College of Engineering and Management,"S.No.64,65, Gat No.276,Parandwadi, Near Somatne Phata,Tal:-Maval,",Pune,,Maharashtra,410506,Dr.Sunil B. Ingole,77200 10701 / 94223 40370,sunil.ingole@indiraicem.ac.in
M10370,Symbiosis Institute of Operations Management,"Plot No.A-23, Shravan Sector, New CIDCO, ",Nashik,,Maharashtra,422008,Dr.Vandana Sonawaney,98226 61160,director@siom.in
M10371,St. Thomas College of Enginering and Tchnology,"Sivapuram (PO) Mattannur (via), ",Kannur,,Kerala,670702,Dr.Shinu Mathew John,93679 26966,principal@stthomaskannur.ac.in
M10372,Avanthi Institute of Engineering and Technology,"Cherukupally(P), Bhogapuram(M) Near Tagarapuvalasa, ",Vizianagaram District,,Andhra Pradesh,531162,Dr.V.S.V.Prabhakar,77300 07703,"principal_q7@rediffmail.com, prabhakarvsv@gmail.com"
M10373,Government College of Engineering,"Mangattuparamba, Parassinikkadavu Post, ",Kannur,,Kerala,670563,Dr.T.D.John,94475 40640,principal@gcek.ac.in
M10374,SVPM's College of Engineering,"Malegaon(Bk), Baramati, ",Pune,,Maharashtra,413115,Dr.D.M.Yadav,90110 63944,coembk.office@gmail.com
M10375,Dr.B.C.Roy Engineering College,"Jemua Road, Fuljhore,",Durgapur, ,West Bengal,713206,Dr.Amitabha Sinha ,990300 02800,principal@bcrec.ac.in
M10376,Christu Jyoti Institute of Technology and Science,"Colombonagar, Yeshwanthapur,",Jangaon,,Telangana,506167,Dr.S.Chandra Shaker Reddy,93464 74916,"principal@cjits.org, chandureddy6@yahoo.com"
M10377,Ballari Institute of Technology and Management,,Ballari,,Karnataka,583104,Prof.Y.J.Prithiviraj,99005 59312,prithiviraj@bitm.edu.in
M10378,KCL Institute of Management and Technology,"G.T Road, ",Jalandhar,,Punjab,144001,Dr.S.K.Sood,98885 21762,director.kclimt@kclimt.com
M10379,Maharaja Institute of Technology,"Behind, Belawadi, K.R. Mills, S.R. Patna,",Mandya,,Karnataka,571438,Dr.B.G.Naresh Kumar,96202 28021,principal@mitmysore.in
M10380,Pandit Deendayal Petroleum UniversitySchool of Technology,"Raisan Village,",Gandhinagar,,Gujarat,382007,Prof.H.B.Raghavendra,94095 36904,directorsot@pdpu.ac.in
M10381,Graphic Era Hill University,"Sat Tal Road,PO: Bhowali, ",Bhimtal,,Uttarakhand,263132,Mr.Anil Kumar Baliga,98971 01038,dir.gehu.bmt@gmail.com
M10382,Modern Engineering and Management Studies,"NH-5, Banaparia, Kuruda, ",Balasore,,Odisha,756056,Dr.Sanjat Kumar Mishra,94374 44960,principal@mems.edu.in
M10383,Aurora's Engineering College,"Bhongir (V and M), ",Nalgonda Dist,,Telangana,508116,Dr.Chandrasekhar Kandagatta,91001 11111,principal@aurora.edu.in
M10384,Kakinada Institute of Technology and Science,"Tirupathi (V), Divili, Peddapuram Mandal, ",East Godavari District,,Andhra Pradesh,533433,Dr.P.M.M.S.Sarma,90106 95695,kitsprincipaljq@gmail.com
M10385,Malla Reddy College of Engineering for Women,"Suraram X Roads, Jeedimetla, Medchal,",Hyderabad,,Telangana,500055,Dr.Vaka Murali Mohan,99660 23477,murali_vaka@yahoo.com
M10386,St. Mary's Group of Institutions Guntur,"Chebrolu (Village and Mandal), ",Guntur District,,Andhra Pradesh,522212,Mr.Raghav Yathiraju,96667 77091,raghavy@stmarysgroup.com
M10387,Lakshmi Narain College of Technology,"Kalchuri Nagar, Raisen Road,",Bhopal,,Madhya Pradesh,462021,Dr.Rakesh Mowar,,rakeshmowar_05@yahoo.co.in
M10388,Uttaranchal University,"Arcadia Grant, Post Chandanwari, Premnagar, ",Dehradun, ,Uttarakhand,248007,Prof.N.K.Joshi,75439 22228,dean@uttaranchaluniversity.ac.in
M10389,Teegala Krishna Reddy Engineering College,"Medbowli, Meerpet,Saroornagar, ",Hyderabad,,Telangana,500074,V.Goutham,99669 59936,v.goutham@gmail.com
M10390,DAV Institute of Engineering and Technology,"Kabir Nagar, ",Jalandhar,,Punjab,144008,Dr.Manoj Kumar,94781 01102,principal@davietjal.org
M10391,Aditya Silver Oak Institute of Technology,"Opp. Bhagwat Vidyapith, S.G.Highway, Gota, ",Ahmedabad,,Gujarat,382481,Dr.Siddharthsinh Jadeja,98791 32280,principal_asoit@socet.edu.in
M10392,Galgotias College of Engineering and Technology,"1, Knowledge Park, Phase II",Greater Noida,,Uttar Pradesh,201306,Dr.V.K.Dwivedi,99530 01761,director@galgotiacollege.edu
M10393,SKN Sinhgad Institute of Technology and Science,"Gat No 309, Kusgaon(Bk.), Lonavala, Tal. Maval, ",Pune,,Maharashtra,410401,Dr.M.S.Rohokale,99224 31616,principal.sknsits@sinhgad.edu
M10394,Atal Bihari Vajpayee Government Institute of Engineering and Technology,,Shimla,,Himachal Pradesh,171202,Prof.M.K.Jha,94172 90668,director.abv@gmail.com
M10395,Zeal College of Engineering and Research,"Sr.No:39, Narhe, ",Pune,,Maharashtra,411041,Dr.Ajit M. Kate,98220 14351,ajit.kate@zealeducation.com
M10396,Sagar Institute of Research and Technology,"Ayodhya Bypass Road, ",Bhopal,,Madhya Pradesh,462041,Dr.Akhilesh Upadhyay,89594 93954,"director@sirtbhopal.ac.in, sirtbhopal@sirtbhopal.ac.in"
M10397,Sangam University,,Bhilwara,,Rajasthan,311001,Dr.Sumer Singh,78910 50006,president@sangamuniversity.ac.in
M10398,Kalasalingam Institute of Technology,"Anand Nagar, Srivilliputtur(TRK), Virudhunagar District,",Krishnankoil,,Tamilnadu,626126,Dr.S.Harikrishnan,,
M10399,Matoshri College of Engineering and Research Centre,"Eaklahare, Near Odhagaon, off Aurangabad Highway, ",Nashik,,Maharashtra,422105,Dr.Gajanan Kashiram Kharate,96047 88280,gkkharate@rediffmail.com
